<?xml version="1.0" encoding="utf-8" standalone="yes"?>

<gpx version="1.1" creator="heyjoe.hu" xmlns="http://www.topografix.com/GPX/1/1" xmlns:xsi="http://www.w3.org/2001/XMLSchema-instance" xsi:schemaLocation="http://www.topografix.com/GPX/1/1 http://www.topografix.com/GPX/1/1/gpx.xsd">
<trk>
<trkseg>
<trkpt lat="47.16696" lon="18.1221" />
<trkpt lat="47.16646" lon="18.12304" />
<trkpt lat="47.16584" lon="18.12421" />
<trkpt lat="47.16542" lon="18.12362" />
<trkpt lat="47.16508" lon="18.12302" />
<trkpt lat="47.16485" lon="18.12237" />
<trkpt lat="47.16467" lon="18.12187" />
<trkpt lat="47.16453" lon="18.12167" />
<trkpt lat="47.16413" lon="18.12148" />
<trkpt lat="47.16409" lon="18.12147" />
<trkpt lat="47.1641" lon="18.12139" />
<trkpt lat="47.16389" lon="18.12102" />
<trkpt lat="47.16364" lon="18.12041" />
<trkpt lat="47.16306" lon="18.11983" />
<trkpt lat="47.16226" lon="18.11916" />
<trkpt lat="47.16208" lon="18.11902" />
<trkpt lat="47.16111" lon="18.11823" />
<trkpt lat="47.16081" lon="18.11799" />
<trkpt lat="47.16029" lon="18.11756" />
<trkpt lat="47.16004" lon="18.11735" />
<trkpt lat="47.15961" lon="18.11698" />
<trkpt lat="47.15832" lon="18.11583" />
<trkpt lat="47.15726" lon="18.1149" />
<trkpt lat="47.1558" lon="18.11359" />
<trkpt lat="47.15589" lon="18.11279" />
<trkpt lat="47.1556" lon="18.11219" />
<trkpt lat="47.15553" lon="18.11183" />
<trkpt lat="47.15553" lon="18.11132" />
<trkpt lat="47.15527" lon="18.11063" />
<trkpt lat="47.15523" lon="18.11021" />
<trkpt lat="47.15508" lon="18.10977" />
<trkpt lat="47.15479" lon="18.10948" />
<trkpt lat="47.15469" lon="18.10925" />
<trkpt lat="47.15444" lon="18.10903" />
<trkpt lat="47.15392" lon="18.10822" />
<trkpt lat="47.15386" lon="18.10791" />
<trkpt lat="47.15386" lon="18.10737" />
<trkpt lat="47.15372" lon="18.10644" />
<trkpt lat="47.1537" lon="18.10554" />
<trkpt lat="47.15364" lon="18.10494" />
<trkpt lat="47.15353" lon="18.10442" />
<trkpt lat="47.15323" lon="18.1032" />
<trkpt lat="47.15313" lon="18.10247" />
<trkpt lat="47.15298" lon="18.10135" />
<trkpt lat="47.15296" lon="18.10072" />
<trkpt lat="47.15283" lon="18.10018" />
<trkpt lat="47.15215" lon="18.09838" />
<trkpt lat="47.15199" lon="18.09817" />
<trkpt lat="47.15184" lon="18.09816" />
<trkpt lat="47.15096" lon="18.09849" />
<trkpt lat="47.1506" lon="18.09843" />
<trkpt lat="47.15047" lon="18.09848" />
<trkpt lat="47.15039" lon="18.09797" />
<trkpt lat="47.15049" lon="18.09752" />
<trkpt lat="47.15045" lon="18.09714" />
<trkpt lat="47.15031" lon="18.09672" />
<trkpt lat="47.15017" lon="18.09663" />
<trkpt lat="47.14752" lon="18.09827" />
<trkpt lat="47.14452" lon="18.09104" />
<trkpt lat="47.1425" lon="18.08631" />
<trkpt lat="47.14139" lon="18.08711" />
<trkpt lat="47.14103" lon="18.08797" />
<trkpt lat="47.14076" lon="18.08835" />
<trkpt lat="47.13989" lon="18.08916" />
<trkpt lat="47.13812" lon="18.08493" />
<trkpt lat="47.13726" lon="18.08288" />
<trkpt lat="47.13653" lon="18.08127" />
<trkpt lat="47.13615" lon="18.08011" />
<trkpt lat="47.13578" lon="18.07981" />
<trkpt lat="47.13541" lon="18.07991" />
<trkpt lat="47.13465" lon="18.07995" />
<trkpt lat="47.13259" lon="18.08042" />
<trkpt lat="47.13237" lon="18.08047" />
<trkpt lat="47.13216" lon="18.08025" />
<trkpt lat="47.13203" lon="18.07992" />
<trkpt lat="47.13245" lon="18.07891" />
<trkpt lat="47.13252" lon="18.07805" />
<trkpt lat="47.13251" lon="18.07675" />
<trkpt lat="47.1317" lon="18.07673" />
<trkpt lat="47.13155" lon="18.07649" />
<trkpt lat="47.13138" lon="18.07531" />
<trkpt lat="47.13116" lon="18.07461" />
<trkpt lat="47.13096" lon="18.07318" />
<trkpt lat="47.13115" lon="18.07199" />
<trkpt lat="47.1316" lon="18.07109" />
<trkpt lat="47.13175" lon="18.07053" />
<trkpt lat="47.132" lon="18.07016" />
<trkpt lat="47.13219" lon="18.06969" />
<trkpt lat="47.13223" lon="18.06928" />
<trkpt lat="47.13223" lon="18.06896" />
<trkpt lat="47.1321" lon="18.06731" />
<trkpt lat="47.13235" lon="18.06635" />
<trkpt lat="47.13234" lon="18.06617" />
<trkpt lat="47.13222" lon="18.06586" />
<trkpt lat="47.13187" lon="18.06536" />
<trkpt lat="47.13105" lon="18.06369" />
<trkpt lat="47.13026" lon="18.06182" />
<trkpt lat="47.12937" lon="18.06016" />
<trkpt lat="47.12864" lon="18.0598" />
<trkpt lat="47.12777" lon="18.05962" />
<trkpt lat="47.12767" lon="18.05952" />
<trkpt lat="47.12692" lon="18.05879" />
<trkpt lat="47.12658" lon="18.05833" />
<trkpt lat="47.12612" lon="18.058" />
<trkpt lat="47.12505" lon="18.05747" />
<trkpt lat="47.12339" lon="18.05727" />
<trkpt lat="47.12266" lon="18.05691" />
<trkpt lat="47.12111" lon="18.05653" />
<trkpt lat="47.12074" lon="18.05672" />
<trkpt lat="47.12038" lon="18.05654" />
<trkpt lat="47.12033" lon="18.05613" />
<trkpt lat="47.12047" lon="18.05597" />
<trkpt lat="47.12058" lon="18.05531" />
<trkpt lat="47.12054" lon="18.05503" />
<trkpt lat="47.12015" lon="18.05445" />
<trkpt lat="47.12015" lon="18.05445" />
<trkpt lat="47.11985" lon="18.05458" />
<trkpt lat="47.11978" lon="18.05458" />
<trkpt lat="47.11964" lon="18.05389" />
<trkpt lat="47.11967" lon="18.05315" />
<trkpt lat="47.11921" lon="18.05254" />
<trkpt lat="47.11834" lon="18.05121" />
<trkpt lat="47.11791" lon="18.05082" />
<trkpt lat="47.11619" lon="18.0503" />
<trkpt lat="47.1156" lon="18.05047" />
<trkpt lat="47.11388" lon="18.05123" />
<trkpt lat="47.11242" lon="18.0515" />
<trkpt lat="47.11123" lon="18.05185" />
<trkpt lat="47.1112" lon="18.05182" />
<trkpt lat="47.11113" lon="18.05175" />
<trkpt lat="47.11081" lon="18.05139" />
<trkpt lat="47.11053" lon="18.05112" />
<trkpt lat="47.11035" lon="18.05083" />
<trkpt lat="47.1102" lon="18.05021" />
<trkpt lat="47.11019" lon="18.04896" />
<trkpt lat="47.11017" lon="18.04735" />
<trkpt lat="47.10979" lon="18.04557" />
<trkpt lat="47.1097" lon="18.04536" />
<trkpt lat="47.1093" lon="18.0443" />
<trkpt lat="47.10923" lon="18.04397" />
<trkpt lat="47.10852" lon="18.04327" />
<trkpt lat="47.10834" lon="18.04324" />
<trkpt lat="47.10801" lon="18.04342" />
<trkpt lat="47.10793" lon="18.0435" />
<trkpt lat="47.10776" lon="18.04279" />
<trkpt lat="47.10772" lon="18.04244" />
<trkpt lat="47.10781" lon="18.03947" />
<trkpt lat="47.10781" lon="18.03947" />
<trkpt lat="47.10782" lon="18.03859" />
<trkpt lat="47.10777" lon="18.03843" />
<trkpt lat="47.10776" lon="18.03838" />
<trkpt lat="47.10758" lon="18.03771" />
<trkpt lat="47.10796" lon="18.03706" />
<trkpt lat="47.10852" lon="18.0359" />
<trkpt lat="47.10949" lon="18.03362" />
<trkpt lat="47.10939" lon="18.03358" />
<trkpt lat="47.10901" lon="18.03352" />
<trkpt lat="47.10855" lon="18.03372" />
<trkpt lat="47.10794" lon="18.03379" />
<trkpt lat="47.10742" lon="18.03341" />
<trkpt lat="47.10737" lon="18.03329" />
<trkpt lat="47.10733" lon="18.03315" />
<trkpt lat="47.10733" lon="18.03287" />
<trkpt lat="47.10737" lon="18.03266" />
<trkpt lat="47.10756" lon="18.03235" />
<trkpt lat="47.10755" lon="18.03215" />
<trkpt lat="47.10747" lon="18.03193" />
<trkpt lat="47.10621" lon="18.03005" />
<trkpt lat="47.10524" lon="18.02861" />
<trkpt lat="47.10515" lon="18.02846" />
<trkpt lat="47.10496" lon="18.02829" />
<trkpt lat="47.1046" lon="18.02764" />
<trkpt lat="47.10394" lon="18.02669" />
<trkpt lat="47.10347" lon="18.02727" />
<trkpt lat="47.10324" lon="18.02812" />
<trkpt lat="47.10286" lon="18.02848" />
<trkpt lat="47.10262" lon="18.02863" />
<trkpt lat="47.10244" lon="18.02864" />
<trkpt lat="47.10238" lon="18.02853" />
<trkpt lat="47.10229" lon="18.02811" />
<trkpt lat="47.10218" lon="18.02802" />
<trkpt lat="47.10145" lon="18.02828" />
<trkpt lat="47.10129" lon="18.02824" />
<trkpt lat="47.10091" lon="18.02789" />
<trkpt lat="47.10091" lon="18.0277" />
<trkpt lat="47.10087" lon="18.02726" />
<trkpt lat="47.10106" lon="18.02689" />
<trkpt lat="47.10103" lon="18.02671" />
<trkpt lat="47.1009" lon="18.02638" />
<trkpt lat="47.10089" lon="18.02566" />
<trkpt lat="47.10042" lon="18.02483" />
<trkpt lat="47.10031" lon="18.02448" />
<trkpt lat="47.0998" lon="18.0238" />
<trkpt lat="47.09929" lon="18.02298" />
<trkpt lat="47.09917" lon="18.02267" />
<trkpt lat="47.0988" lon="18.02101" />
<trkpt lat="47.09857" lon="18.02073" />
<trkpt lat="47.09821" lon="18.02042" />
<trkpt lat="47.098" lon="18.01985" />
<trkpt lat="47.09772" lon="18.01945" />
<trkpt lat="47.09754" lon="18.01932" />
<trkpt lat="47.0974" lon="18.01909" />
<trkpt lat="47.09737" lon="18.01886" />
<trkpt lat="47.09725" lon="18.01874" />
<trkpt lat="47.09711" lon="18.01859" />
<trkpt lat="47.09711" lon="18.01859" />
<trkpt lat="47.09705" lon="18.01851" />
<trkpt lat="47.09681" lon="18.01788" />
<trkpt lat="47.09657" lon="18.01734" />
<trkpt lat="47.09652" lon="18.01616" />
<trkpt lat="47.0964" lon="18.01535" />
<trkpt lat="47.09616" lon="18.01487" />
<trkpt lat="47.09594" lon="18.0143" />
<trkpt lat="47.09587" lon="18.0139" />
<trkpt lat="47.0959" lon="18.01363" />
<trkpt lat="47.09534" lon="18.01359" />
<trkpt lat="47.09317" lon="18.0114" />
<trkpt lat="47.09237" lon="18.01068" />
<trkpt lat="47.09095" lon="18.00952" />
<trkpt lat="47.09063" lon="18.00919" />
<trkpt lat="47.09006" lon="18.00855" />
<trkpt lat="47.08983" lon="18.00843" />
<trkpt lat="47.08913" lon="18.00877" />
<trkpt lat="47.08849" lon="18.00968" />
<trkpt lat="47.08815" lon="18.00989" />
<trkpt lat="47.08712" lon="18.0102" />
<trkpt lat="47.08579" lon="18.01026" />
<trkpt lat="47.08524" lon="18.0102" />
<trkpt lat="47.08462" lon="18.01055" />
<trkpt lat="47.08433" lon="18.01079" />
<trkpt lat="47.08413" lon="18.01073" />
<trkpt lat="47.08385" lon="18.01046" />
<trkpt lat="47.08366" lon="18.01047" />
<trkpt lat="47.08316" lon="18.01098" />
<trkpt lat="47.08305" lon="18.01094" />
<trkpt lat="47.08284" lon="18.01069" />
<trkpt lat="47.08275" lon="18.01073" />
<trkpt lat="47.08261" lon="18.01107" />
<trkpt lat="47.08236" lon="18.01143" />
<trkpt lat="47.08211" lon="18.01159" />
<trkpt lat="47.08189" lon="18.01186" />
<trkpt lat="47.08168" lon="18.01187" />
<trkpt lat="47.08091" lon="18.0114" />
<trkpt lat="47.08077" lon="18.01115" />
<trkpt lat="47.08055" lon="18.01049" />
<trkpt lat="47.07999" lon="18.00938" />
<trkpt lat="47.07968" lon="18.00915" />
<trkpt lat="47.07905" lon="18.00917" />
<trkpt lat="47.07884" lon="18.0093" />
<trkpt lat="47.07903" lon="18.00881" />
<trkpt lat="47.07934" lon="18.00721" />
<trkpt lat="47.07941" lon="18.0062" />
<trkpt lat="47.07937" lon="18.00579" />
<trkpt lat="47.07943" lon="18.00534" />
<trkpt lat="47.07963" lon="18.00482" />
<trkpt lat="47.08041" lon="18.00439" />
<trkpt lat="47.08055" lon="18.00418" />
<trkpt lat="47.08061" lon="18.00387" />
<trkpt lat="47.08057" lon="18.00361" />
<trkpt lat="47.0805" lon="18.00343" />
<trkpt lat="47.0803" lon="18.00332" />
<trkpt lat="47.07889" lon="18.00177" />
<trkpt lat="47.07805" lon="18.00135" />
<trkpt lat="47.07742" lon="18.00131" />
<trkpt lat="47.07633" lon="18.00157" />
<trkpt lat="47.07607" lon="18.00151" />
<trkpt lat="47.07569" lon="18.00118" />
<trkpt lat="47.07532" lon="18.00072" />
<trkpt lat="47.07515" lon="18.00033" />
<trkpt lat="47.07499" lon="17.99973" />
<trkpt lat="47.07454" lon="17.99888" />
<trkpt lat="47.07438" lon="17.99805" />
<trkpt lat="47.07408" lon="17.99687" />
<trkpt lat="47.07374" lon="17.996" />
<trkpt lat="47.07343" lon="17.99556" />
<trkpt lat="47.07291" lon="17.99508" />
<trkpt lat="47.07249" lon="17.99485" />
<trkpt lat="47.07197" lon="17.99424" />
<trkpt lat="47.07188" lon="17.99422" />
<trkpt lat="47.07139" lon="17.99405" />
<trkpt lat="47.07117" lon="17.99411" />
<trkpt lat="47.07091" lon="17.99447" />
<trkpt lat="47.0706" lon="17.99572" />
<trkpt lat="47.07018" lon="17.9967" />
<trkpt lat="47.07008" lon="17.99704" />
<trkpt lat="47.06986" lon="17.99726" />
<trkpt lat="47.06948" lon="17.99785" />
<trkpt lat="47.06946" lon="17.99819" />
<trkpt lat="47.06937" lon="17.99848" />
<trkpt lat="47.0694" lon="17.9986" />
<trkpt lat="47.06886" lon="17.99967" />
<trkpt lat="47.06873" lon="18.00051" />
<trkpt lat="47.06875" lon="18.00089" />
<trkpt lat="47.06861" lon="18.00125" />
<trkpt lat="47.06905" lon="18.00237" />
<trkpt lat="47.06889" lon="18.00293" />
<trkpt lat="47.06863" lon="18.00353" />
<trkpt lat="47.06857" lon="18.00383" />
<trkpt lat="47.06861" lon="18.00429" />
<trkpt lat="47.06856" lon="18.00459" />
<trkpt lat="47.06861" lon="18.00524" />
<trkpt lat="47.06821" lon="18.005" />
<trkpt lat="47.06796" lon="18.00491" />
<trkpt lat="47.06773" lon="18.00467" />
<trkpt lat="47.06758" lon="18.00465" />
<trkpt lat="47.0668" lon="18.00494" />
<trkpt lat="47.06639" lon="18.00486" />
<trkpt lat="47.06585" lon="18.00519" />
<trkpt lat="47.06569" lon="18.00515" />
<trkpt lat="47.06558" lon="18.00522" />
<trkpt lat="47.06548" lon="18.00521" />
<trkpt lat="47.06531" lon="18.00524" />
<trkpt lat="47.06483" lon="18.00507" />
<trkpt lat="47.06432" lon="18.00472" />
<trkpt lat="47.06399" lon="18.00511" />
<trkpt lat="47.06382" lon="18.00524" />
<trkpt lat="47.06366" lon="18.0055" />
<trkpt lat="47.0631" lon="18.00607" />
<trkpt lat="47.06179" lon="18.00765" />
<trkpt lat="47.06163" lon="18.00779" />
<trkpt lat="47.06134" lon="18.00743" />
<trkpt lat="47.06018" lon="18.00613" />
<trkpt lat="47.05978" lon="18.00584" />
<trkpt lat="47.05947" lon="18.00575" />
<trkpt lat="47.05917" lon="18.0055" />
<trkpt lat="47.05869" lon="18.00467" />
<trkpt lat="47.0574" lon="18.00305" />
<trkpt lat="47.05709" lon="18.00255" />
<trkpt lat="47.05673" lon="18.00226" />
<trkpt lat="47.05656" lon="18.00196" />
<trkpt lat="47.05638" lon="18.00151" />
<trkpt lat="47.05622" lon="18.00137" />
<trkpt lat="47.05599" lon="18.00143" />
<trkpt lat="47.05578" lon="18.00156" />
<trkpt lat="47.0553" lon="18.00151" />
<trkpt lat="47.05514" lon="18.0014" />
<trkpt lat="47.05468" lon="18.00127" />
<trkpt lat="47.05426" lon="18.00096" />
<trkpt lat="47.05412" lon="18.00077" />
<trkpt lat="47.0537" lon="18.00038" />
<trkpt lat="47.05361" lon="18.00038" />
<trkpt lat="47.05331" lon="18.00013" />
<trkpt lat="47.05319" lon="17.99991" />
<trkpt lat="47.05387" lon="17.99881" />
<trkpt lat="47.05335" lon="17.99758" />
<trkpt lat="47.05322" lon="17.99733" />
<trkpt lat="47.05285" lon="17.99711" />
<trkpt lat="47.053" lon="17.99642" />
<trkpt lat="47.05303" lon="17.99596" />
<trkpt lat="47.05325" lon="17.99504" />
<trkpt lat="47.05345" lon="17.99426" />
<trkpt lat="47.05411" lon="17.99148" />
<trkpt lat="47.05428" lon="17.99108" />
<trkpt lat="47.05483" lon="17.9901" />
<trkpt lat="47.05531" lon="17.98945" />
<trkpt lat="47.05518" lon="17.9893" />
<trkpt lat="47.05493" lon="17.98923" />
<trkpt lat="47.05478" lon="17.98933" />
<trkpt lat="47.05398" lon="17.98958" />
<trkpt lat="47.05385" lon="17.98979" />
<trkpt lat="47.05315" lon="17.99005" />
<trkpt lat="47.05279" lon="17.99005" />
<trkpt lat="47.05253" lon="17.99016" />
<trkpt lat="47.05245" lon="17.99029" />
<trkpt lat="47.05195" lon="17.99063" />
<trkpt lat="47.05117" lon="17.99095" />
<trkpt lat="47.05093" lon="17.99121" />
<trkpt lat="47.05085" lon="17.99147" />
<trkpt lat="47.05088" lon="17.99183" />
<trkpt lat="47.05099" lon="17.99213" />
<trkpt lat="47.05122" lon="17.99258" />
<trkpt lat="47.05139" lon="17.99325" />
<trkpt lat="47.05135" lon="17.99386" />
<trkpt lat="47.0513" lon="17.99419" />
<trkpt lat="47.05072" lon="17.99572" />
<trkpt lat="47.05053" lon="17.9966" />
<trkpt lat="47.05029" lon="17.99726" />
<trkpt lat="47.04961" lon="17.99823" />
<trkpt lat="47.04941" lon="17.99863" />
<trkpt lat="47.04879" lon="17.99918" />
<trkpt lat="47.04852" lon="17.99977" />
<trkpt lat="47.04815" lon="18.00067" />
<trkpt lat="47.04747" lon="18.00129" />
<trkpt lat="47.0472" lon="18.00152" />
<trkpt lat="47.04684" lon="18.00176" />
<trkpt lat="47.04599" lon="18.003" />
<trkpt lat="47.04577" lon="18.00406" />
<trkpt lat="47.04614" lon="18.00441" />
<trkpt lat="47.04644" lon="18.0049" />
<trkpt lat="47.04665" lon="18.00586" />
<trkpt lat="47.04698" lon="18.00665" />
<trkpt lat="47.04715" lon="18.00743" />
<trkpt lat="47.0464" lon="18.0081" />
<trkpt lat="47.04507" lon="18.00916" />
<trkpt lat="47.04429" lon="18.00967" />
<trkpt lat="47.04411" lon="18.00967" />
<trkpt lat="47.0438" lon="18.00964" />
<trkpt lat="47.04326" lon="18.00953" />
<trkpt lat="47.04287" lon="18.00925" />
<trkpt lat="47.04261" lon="18.00891" />
<trkpt lat="47.04223" lon="18.00856" />
<trkpt lat="47.04202" lon="18.00846" />
<trkpt lat="47.04171" lon="18.00833" />
<trkpt lat="47.04124" lon="18.00814" />
<trkpt lat="47.04097" lon="18.00815" />
<trkpt lat="47.04053" lon="18.00839" />
<trkpt lat="47.03961" lon="18.00919" />
<trkpt lat="47.0394" lon="18.00949" />
<trkpt lat="47.03889" lon="18.01053" />
<trkpt lat="47.0388" lon="18.01071" />
<trkpt lat="47.03828" lon="18.01153" />
<trkpt lat="47.03786" lon="18.012" />
<trkpt lat="47.03625" lon="18.01337" />
<trkpt lat="47.03601" lon="18.01356" />
<trkpt lat="47.03592" lon="18.01363" />
<trkpt lat="47.03537" lon="18.01393" />
<trkpt lat="47.03516" lon="18.014" />
<trkpt lat="47.03505" lon="18.01403" />
<trkpt lat="47.03486" lon="18.01407" />
<trkpt lat="47.03441" lon="18.01414" />
<trkpt lat="47.034" lon="18.01409" />
<trkpt lat="47.03359" lon="18.014" />
<trkpt lat="47.03349" lon="18.01409" />
<trkpt lat="47.0326" lon="18.01403" />
<trkpt lat="47.03197" lon="18.01471" />
<trkpt lat="47.03161" lon="18.01503" />
<trkpt lat="47.03096" lon="18.01539" />
<trkpt lat="47.03071" lon="18.01551" />
<trkpt lat="47.03049" lon="18.0157" />
<trkpt lat="47.03042" lon="18.0157" />
<trkpt lat="47.03014" lon="18.01565" />
<trkpt lat="47.03001" lon="18.01564" />
<trkpt lat="47.0298" lon="18.01554" />
<trkpt lat="47.02949" lon="18.01537" />
<trkpt lat="47.02941" lon="18.01526" />
<trkpt lat="47.02937" lon="18.01528" />
<trkpt lat="47.02914" lon="18.01539" />
<trkpt lat="47.02906" lon="18.01542" />
<trkpt lat="47.02903" lon="18.0153" />
<trkpt lat="47.02901" lon="18.01513" />
<trkpt lat="47.02901" lon="18.01513" />
<trkpt lat="47.02899" lon="18.0148" />
<trkpt lat="47.02894" lon="18.01461" />
<trkpt lat="47.0289" lon="18.01441" />
<trkpt lat="47.02889" lon="18.01417" />
<trkpt lat="47.02918" lon="18.01369" />
<trkpt lat="47.02942" lon="18.01327" />
<trkpt lat="47.02966" lon="18.01282" />
<trkpt lat="47.02962" lon="18.01269" />
<trkpt lat="47.02902" lon="18.01187" />
<trkpt lat="47.02857" lon="18.01132" />
<trkpt lat="47.02814" lon="18.011" />
<trkpt lat="47.02759" lon="18.01051" />
<trkpt lat="47.02737" lon="18.01025" />
<trkpt lat="47.02724" lon="18.01008" />
<trkpt lat="47.02666" lon="18.00962" />
<trkpt lat="47.02592" lon="18.00904" />
<trkpt lat="47.02462" lon="18.00781" />
<trkpt lat="47.02407" lon="18.00721" />
<trkpt lat="47.0238" lon="18.00699" />
<trkpt lat="47.02342" lon="18.00699" />
<trkpt lat="47.02329" lon="18.00698" />
<trkpt lat="47.02237" lon="18.00647" />
<trkpt lat="47.02206" lon="18.00636" />
<trkpt lat="47.02131" lon="18.00632" />
<trkpt lat="47.02067" lon="18.00614" />
<trkpt lat="47.01978" lon="18.0058" />
<trkpt lat="47.01878" lon="18.00569" />
<trkpt lat="47.01799" lon="18.00573" />
<trkpt lat="47.01788" lon="18.00576" />
<trkpt lat="47.01783" lon="18.00564" />
<trkpt lat="47.01736" lon="18.00539" />
<trkpt lat="47.01687" lon="18.00505" />
<trkpt lat="47.01719" lon="18.00368" />
<trkpt lat="47.01703" lon="18.0026" />
<trkpt lat="47.01686" lon="18.00201" />
<trkpt lat="47.01677" lon="18.00153" />
<trkpt lat="47.0168" lon="18.00061" />
<trkpt lat="47.01684" lon="18.00011" />
<trkpt lat="47.01689" lon="17.99911" />
<trkpt lat="47.01699" lon="17.99825" />
<trkpt lat="47.01666" lon="17.99679" />
<trkpt lat="47.01646" lon="17.99626" />
<trkpt lat="47.01621" lon="17.99585" />
<trkpt lat="47.01605" lon="17.99563" />
<trkpt lat="47.01587" lon="17.99519" />
<trkpt lat="47.01583" lon="17.99498" />
<trkpt lat="47.0158" lon="17.99412" />
<trkpt lat="47.01561" lon="17.9932" />
<trkpt lat="47.01511" lon="17.99202" />
<trkpt lat="47.01439" lon="17.99076" />
<trkpt lat="47.01422" lon="17.99051" />
<trkpt lat="47.01388" lon="17.99016" />
<trkpt lat="47.01349" lon="17.98976" />
<trkpt lat="47.01346" lon="17.98974" />
<trkpt lat="47.01326" lon="17.98958" />
<trkpt lat="47.0122" lon="17.98884" />
<trkpt lat="47.01172" lon="17.98873" />
<trkpt lat="47.01144" lon="17.98864" />
<trkpt lat="47.01124" lon="17.98855" />
<trkpt lat="47.01074" lon="17.98806" />
<trkpt lat="47.01075" lon="17.98749" />
<trkpt lat="47.01088" lon="17.9871" />
<trkpt lat="47.01101" lon="17.9869" />
<trkpt lat="47.01102" lon="17.98654" />
<trkpt lat="47.01119" lon="17.98602" />
<trkpt lat="47.01105" lon="17.98532" />
<trkpt lat="47.01096" lon="17.98516" />
<trkpt lat="47.01102" lon="17.98501" />
<trkpt lat="47.01093" lon="17.98448" />
<trkpt lat="47.01069" lon="17.98398" />
<trkpt lat="47.01051" lon="17.98351" />
<trkpt lat="47.01032" lon="17.9832" />
<trkpt lat="47.0097" lon="17.98201" />
<trkpt lat="47.0094" lon="17.98172" />
<trkpt lat="47.00901" lon="17.98152" />
<trkpt lat="47.00867" lon="17.98153" />
<trkpt lat="47.00851" lon="17.9814" />
<trkpt lat="47.0082" lon="17.98127" />
<trkpt lat="47.00778" lon="17.98144" />
<trkpt lat="47.0076" lon="17.98133" />
<trkpt lat="47.00734" lon="17.98069" />
<trkpt lat="47.00739" lon="17.98042" />
<trkpt lat="47.00732" lon="17.98027" />
<trkpt lat="47.00732" lon="17.98027" />
<trkpt lat="47.0073" lon="17.98019" />
<trkpt lat="47.00736" lon="17.97967" />
<trkpt lat="47.00808" lon="17.97839" />
<trkpt lat="47.00845" lon="17.97748" />
<trkpt lat="47.00839" lon="17.97738" />
<trkpt lat="47.00811" lon="17.97734" />
<trkpt lat="47.00798" lon="17.97754" />
<trkpt lat="47.00767" lon="17.97784" />
<trkpt lat="47.00748" lon="17.97784" />
<trkpt lat="47.00679" lon="17.97832" />
<trkpt lat="47.00627" lon="17.97837" />
<trkpt lat="47.00604" lon="17.9785" />
<trkpt lat="47.00513" lon="17.97862" />
<trkpt lat="47.00507" lon="17.97856" />
<trkpt lat="47.00502" lon="17.97835" />
<trkpt lat="47.00505" lon="17.97781" />
<trkpt lat="47.00517" lon="17.97751" />
<trkpt lat="47.00523" lon="17.97716" />
<trkpt lat="47.00522" lon="17.97678" />
<trkpt lat="47.00513" lon="17.97671" />
<trkpt lat="47.00497" lon="17.97677" />
<trkpt lat="47.00434" lon="17.97609" />
<trkpt lat="47.00427" lon="17.97584" />
<trkpt lat="47.00416" lon="17.97579" />
<trkpt lat="47.00394" lon="17.97533" />
<trkpt lat="47.00356" lon="17.97422" />
<trkpt lat="47.00329" lon="17.97383" />
<trkpt lat="47.00324" lon="17.97342" />
<trkpt lat="47.00329" lon="17.97303" />
<trkpt lat="47.00332" lon="17.9729" />
<trkpt lat="47.00326" lon="17.97214" />
<trkpt lat="47.00301" lon="17.97167" />
<trkpt lat="47.0029" lon="17.97165" />
<trkpt lat="47.00185" lon="17.9719" />
<trkpt lat="47.0012" lon="17.97229" />
<trkpt lat="47.00088" lon="17.97253" />
<trkpt lat="47.00059" lon="17.97266" />
<trkpt lat="47.00035" lon="17.97277" />
<trkpt lat="46.99975" lon="17.97339" />
<trkpt lat="46.99895" lon="17.97373" />
<trkpt lat="46.99813" lon="17.97385" />
<trkpt lat="46.99715" lon="17.97384" />
<trkpt lat="46.99686" lon="17.97381" />
<trkpt lat="46.9962" lon="17.97374" />
<trkpt lat="46.99534" lon="17.97366" />
<trkpt lat="46.99507" lon="17.97367" />
<trkpt lat="46.9946" lon="17.97365" />
<trkpt lat="46.9946" lon="17.97365" />
<trkpt lat="46.99366" lon="17.97194" />
<trkpt lat="46.9936" lon="17.97145" />
<trkpt lat="46.99396" lon="17.97015" />
<trkpt lat="46.99416" lon="17.96981" />
<trkpt lat="46.99455" lon="17.96924" />
<trkpt lat="46.99462" lon="17.9688" />
<trkpt lat="46.99453" lon="17.9684" />
<trkpt lat="46.99441" lon="17.96781" />
<trkpt lat="46.99416" lon="17.96647" />
<trkpt lat="46.99411" lon="17.96608" />
<trkpt lat="46.99404" lon="17.96549" />
<trkpt lat="46.99394" lon="17.96447" />
<trkpt lat="46.99404" lon="17.96295" />
<trkpt lat="46.99404" lon="17.96283" />
<trkpt lat="46.99422" lon="17.96228" />
<trkpt lat="46.99396" lon="17.96192" />
<trkpt lat="46.99372" lon="17.96113" />
<trkpt lat="46.99329" lon="17.96042" />
<trkpt lat="46.99277" lon="17.95961" />
<trkpt lat="46.99277" lon="17.95924" />
<trkpt lat="46.99298" lon="17.95902" />
<trkpt lat="46.99325" lon="17.95874" />
<trkpt lat="46.99336" lon="17.9585" />
<trkpt lat="46.99325" lon="17.9575" />
<trkpt lat="46.99322" lon="17.95732" />
<trkpt lat="46.99319" lon="17.95703" />
<trkpt lat="46.99313" lon="17.9567" />
<trkpt lat="46.99328" lon="17.95653" />
<trkpt lat="46.99355" lon="17.95636" />
<trkpt lat="46.99328" lon="17.95452" />
<trkpt lat="46.99327" lon="17.95443" />
<trkpt lat="46.99326" lon="17.95436" />
<trkpt lat="46.99313" lon="17.95356" />
<trkpt lat="46.99301" lon="17.95275" />
<trkpt lat="46.99293" lon="17.95218" />
<trkpt lat="46.99281" lon="17.95161" />
<trkpt lat="46.99259" lon="17.95088" />
<trkpt lat="46.99239" lon="17.95023" />
<trkpt lat="46.99215" lon="17.94945" />
<trkpt lat="46.99189" lon="17.94834" />
<trkpt lat="46.9915" lon="17.94714" />
<trkpt lat="46.99147" lon="17.94698" />
<trkpt lat="46.99167" lon="17.94646" />
<trkpt lat="46.99165" lon="17.94627" />
<trkpt lat="46.9918" lon="17.94568" />
<trkpt lat="46.99185" lon="17.94544" />
<trkpt lat="46.99187" lon="17.94415" />
<trkpt lat="46.99149" lon="17.94362" />
<trkpt lat="46.9912" lon="17.94306" />
<trkpt lat="46.99081" lon="17.94199" />
<trkpt lat="46.99017" lon="17.94124" />
<trkpt lat="46.98965" lon="17.94034" />
<trkpt lat="46.98957" lon="17.94021" />
<trkpt lat="46.98938" lon="17.93983" />
<trkpt lat="46.98895" lon="17.93883" />
<trkpt lat="46.98882" lon="17.93847" />
<trkpt lat="46.98839" lon="17.93784" />
<trkpt lat="46.98812" lon="17.93702" />
<trkpt lat="46.98781" lon="17.93638" />
<trkpt lat="46.98745" lon="17.93604" />
<trkpt lat="46.98704" lon="17.93623" />
<trkpt lat="46.98687" lon="17.93613" />
<trkpt lat="46.98709" lon="17.93559" />
<trkpt lat="46.98744" lon="17.93472" />
<trkpt lat="46.98736" lon="17.93414" />
<trkpt lat="46.98759" lon="17.93321" />
<trkpt lat="46.9877" lon="17.93296" />
<trkpt lat="46.98791" lon="17.93265" />
<trkpt lat="46.98834" lon="17.93193" />
<trkpt lat="46.98901" lon="17.93132" />
<trkpt lat="46.98993" lon="17.93088" />
<trkpt lat="46.99052" lon="17.93072" />
<trkpt lat="46.99165" lon="17.93054" />
<trkpt lat="46.99236" lon="17.93039" />
<trkpt lat="46.99242" lon="17.9304" />
<trkpt lat="46.99278" lon="17.92999" />
<trkpt lat="46.99298" lon="17.92958" />
<trkpt lat="46.99326" lon="17.92929" />
<trkpt lat="46.99349" lon="17.92924" />
<trkpt lat="46.99406" lon="17.92863" />
<trkpt lat="46.99436" lon="17.92856" />
<trkpt lat="46.99449" lon="17.92861" />
<trkpt lat="46.99463" lon="17.92858" />
<trkpt lat="46.99504" lon="17.92829" />
<trkpt lat="46.99478" lon="17.92777" />
<trkpt lat="46.99428" lon="17.92714" />
<trkpt lat="46.99426" lon="17.92708" />
<trkpt lat="46.99429" lon="17.9269" />
<trkpt lat="46.99465" lon="17.92603" />
<trkpt lat="46.99418" lon="17.92539" />
<trkpt lat="46.99366" lon="17.92499" />
<trkpt lat="46.99226" lon="17.92423" />
<trkpt lat="46.99199" lon="17.92404" />
<trkpt lat="46.99139" lon="17.92361" />
<trkpt lat="46.99087" lon="17.92325" />
<trkpt lat="46.99018" lon="17.92304" />
<trkpt lat="46.98966" lon="17.92272" />
<trkpt lat="46.98947" lon="17.92236" />
<trkpt lat="46.98931" lon="17.92221" />
<trkpt lat="46.98914" lon="17.92205" />
<trkpt lat="46.98751" lon="17.92176" />
<trkpt lat="46.98733" lon="17.92159" />
<trkpt lat="46.98675" lon="17.92157" />
<trkpt lat="46.98639" lon="17.92142" />
<trkpt lat="46.98628" lon="17.92127" />
<trkpt lat="46.9859" lon="17.92129" />
<trkpt lat="46.98515" lon="17.92108" />
<trkpt lat="46.98499" lon="17.92123" />
<trkpt lat="46.98479" lon="17.92123" />
<trkpt lat="46.98371" lon="17.92159" />
<trkpt lat="46.98356" lon="17.92144" />
<trkpt lat="46.98345" lon="17.92111" />
<trkpt lat="46.98325" lon="17.9213" />
<trkpt lat="46.98298" lon="17.92059" />
<trkpt lat="46.98263" lon="17.92084" />
<trkpt lat="46.98263" lon="17.92084" />
<trkpt lat="46.98256" lon="17.92039" />
<trkpt lat="46.9825" lon="17.92039" />
<trkpt lat="46.98251" lon="17.92025" />
<trkpt lat="46.98273" lon="17.92019" />
<trkpt lat="46.98319" lon="17.9201" />
<trkpt lat="46.98308" lon="17.91951" />
<trkpt lat="46.98282" lon="17.91927" />
<trkpt lat="46.98277" lon="17.91926" />
<trkpt lat="46.98276" lon="17.91907" />
<trkpt lat="46.98275" lon="17.91869" />
<trkpt lat="46.98271" lon="17.91857" />
<trkpt lat="46.98285" lon="17.91851" />
<trkpt lat="46.98294" lon="17.91839" />
<trkpt lat="46.98298" lon="17.91833" />
<trkpt lat="46.98302" lon="17.91767" />
<trkpt lat="46.9838" lon="17.91746" />
<trkpt lat="46.98401" lon="17.91734" />
<trkpt lat="46.98425" lon="17.91697" />
<trkpt lat="46.98453" lon="17.91669" />
<trkpt lat="46.98457" lon="17.91666" />
<trkpt lat="46.9851" lon="17.91665" />
<trkpt lat="46.98532" lon="17.91655" />
<trkpt lat="46.98539" lon="17.91641" />
<trkpt lat="46.98437" lon="17.91391" />
<trkpt lat="46.984" lon="17.91271" />
<trkpt lat="46.98395" lon="17.91231" />
<trkpt lat="46.98388" lon="17.91219" />
<trkpt lat="46.98342" lon="17.91181" />
<trkpt lat="46.98335" lon="17.9115" />
<trkpt lat="46.98299" lon="17.91039" />
<trkpt lat="46.98192" lon="17.90863" />
<trkpt lat="46.9818" lon="17.90853" />
<trkpt lat="46.98149" lon="17.9085" />
<trkpt lat="46.98041" lon="17.90676" />
<trkpt lat="46.97996" lon="17.90621" />
<trkpt lat="46.97982" lon="17.90616" />
<trkpt lat="46.97966" lon="17.90591" />
<trkpt lat="46.97966" lon="17.90568" />
<trkpt lat="46.9796" lon="17.90541" />
<trkpt lat="46.97928" lon="17.9048" />
<trkpt lat="46.97921" lon="17.90454" />
<trkpt lat="46.97908" lon="17.90438" />
<trkpt lat="46.97882" lon="17.90356" />
<trkpt lat="46.97886" lon="17.9033" />
<trkpt lat="46.97865" lon="17.90274" />
<trkpt lat="46.97795" lon="17.90151" />
<trkpt lat="46.97803" lon="17.90155" />
<trkpt lat="46.97812" lon="17.90151" />
<trkpt lat="46.97821" lon="17.90129" />
<trkpt lat="46.9782" lon="17.90112" />
<trkpt lat="46.97806" lon="17.90077" />
<trkpt lat="46.97812" lon="17.90067" />
<trkpt lat="46.9781" lon="17.90042" />
<trkpt lat="46.97823" lon="17.90032" />
<trkpt lat="46.97841" lon="17.89989" />
<trkpt lat="46.97866" lon="17.89966" />
<trkpt lat="46.97891" lon="17.89918" />
<trkpt lat="46.97895" lon="17.89891" />
<trkpt lat="46.97921" lon="17.89855" />
<trkpt lat="46.97897" lon="17.89799" />
<trkpt lat="46.97878" lon="17.89751" />
<trkpt lat="46.97882" lon="17.89739" />
<trkpt lat="46.9792" lon="17.89693" />
<trkpt lat="46.97921" lon="17.89679" />
<trkpt lat="46.97874" lon="17.89572" />
<trkpt lat="46.97858" lon="17.89552" />
<trkpt lat="46.97841" lon="17.89519" />
<trkpt lat="46.97834" lon="17.89491" />
<trkpt lat="46.97845" lon="17.89427" />
<trkpt lat="46.97859" lon="17.89406" />
<trkpt lat="46.97886" lon="17.89322" />
<trkpt lat="46.97882" lon="17.89309" />
<trkpt lat="46.97845" lon="17.89274" />
<trkpt lat="46.97796" lon="17.89256" />
<trkpt lat="46.97719" lon="17.89289" />
<trkpt lat="46.9763" lon="17.89292" />
<trkpt lat="46.9758" lon="17.89359" />
<trkpt lat="46.97567" lon="17.89335" />
<trkpt lat="46.97554" lon="17.89329" />
<trkpt lat="46.97546" lon="17.89313" />
<trkpt lat="46.97511" lon="17.89274" />
<trkpt lat="46.97534" lon="17.89226" />
<trkpt lat="46.97564" lon="17.89171" />
<trkpt lat="46.97561" lon="17.89166" />
<trkpt lat="46.97558" lon="17.89164" />
<trkpt lat="46.97567" lon="17.89151" />
<trkpt lat="46.97629" lon="17.89118" />
<trkpt lat="46.97686" lon="17.89058" />
<trkpt lat="46.97705" lon="17.89052" />
<trkpt lat="46.97715" lon="17.89036" />
<trkpt lat="46.97733" lon="17.88999" />
<trkpt lat="46.97765" lon="17.88886" />
<trkpt lat="46.97768" lon="17.88827" />
<trkpt lat="46.97763" lon="17.88816" />
<trkpt lat="46.9773" lon="17.88789" />
<trkpt lat="46.97684" lon="17.88679" />
<trkpt lat="46.97615" lon="17.88622" />
<trkpt lat="46.97612" lon="17.88577" />
<trkpt lat="46.97594" lon="17.88445" />
<trkpt lat="46.97594" lon="17.88418" />
<trkpt lat="46.97581" lon="17.88362" />
<trkpt lat="46.97556" lon="17.88388" />
<trkpt lat="46.9753" lon="17.885" />
<trkpt lat="46.97517" lon="17.88506" />
<trkpt lat="46.97448" lon="17.88432" />
<trkpt lat="46.97359" lon="17.88366" />
<trkpt lat="46.97349" lon="17.88365" />
<trkpt lat="46.97312" lon="17.88388" />
<trkpt lat="46.97296" lon="17.884" />
<trkpt lat="46.97264" lon="17.88395" />
<trkpt lat="46.97237" lon="17.883" />
<trkpt lat="46.97236" lon="17.88218" />
<trkpt lat="46.97232" lon="17.88203" />
<trkpt lat="46.97195" lon="17.88148" />
<trkpt lat="46.97171" lon="17.88146" />
<trkpt lat="46.97161" lon="17.88132" />
<trkpt lat="46.97139" lon="17.88151" />
<trkpt lat="46.97128" lon="17.88177" />
<trkpt lat="46.97093" lon="17.88183" />
<trkpt lat="46.97085" lon="17.88188" />
<trkpt lat="46.97042" lon="17.88167" />
<trkpt lat="46.97008" lon="17.88163" />
<trkpt lat="46.96996" lon="17.88168" />
<trkpt lat="46.96977" lon="17.88156" />
<trkpt lat="46.96957" lon="17.88157" />
<trkpt lat="46.96926" lon="17.88191" />
<trkpt lat="46.96903" lon="17.88212" />
<trkpt lat="46.96897" lon="17.882" />
<trkpt lat="46.96882" lon="17.88185" />
<trkpt lat="46.96866" lon="17.88178" />
<trkpt lat="46.9682" lon="17.88167" />
<trkpt lat="46.9678" lon="17.88179" />
<trkpt lat="46.9677" lon="17.8819" />
<trkpt lat="46.96748" lon="17.88191" />
<trkpt lat="46.96731" lon="17.88172" />
<trkpt lat="46.96695" lon="17.8817" />
<trkpt lat="46.9669" lon="17.88139" />
<trkpt lat="46.96688" lon="17.88137" />
<trkpt lat="46.96692" lon="17.88087" />
<trkpt lat="46.96689" lon="17.88077" />
<trkpt lat="46.96648" lon="17.88039" />
<trkpt lat="46.96613" lon="17.87996" />
<trkpt lat="46.96587" lon="17.87948" />
<trkpt lat="46.96576" lon="17.87937" />
<trkpt lat="46.96554" lon="17.87938" />
<trkpt lat="46.96544" lon="17.8794" />
<trkpt lat="46.96525" lon="17.87901" />
<trkpt lat="46.96495" lon="17.87823" />
<trkpt lat="46.96451" lon="17.87722" />
<trkpt lat="46.96446" lon="17.87712" />
<trkpt lat="46.96425" lon="17.8775" />
<trkpt lat="46.96384" lon="17.87792" />
<trkpt lat="46.96318" lon="17.87847" />
<trkpt lat="46.96298" lon="17.8786" />
<trkpt lat="46.96286" lon="17.87863" />
<trkpt lat="46.96279" lon="17.87864" />
<trkpt lat="46.96276" lon="17.87864" />
<trkpt lat="46.96267" lon="17.87863" />
<trkpt lat="46.96255" lon="17.87859" />
<trkpt lat="46.96216" lon="17.87839" />
<trkpt lat="46.96208" lon="17.87837" />
<trkpt lat="46.96197" lon="17.87782" />
<trkpt lat="46.96196" lon="17.87779" />
<trkpt lat="46.96191" lon="17.87752" />
<trkpt lat="46.96186" lon="17.87719" />
<trkpt lat="46.96166" lon="17.87608" />
<trkpt lat="46.96157" lon="17.87558" />
<trkpt lat="46.96145" lon="17.87538" />
<trkpt lat="46.96144" lon="17.87514" />
<trkpt lat="46.96129" lon="17.87435" />
<trkpt lat="46.96128" lon="17.87416" />
<trkpt lat="46.96128" lon="17.87416" />
<trkpt lat="46.96126" lon="17.87375" />
<trkpt lat="46.96114" lon="17.87243" />
<trkpt lat="46.96113" lon="17.87217" />
<trkpt lat="46.96113" lon="17.87142" />
<trkpt lat="46.96108" lon="17.87066" />
<trkpt lat="46.96102" lon="17.8704" />
<trkpt lat="46.96053" lon="17.86905" />
<trkpt lat="46.96051" lon="17.86888" />
<trkpt lat="46.96048" lon="17.86857" />
<trkpt lat="46.96049" lon="17.86827" />
<trkpt lat="46.96018" lon="17.8674" />
<trkpt lat="46.95984" lon="17.86595" />
<trkpt lat="46.95984" lon="17.86583" />
<trkpt lat="46.95988" lon="17.86516" />
<trkpt lat="46.96002" lon="17.86472" />
<trkpt lat="46.96067" lon="17.86419" />
<trkpt lat="46.96103" lon="17.8637" />
<trkpt lat="46.96161" lon="17.86267" />
<trkpt lat="46.96187" lon="17.86234" />
<trkpt lat="46.9619" lon="17.86215" />
<trkpt lat="46.96188" lon="17.86174" />
<trkpt lat="46.96169" lon="17.86149" />
<trkpt lat="46.96124" lon="17.86148" />
<trkpt lat="46.96097" lon="17.86126" />
<trkpt lat="46.96084" lon="17.86103" />
<trkpt lat="46.96072" lon="17.86059" />
<trkpt lat="46.96062" lon="17.86001" />
<trkpt lat="46.96063" lon="17.85992" />
<trkpt lat="46.96081" lon="17.85958" />
<trkpt lat="46.961" lon="17.85987" />
<trkpt lat="46.96106" lon="17.85989" />
<trkpt lat="46.96191" lon="17.85957" />
<trkpt lat="46.96222" lon="17.85926" />
<trkpt lat="46.96234" lon="17.85919" />
<trkpt lat="46.96243" lon="17.85924" />
<trkpt lat="46.96275" lon="17.85928" />
<trkpt lat="46.96313" lon="17.85901" />
<trkpt lat="46.96357" lon="17.85882" />
<trkpt lat="46.96412" lon="17.85864" />
<trkpt lat="46.96483" lon="17.858" />
<trkpt lat="46.96521" lon="17.85737" />
<trkpt lat="46.96524" lon="17.85732" />
<trkpt lat="46.96538" lon="17.85712" />
<trkpt lat="46.96543" lon="17.85693" />
<trkpt lat="46.96537" lon="17.8567" />
<trkpt lat="46.96613" lon="17.85494" />
<trkpt lat="46.96684" lon="17.85373" />
<trkpt lat="46.96721" lon="17.85327" />
<trkpt lat="46.96731" lon="17.85312" />
<trkpt lat="46.96741" lon="17.85263" />
<trkpt lat="46.96897" lon="17.85162" />
<trkpt lat="46.96907" lon="17.85117" />
<trkpt lat="46.9694" lon="17.85085" />
<trkpt lat="46.96953" lon="17.85045" />
<trkpt lat="46.96974" lon="17.85006" />
<trkpt lat="46.97037" lon="17.84942" />
<trkpt lat="46.97055" lon="17.84937" />
<trkpt lat="46.97064" lon="17.84924" />
<trkpt lat="46.97092" lon="17.84902" />
<trkpt lat="46.97112" lon="17.84877" />
<trkpt lat="46.97167" lon="17.84762" />
<trkpt lat="46.97229" lon="17.84712" />
<trkpt lat="46.97258" lon="17.84672" />
<trkpt lat="46.97378" lon="17.84587" />
<trkpt lat="46.97393" lon="17.8454" />
<trkpt lat="46.97402" lon="17.84472" />
<trkpt lat="46.97396" lon="17.84454" />
<trkpt lat="46.97455" lon="17.84397" />
<trkpt lat="46.97483" lon="17.84331" />
<trkpt lat="46.97487" lon="17.84309" />
<trkpt lat="46.97511" lon="17.84287" />
<trkpt lat="46.97535" lon="17.84289" />
<trkpt lat="46.97551" lon="17.84276" />
<trkpt lat="46.97555" lon="17.84266" />
<trkpt lat="46.97541" lon="17.84234" />
<trkpt lat="46.9751" lon="17.84256" />
<trkpt lat="46.97506" lon="17.8424" />
<trkpt lat="46.975" lon="17.84233" />
<trkpt lat="46.97472" lon="17.84243" />
<trkpt lat="46.97341" lon="17.84237" />
<trkpt lat="46.97286" lon="17.84242" />
<trkpt lat="46.97291" lon="17.8423" />
<trkpt lat="46.9731" lon="17.84201" />
<trkpt lat="46.97312" lon="17.84179" />
<trkpt lat="46.97318" lon="17.84155" />
<trkpt lat="46.97464" lon="17.8397" />
<trkpt lat="46.9741" lon="17.83847" />
<trkpt lat="46.97411" lon="17.83838" />
<trkpt lat="46.97408" lon="17.83829" />
<trkpt lat="46.97462" lon="17.83728" />
<trkpt lat="46.97512" lon="17.83649" />
<trkpt lat="46.97525" lon="17.83651" />
<trkpt lat="46.97549" lon="17.83674" />
<trkpt lat="46.97555" lon="17.83665" />
<trkpt lat="46.97476" lon="17.83557" />
<trkpt lat="46.97487" lon="17.83528" />
<trkpt lat="46.97555" lon="17.83425" />
<trkpt lat="46.97554" lon="17.83399" />
<trkpt lat="46.97562" lon="17.83378" />
<trkpt lat="46.97578" lon="17.83283" />
<trkpt lat="46.97572" lon="17.83121" />
<trkpt lat="46.9759" lon="17.83008" />
<trkpt lat="46.97588" lon="17.82955" />
<trkpt lat="46.97601" lon="17.82828" />
<trkpt lat="46.97624" lon="17.82729" />
<trkpt lat="46.97658" lon="17.82715" />
<trkpt lat="46.97704" lon="17.82675" />
<trkpt lat="46.97756" lon="17.82607" />
<trkpt lat="46.97887" lon="17.82452" />
<trkpt lat="46.97906" lon="17.82425" />
<trkpt lat="46.97917" lon="17.8239" />
<trkpt lat="46.97924" lon="17.82388" />
<trkpt lat="46.97967" lon="17.82339" />
<trkpt lat="46.98058" lon="17.82212" />
<trkpt lat="46.98133" lon="17.82109" />
<trkpt lat="46.98156" lon="17.82059" />
<trkpt lat="46.98182" lon="17.8198" />
<trkpt lat="46.98215" lon="17.81922" />
<trkpt lat="46.983" lon="17.81826" />
<trkpt lat="46.98345" lon="17.81791" />
<trkpt lat="46.98514" lon="17.81693" />
<trkpt lat="46.98534" lon="17.81681" />
<trkpt lat="46.98628" lon="17.81644" />
<trkpt lat="46.98695" lon="17.81638" />
<trkpt lat="46.98798" lon="17.81597" />
<trkpt lat="46.98938" lon="17.81513" />
<trkpt lat="46.98976" lon="17.81478" />
<trkpt lat="46.98982" lon="17.8147" />
<trkpt lat="46.98989" lon="17.81461" />
<trkpt lat="46.98994" lon="17.81453" />
<trkpt lat="46.9899" lon="17.81444" />
<trkpt lat="46.98931" lon="17.81494" />
<trkpt lat="46.98839" lon="17.81486" />
<trkpt lat="46.98814" lon="17.81473" />
<trkpt lat="46.98709" lon="17.8146" />
<trkpt lat="46.98792" lon="17.81393" />
<trkpt lat="46.98761" lon="17.81219" />
<trkpt lat="46.98753" lon="17.8108" />
<trkpt lat="46.98763" lon="17.80997" />
<trkpt lat="46.98773" lon="17.80964" />
<trkpt lat="46.98802" lon="17.80937" />
<trkpt lat="46.98875" lon="17.80918" />
<trkpt lat="46.9893" lon="17.80918" />
<trkpt lat="46.98958" lon="17.80902" />
<trkpt lat="46.98968" lon="17.80885" />
<trkpt lat="46.98962" lon="17.8088" />
<trkpt lat="46.98967" lon="17.80843" />
<trkpt lat="46.98967" lon="17.80842" />
<trkpt lat="46.98964" lon="17.80815" />
<trkpt lat="46.98961" lon="17.80783" />
<trkpt lat="46.9896" lon="17.80745" />
<trkpt lat="46.98959" lon="17.80718" />
<trkpt lat="46.98955" lon="17.80672" />
<trkpt lat="46.98954" lon="17.80626" />
<trkpt lat="46.98958" lon="17.80595" />
<trkpt lat="46.98958" lon="17.80595" />
<trkpt lat="46.98952" lon="17.80465" />
<trkpt lat="46.98959" lon="17.80439" />
<trkpt lat="46.9895" lon="17.80429" />
<trkpt lat="46.98943" lon="17.80408" />
<trkpt lat="46.98942" lon="17.80355" />
<trkpt lat="46.98937" lon="17.80261" />
<trkpt lat="46.98914" lon="17.80159" />
<trkpt lat="46.98899" lon="17.80147" />
<trkpt lat="46.98875" lon="17.80145" />
<trkpt lat="46.98822" lon="17.80157" />
<trkpt lat="46.988" lon="17.80144" />
<trkpt lat="46.98801" lon="17.8013" />
<trkpt lat="46.98838" lon="17.80061" />
<trkpt lat="46.98871" lon="17.80023" />
<trkpt lat="46.98979" lon="17.79946" />
<trkpt lat="46.98983" lon="17.79917" />
<trkpt lat="46.98921" lon="17.79879" />
<trkpt lat="46.98917" lon="17.79872" />
<trkpt lat="46.98948" lon="17.79748" />
<trkpt lat="46.98949" lon="17.79634" />
<trkpt lat="46.98937" lon="17.79579" />
<trkpt lat="46.98918" lon="17.79546" />
<trkpt lat="46.98889" lon="17.7953" />
<trkpt lat="46.98834" lon="17.79527" />
<trkpt lat="46.98737" lon="17.79559" />
<trkpt lat="46.98713" lon="17.79569" />
<trkpt lat="46.98682" lon="17.79566" />
<trkpt lat="46.98612" lon="17.79502" />
<trkpt lat="46.98578" lon="17.79456" />
<trkpt lat="46.98578" lon="17.79456" />
<trkpt lat="46.98566" lon="17.79402" />
<trkpt lat="46.98576" lon="17.79357" />
<trkpt lat="46.98595" lon="17.79319" />
<trkpt lat="46.98562" lon="17.79277" />
<trkpt lat="46.98574" lon="17.79251" />
<trkpt lat="46.98538" lon="17.79221" />
<trkpt lat="46.98515" lon="17.79213" />
<trkpt lat="46.98491" lon="17.79183" />
<trkpt lat="46.98451" lon="17.79147" />
<trkpt lat="46.98476" lon="17.79079" />
<trkpt lat="46.9856" lon="17.788" />
<trkpt lat="46.98513" lon="17.78788" />
<trkpt lat="46.98483" lon="17.78805" />
<trkpt lat="46.98471" lon="17.78784" />
<trkpt lat="46.98395" lon="17.78554" />
<trkpt lat="46.98396" lon="17.78521" />
<trkpt lat="46.98435" lon="17.78285" />
<trkpt lat="46.98471" lon="17.78134" />
<trkpt lat="46.98482" lon="17.78035" />
<trkpt lat="46.98477" lon="17.77967" />
<trkpt lat="46.98459" lon="17.77914" />
<trkpt lat="46.98451" lon="17.77869" />
<trkpt lat="46.98437" lon="17.77854" />
<trkpt lat="46.98414" lon="17.7786" />
<trkpt lat="46.984" lon="17.77857" />
<trkpt lat="46.98391" lon="17.77847" />
<trkpt lat="46.98388" lon="17.77799" />
<trkpt lat="46.98384" lon="17.77726" />
<trkpt lat="46.98367" lon="17.77726" />
<trkpt lat="46.98369" lon="17.77682" />
<trkpt lat="46.98345" lon="17.77553" />
<trkpt lat="46.98335" lon="17.77472" />
<trkpt lat="46.9831" lon="17.77467" />
<trkpt lat="46.98285" lon="17.77468" />
<trkpt lat="46.9826" lon="17.77479" />
<trkpt lat="46.98199" lon="17.7753" />
<trkpt lat="46.98152" lon="17.776" />
<trkpt lat="46.98139" lon="17.77631" />
<trkpt lat="46.98129" lon="17.77675" />
<trkpt lat="46.98108" lon="17.77686" />
<trkpt lat="46.98083" lon="17.77675" />
<trkpt lat="46.98066" lon="17.77648" />
<trkpt lat="46.98013" lon="17.77632" />
<trkpt lat="46.97977" lon="17.77585" />
<trkpt lat="46.97925" lon="17.77565" />
<trkpt lat="46.97893" lon="17.77534" />
<trkpt lat="46.97875" lon="17.77526" />
<trkpt lat="46.97857" lon="17.77516" />
<trkpt lat="46.97837" lon="17.77505" />
<trkpt lat="46.97789" lon="17.77465" />
<trkpt lat="46.97775" lon="17.77438" />
<trkpt lat="46.97777" lon="17.77404" />
<trkpt lat="46.97759" lon="17.77182" />
<trkpt lat="46.97744" lon="17.77142" />
<trkpt lat="46.97735" lon="17.77119" />
<trkpt lat="46.97713" lon="17.77107" />
<trkpt lat="46.97614" lon="17.77015" />
<trkpt lat="46.97573" lon="17.76967" />
<trkpt lat="46.97532" lon="17.7694" />
<trkpt lat="46.97504" lon="17.76897" />
<trkpt lat="46.97483" lon="17.7688" />
<trkpt lat="46.9746" lon="17.76841" />
<trkpt lat="46.97418" lon="17.76801" />
<trkpt lat="46.97397" lon="17.76798" />
<trkpt lat="46.97371" lon="17.76859" />
<trkpt lat="46.97363" lon="17.76888" />
<trkpt lat="46.9734" lon="17.76931" />
<trkpt lat="46.97329" lon="17.76969" />
<trkpt lat="46.97316" lon="17.76976" />
<trkpt lat="46.97306" lon="17.76973" />
<trkpt lat="46.97278" lon="17.76933" />
<trkpt lat="46.97187" lon="17.76862" />
<trkpt lat="46.97125" lon="17.76897" />
<trkpt lat="46.97118" lon="17.76907" />
<trkpt lat="46.971" lon="17.76917" />
<trkpt lat="46.97093" lon="17.76922" />
<trkpt lat="46.97097" lon="17.76977" />
<trkpt lat="46.97125" lon="17.77051" />
<trkpt lat="46.97124" lon="17.77062" />
<trkpt lat="46.97124" lon="17.77062" />
<trkpt lat="46.97111" lon="17.7706" />
<trkpt lat="46.97052" lon="17.76994" />
<trkpt lat="46.96996" lon="17.76979" />
<trkpt lat="46.96907" lon="17.76865" />
<trkpt lat="46.96889" lon="17.76853" />
<trkpt lat="46.96865" lon="17.7683" />
<trkpt lat="46.96842" lon="17.76838" />
<trkpt lat="46.96848" lon="17.76821" />
<trkpt lat="46.96817" lon="17.76816" />
<trkpt lat="46.96798" lon="17.76794" />
<trkpt lat="46.96766" lon="17.76746" />
<trkpt lat="46.96752" lon="17.76705" />
<trkpt lat="46.96742" lon="17.76686" />
<trkpt lat="46.96725" lon="17.76573" />
<trkpt lat="46.96728" lon="17.76546" />
<trkpt lat="46.96708" lon="17.76489" />
<trkpt lat="46.96721" lon="17.76456" />
<trkpt lat="46.96725" lon="17.76445" />
<trkpt lat="46.9672" lon="17.76425" />
<trkpt lat="46.96676" lon="17.76295" />
<trkpt lat="46.96641" lon="17.76225" />
<trkpt lat="46.96623" lon="17.76204" />
<trkpt lat="46.96588" lon="17.76148" />
<trkpt lat="46.96587" lon="17.76122" />
<trkpt lat="46.96573" lon="17.7608" />
<trkpt lat="46.96552" lon="17.76051" />
<trkpt lat="46.96576" lon="17.75981" />
<trkpt lat="46.96578" lon="17.75947" />
<trkpt lat="46.96577" lon="17.75857" />
<trkpt lat="46.96537" lon="17.75827" />
<trkpt lat="46.96491" lon="17.75805" />
<trkpt lat="46.96477" lon="17.75769" />
<trkpt lat="46.96438" lon="17.75737" />
<trkpt lat="46.96421" lon="17.75715" />
<trkpt lat="46.96405" lon="17.75695" />
<trkpt lat="46.96381" lon="17.75656" />
<trkpt lat="46.96332" lon="17.75646" />
<trkpt lat="46.96332" lon="17.75623" />
<trkpt lat="46.96298" lon="17.75415" />
<trkpt lat="46.96245" lon="17.75338" />
<trkpt lat="46.9617" lon="17.75264" />
<trkpt lat="46.96157" lon="17.75256" />
<trkpt lat="46.96148" lon="17.75256" />
<trkpt lat="46.96129" lon="17.75275" />
<trkpt lat="46.96102" lon="17.75282" />
<trkpt lat="46.96067" lon="17.75213" />
<trkpt lat="46.96031" lon="17.75098" />
<trkpt lat="46.96001" lon="17.75052" />
<trkpt lat="46.95986" lon="17.74886" />
<trkpt lat="46.96072" lon="17.74651" />
<trkpt lat="46.96088" lon="17.74633" />
<trkpt lat="46.96094" lon="17.74614" />
<trkpt lat="46.96153" lon="17.74529" />
<trkpt lat="46.96127" lon="17.74501" />
<trkpt lat="46.95987" lon="17.74438" />
<trkpt lat="46.95903" lon="17.74403" />
<trkpt lat="46.95889" lon="17.74392" />
<trkpt lat="46.95852" lon="17.74322" />
<trkpt lat="46.95785" lon="17.74205" />
<trkpt lat="46.95761" lon="17.74151" />
<trkpt lat="46.95535" lon="17.73771" />
<trkpt lat="46.95251" lon="17.73261" />
<trkpt lat="46.95194" lon="17.73169" />
<trkpt lat="46.95105" lon="17.73009" />
<trkpt lat="46.95086" lon="17.72986" />
<trkpt lat="46.948" lon="17.72511" />
<trkpt lat="46.94797" lon="17.72462" />
<trkpt lat="46.94816" lon="17.72113" />
<trkpt lat="46.94826" lon="17.71933" />
<trkpt lat="46.94827" lon="17.71909" />
<trkpt lat="46.9481" lon="17.71892" />
<trkpt lat="46.94755" lon="17.71768" />
<trkpt lat="46.9475" lon="17.71771" />
<trkpt lat="46.94687" lon="17.71615" />
<trkpt lat="46.94665" lon="17.71578" />
<trkpt lat="46.94606" lon="17.71517" />
<trkpt lat="46.94568" lon="17.71493" />
<trkpt lat="46.94551" lon="17.71487" />
<trkpt lat="46.94542" lon="17.71469" />
<trkpt lat="46.9454" lon="17.71426" />
<trkpt lat="46.94532" lon="17.71412" />
<trkpt lat="46.94525" lon="17.71394" />
<trkpt lat="46.94527" lon="17.71352" />
<trkpt lat="46.94522" lon="17.71323" />
<trkpt lat="46.9447" lon="17.71221" />
<trkpt lat="46.94426" lon="17.71048" />
<trkpt lat="46.94419" lon="17.7099" />
<trkpt lat="46.94398" lon="17.70992" />
<trkpt lat="46.94299" lon="17.71068" />
<trkpt lat="46.94286" lon="17.7106" />
<trkpt lat="46.94249" lon="17.71077" />
<trkpt lat="46.94215" lon="17.71102" />
<trkpt lat="46.94163" lon="17.71157" />
<trkpt lat="46.94058" lon="17.71221" />
<trkpt lat="46.9405" lon="17.71212" />
<trkpt lat="46.94034" lon="17.71174" />
<trkpt lat="46.9401" lon="17.71203" />
<trkpt lat="46.94001" lon="17.71236" />
<trkpt lat="46.93984" lon="17.71213" />
<trkpt lat="46.93973" lon="17.71158" />
<trkpt lat="46.93966" lon="17.71153" />
<trkpt lat="46.9396" lon="17.7115" />
<trkpt lat="46.93943" lon="17.71042" />
<trkpt lat="46.9389" lon="17.70978" />
<trkpt lat="46.93854" lon="17.70893" />
<trkpt lat="46.93816" lon="17.70874" />
<trkpt lat="46.93799" lon="17.70874" />
<trkpt lat="46.9377" lon="17.70873" />
<trkpt lat="46.93707" lon="17.70842" />
<trkpt lat="46.93603" lon="17.70949" />
<trkpt lat="46.93574" lon="17.70989" />
<trkpt lat="46.93547" lon="17.71002" />
<trkpt lat="46.93561" lon="17.70941" />
<trkpt lat="46.93597" lon="17.70839" />
<trkpt lat="46.9364" lon="17.70674" />
<trkpt lat="46.9364" lon="17.70674" />
<trkpt lat="46.93643" lon="17.70664" />
<trkpt lat="46.93634" lon="17.70571" />
<trkpt lat="46.93643" lon="17.70542" />
<trkpt lat="46.93633" lon="17.70541" />
<trkpt lat="46.93538" lon="17.70449" />
<trkpt lat="46.93502" lon="17.70415" />
<trkpt lat="46.93421" lon="17.70407" />
<trkpt lat="46.9339" lon="17.70412" />
<trkpt lat="46.93332" lon="17.70409" />
<trkpt lat="46.93317" lon="17.70423" />
<trkpt lat="46.93257" lon="17.70457" />
<trkpt lat="46.9323" lon="17.70464" />
<trkpt lat="46.93187" lon="17.70479" />
<trkpt lat="46.93127" lon="17.70503" />
<trkpt lat="46.93076" lon="17.70523" />
<trkpt lat="46.93063" lon="17.70535" />
<trkpt lat="46.92963" lon="17.70545" />
<trkpt lat="46.92929" lon="17.70489" />
<trkpt lat="46.92941" lon="17.70469" />
<trkpt lat="46.92913" lon="17.70429" />
<trkpt lat="46.92802" lon="17.70497" />
<trkpt lat="46.92751" lon="17.70512" />
<trkpt lat="46.9272" lon="17.70491" />
<trkpt lat="46.9271" lon="17.70473" />
<trkpt lat="46.92722" lon="17.70261" />
<trkpt lat="46.92755" lon="17.70163" />
<trkpt lat="46.92779" lon="17.69913" />
<trkpt lat="46.92786" lon="17.69873" />
<trkpt lat="46.92787" lon="17.69824" />
<trkpt lat="46.92723" lon="17.69706" />
<trkpt lat="46.92699" lon="17.69681" />
<trkpt lat="46.92689" lon="17.69637" />
<trkpt lat="46.92671" lon="17.69598" />
<trkpt lat="46.92693" lon="17.69522" />
<trkpt lat="46.92673" lon="17.69426" />
<trkpt lat="46.92645" lon="17.6937" />
<trkpt lat="46.92632" lon="17.69267" />
<trkpt lat="46.92578" lon="17.68912" />
<trkpt lat="46.92557" lon="17.68842" />
<trkpt lat="46.9253" lon="17.6887" />
<trkpt lat="46.92495" lon="17.68886" />
<trkpt lat="46.92438" lon="17.68892" />
<trkpt lat="46.92439" lon="17.68955" />
<trkpt lat="46.92405" lon="17.68996" />
<trkpt lat="46.9238" lon="17.69079" />
<trkpt lat="46.92372" lon="17.69125" />
<trkpt lat="46.92362" lon="17.69143" />
<trkpt lat="46.92364" lon="17.69159" />
<trkpt lat="46.92204" lon="17.6922" />
<trkpt lat="46.92202" lon="17.69172" />
<trkpt lat="46.92174" lon="17.69025" />
<trkpt lat="46.92159" lon="17.69001" />
<trkpt lat="46.92122" lon="17.68788" />
<trkpt lat="46.92082" lon="17.68641" />
<trkpt lat="46.9208" lon="17.6863" />
<trkpt lat="46.92039" lon="17.6852" />
<trkpt lat="46.91954" lon="17.68362" />
<trkpt lat="46.91855" lon="17.68164" />
<trkpt lat="46.91844" lon="17.68136" />
<trkpt lat="46.91798" lon="17.67879" />
<trkpt lat="46.91792" lon="17.67848" />
<trkpt lat="46.91739" lon="17.6778" />
<trkpt lat="46.91706" lon="17.67751" />
<trkpt lat="46.91689" lon="17.67745" />
<trkpt lat="46.91593" lon="17.67755" />
<trkpt lat="46.91579" lon="17.67758" />
<trkpt lat="46.91568" lon="17.67759" />
<trkpt lat="46.91523" lon="17.67755" />
<trkpt lat="46.91506" lon="17.67744" />
<trkpt lat="46.91479" lon="17.67699" />
<trkpt lat="46.91449" lon="17.6755" />
<trkpt lat="46.91431" lon="17.6748" />
<trkpt lat="46.91422" lon="17.6744" />
<trkpt lat="46.91419" lon="17.67426" />
<trkpt lat="46.91419" lon="17.67426" />
<trkpt lat="46.91425" lon="17.67394" />
<trkpt lat="46.91425" lon="17.67388" />
<trkpt lat="46.9141" lon="17.6739" />
<trkpt lat="46.91377" lon="17.67373" />
<trkpt lat="46.91376" lon="17.67365" />
<trkpt lat="46.91357" lon="17.673" />
<trkpt lat="46.91334" lon="17.67295" />
<trkpt lat="46.91323" lon="17.67292" />
<trkpt lat="46.91308" lon="17.67265" />
<trkpt lat="46.913" lon="17.67259" />
<trkpt lat="46.91277" lon="17.67255" />
<trkpt lat="46.91226" lon="17.67254" />
<trkpt lat="46.91212" lon="17.67249" />
<trkpt lat="46.91196" lon="17.67255" />
<trkpt lat="46.91178" lon="17.67259" />
<trkpt lat="46.91165" lon="17.67262" />
<trkpt lat="46.91162" lon="17.67255" />
<trkpt lat="46.9116" lon="17.67247" />
<trkpt lat="46.91155" lon="17.67239" />
<trkpt lat="46.91152" lon="17.67178" />
<trkpt lat="46.91146" lon="17.6717" />
<trkpt lat="46.91138" lon="17.6717" />
<trkpt lat="46.91049" lon="17.67171" />
<trkpt lat="46.91011" lon="17.6718" />
<trkpt lat="46.9101" lon="17.67189" />
<trkpt lat="46.91003" lon="17.67181" />
<trkpt lat="46.90891" lon="17.67178" />
<trkpt lat="46.90765" lon="17.67107" />
<trkpt lat="46.90703" lon="17.67106" />
<trkpt lat="46.90589" lon="17.67181" />
<trkpt lat="46.90543" lon="17.67197" />
<trkpt lat="46.90509" lon="17.67227" />
<trkpt lat="46.90458" lon="17.67261" />
<trkpt lat="46.90442" lon="17.6725" />
<trkpt lat="46.90432" lon="17.67253" />
<trkpt lat="46.90413" lon="17.67296" />
<trkpt lat="46.90394" lon="17.67299" />
<trkpt lat="46.90346" lon="17.67286" />
<trkpt lat="46.9027" lon="17.67285" />
<trkpt lat="46.90207" lon="17.67274" />
<trkpt lat="46.90136" lon="17.67267" />
<trkpt lat="46.90084" lon="17.67249" />
<trkpt lat="46.90029" lon="17.67209" />
<trkpt lat="46.89932" lon="17.6705" />
<trkpt lat="46.89899" lon="17.67023" />
<trkpt lat="46.89879" lon="17.66976" />
<trkpt lat="46.89845" lon="17.66997" />
<trkpt lat="46.89828" lon="17.66999" />
<trkpt lat="46.89816" lon="17.66988" />
<trkpt lat="46.89768" lon="17.66898" />
<trkpt lat="46.89743" lon="17.66845" />
<trkpt lat="46.89673" lon="17.66767" />
<trkpt lat="46.89619" lon="17.66671" />
<trkpt lat="46.89586" lon="17.66636" />
<trkpt lat="46.89536" lon="17.66533" />
<trkpt lat="46.89515" lon="17.66461" />
<trkpt lat="46.89508" lon="17.66457" />
<trkpt lat="46.89491" lon="17.66466" />
<trkpt lat="46.89484" lon="17.66462" />
<trkpt lat="46.89469" lon="17.66431" />
<trkpt lat="46.89382" lon="17.66493" />
<trkpt lat="46.89361" lon="17.66452" />
<trkpt lat="46.89377" lon="17.66435" />
<trkpt lat="46.8936" lon="17.66392" />
<trkpt lat="46.89327" lon="17.66304" />
<trkpt lat="46.89313" lon="17.66292" />
<trkpt lat="46.89286" lon="17.66282" />
<trkpt lat="46.89261" lon="17.66286" />
<trkpt lat="46.89271" lon="17.66269" />
<trkpt lat="46.8928" lon="17.66237" />
<trkpt lat="46.8923" lon="17.66125" />
<trkpt lat="46.8922" lon="17.66104" />
<trkpt lat="46.89221" lon="17.66091" />
<trkpt lat="46.89201" lon="17.66011" />
<trkpt lat="46.89199" lon="17.65996" />
<trkpt lat="46.89173" lon="17.65958" />
<trkpt lat="46.89218" lon="17.65883" />
<trkpt lat="46.89244" lon="17.65848" />
<trkpt lat="46.89274" lon="17.65825" />
<trkpt lat="46.8934" lon="17.65749" />
<trkpt lat="46.89352" lon="17.65722" />
<trkpt lat="46.89347" lon="17.65701" />
<trkpt lat="46.89306" lon="17.65644" />
<trkpt lat="46.89291" lon="17.65641" />
<trkpt lat="46.89266" lon="17.65625" />
<trkpt lat="46.89224" lon="17.65567" />
<trkpt lat="46.89206" lon="17.65539" />
<trkpt lat="46.892" lon="17.6552" />
<trkpt lat="46.89157" lon="17.65457" />
<trkpt lat="46.89158" lon="17.6543" />
<trkpt lat="46.89152" lon="17.65421" />
<trkpt lat="46.8909" lon="17.654" />
<trkpt lat="46.89054" lon="17.65388" />
<trkpt lat="46.89037" lon="17.65363" />
<trkpt lat="46.89017" lon="17.65303" />
<trkpt lat="46.89017" lon="17.65226" />
<trkpt lat="46.89033" lon="17.65117" />
<trkpt lat="46.89059" lon="17.65009" />
<trkpt lat="46.89105" lon="17.64887" />
<trkpt lat="46.89106" lon="17.64868" />
<trkpt lat="46.89106" lon="17.64868" />
<trkpt lat="46.89173" lon="17.64774" />
<trkpt lat="46.892" lon="17.6475" />
<trkpt lat="46.89299" lon="17.64699" />
<trkpt lat="46.89361" lon="17.64662" />
<trkpt lat="46.89435" lon="17.64625" />
<trkpt lat="46.89459" lon="17.64575" />
<trkpt lat="46.89489" lon="17.64549" />
<trkpt lat="46.89509" lon="17.64515" />
<trkpt lat="46.89504" lon="17.64502" />
<trkpt lat="46.89478" lon="17.64492" />
<trkpt lat="46.89475" lon="17.64472" />
<trkpt lat="46.89389" lon="17.64427" />
<trkpt lat="46.89378" lon="17.64409" />
<trkpt lat="46.89366" lon="17.64353" />
<trkpt lat="46.89358" lon="17.64335" />
<trkpt lat="46.89312" lon="17.64516" />
<trkpt lat="46.89221" lon="17.64458" />
<trkpt lat="46.89199" lon="17.64426" />
<trkpt lat="46.89168" lon="17.64302" />
<trkpt lat="46.89156" lon="17.64291" />
<trkpt lat="46.89106" lon="17.6426" />
<trkpt lat="46.89089" lon="17.64253" />
<trkpt lat="46.89002" lon="17.64256" />
<trkpt lat="46.88963" lon="17.64278" />
<trkpt lat="46.8878" lon="17.64338" />
<trkpt lat="46.88622" lon="17.64427" />
<trkpt lat="46.88573" lon="17.6446" />
<trkpt lat="46.88455" lon="17.64577" />
<trkpt lat="46.88439" lon="17.64591" />
<trkpt lat="46.88459" lon="17.64511" />
<trkpt lat="46.88465" lon="17.64463" />
<trkpt lat="46.88465" lon="17.64394" />
<trkpt lat="46.88438" lon="17.64271" />
<trkpt lat="46.88399" lon="17.6425" />
<trkpt lat="46.88378" lon="17.64271" />
<trkpt lat="46.88359" lon="17.64272" />
<trkpt lat="46.88334" lon="17.64259" />
<trkpt lat="46.88204" lon="17.64298" />
<trkpt lat="46.88136" lon="17.64318" />
<trkpt lat="46.88123" lon="17.64317" />
<trkpt lat="46.88083" lon="17.64345" />
<trkpt lat="46.87965" lon="17.64374" />
<trkpt lat="46.87908" lon="17.64414" />
<trkpt lat="46.87873" lon="17.64405" />
<trkpt lat="46.87837" lon="17.64414" />
<trkpt lat="46.87815" lon="17.64432" />
<trkpt lat="46.87758" lon="17.64458" />
<trkpt lat="46.8769" lon="17.64471" />
<trkpt lat="46.87675" lon="17.64464" />
<trkpt lat="46.87616" lon="17.64319" />
<trkpt lat="46.87558" lon="17.64195" />
<trkpt lat="46.87111" lon="17.63202" />
<trkpt lat="46.87107" lon="17.63178" />
<trkpt lat="46.87088" lon="17.63165" />
<trkpt lat="46.87026" lon="17.63033" />
<trkpt lat="46.8703" lon="17.63026" />
<trkpt lat="46.86881" lon="17.62714" />
<trkpt lat="46.86881" lon="17.62653" />
<trkpt lat="46.86874" lon="17.62634" />
<trkpt lat="46.86858" lon="17.62617" />
<trkpt lat="46.86851" lon="17.62623" />
<trkpt lat="46.86762" lon="17.6249" />
<trkpt lat="46.86726" lon="17.62448" />
<trkpt lat="46.86702" lon="17.62405" />
<trkpt lat="46.86305" lon="17.61814" />
<trkpt lat="46.86288" lon="17.61788" />
<trkpt lat="46.86194" lon="17.61646" />
<trkpt lat="46.85901" lon="17.61218" />
<trkpt lat="46.85883" lon="17.61218" />
<trkpt lat="46.85752" lon="17.61374" />
<trkpt lat="46.85741" lon="17.61374" />
<trkpt lat="46.85682" lon="17.61282" />
<trkpt lat="46.8559" lon="17.61175" />
<trkpt lat="46.85476" lon="17.60958" />
<trkpt lat="46.85453" lon="17.60965" />
<trkpt lat="46.8543" lon="17.60997" />
<trkpt lat="46.85402" lon="17.61025" />
<trkpt lat="46.85386" lon="17.61" />
<trkpt lat="46.8536" lon="17.60984" />
<trkpt lat="46.85317" lon="17.60936" />
<trkpt lat="46.85276" lon="17.6086" />
<trkpt lat="46.85275" lon="17.60825" />
<trkpt lat="46.85294" lon="17.60694" />
<trkpt lat="46.85324" lon="17.60666" />
<trkpt lat="46.85353" lon="17.60613" />
<trkpt lat="46.85353" lon="17.60603" />
<trkpt lat="46.85326" lon="17.60538" />
<trkpt lat="46.8525" lon="17.60343" />
<trkpt lat="46.85244" lon="17.6033" />
<trkpt lat="46.85215" lon="17.60301" />
<trkpt lat="46.85191" lon="17.60277" />
<trkpt lat="46.85112" lon="17.60186" />
<trkpt lat="46.85094" lon="17.60161" />
<trkpt lat="46.85044" lon="17.60082" />
<trkpt lat="46.85019" lon="17.6006" />
<trkpt lat="46.84989" lon="17.60043" />
<trkpt lat="46.84961" lon="17.60016" />
<trkpt lat="46.84961" lon="17.60016" />
<trkpt lat="46.84916" lon="17.59909" />
<trkpt lat="46.8491" lon="17.59896" />
<trkpt lat="46.84881" lon="17.59852" />
<trkpt lat="46.84824" lon="17.59805" />
<trkpt lat="46.84814" lon="17.5979" />
<trkpt lat="46.84773" lon="17.5969" />
<trkpt lat="46.84754" lon="17.59638" />
<trkpt lat="46.84753" lon="17.59613" />
<trkpt lat="46.84751" lon="17.59564" />
<trkpt lat="46.84755" lon="17.59535" />
<trkpt lat="46.84816" lon="17.59496" />
<trkpt lat="46.84854" lon="17.59453" />
<trkpt lat="46.84942" lon="17.59341" />
<trkpt lat="46.8497" lon="17.59302" />
<trkpt lat="46.84969" lon="17.59275" />
<trkpt lat="46.84898" lon="17.59179" />
<trkpt lat="46.8487" lon="17.59119" />
<trkpt lat="46.84866" lon="17.59101" />
<trkpt lat="46.84861" lon="17.58967" />
<trkpt lat="46.84866" lon="17.58891" />
<trkpt lat="46.84856" lon="17.5858" />
<trkpt lat="46.84859" lon="17.58516" />
<trkpt lat="46.84875" lon="17.58428" />
<trkpt lat="46.85035" lon="17.58078" />
<trkpt lat="46.85042" lon="17.58063" />
<trkpt lat="46.85158" lon="17.57808" />
<trkpt lat="46.85487" lon="17.5723" />
<trkpt lat="46.85498" lon="17.57201" />
<trkpt lat="46.85499" lon="17.5706" />
<trkpt lat="46.85499" lon="17.57054" />
<trkpt lat="46.85488" lon="17.56749" />
<trkpt lat="46.85484" lon="17.56717" />
<trkpt lat="46.85347" lon="17.56398" />
<trkpt lat="46.85301" lon="17.56292" />
<trkpt lat="46.85263" lon="17.56226" />
<trkpt lat="46.85137" lon="17.5602" />
<trkpt lat="46.85055" lon="17.55915" />
<trkpt lat="46.85042" lon="17.55891" />
<trkpt lat="46.85032" lon="17.55889" />
<trkpt lat="46.84843" lon="17.5574" />
<trkpt lat="46.84803" lon="17.55715" />
<trkpt lat="46.84708" lon="17.55643" />
<trkpt lat="46.84676" lon="17.55579" />
<trkpt lat="46.84564" lon="17.5537" />
<trkpt lat="46.84532" lon="17.55252" />
<trkpt lat="46.84573" lon="17.55162" />
<trkpt lat="46.84612" lon="17.55141" />
<trkpt lat="46.84617" lon="17.55128" />
<trkpt lat="46.84609" lon="17.55115" />
<trkpt lat="46.84556" lon="17.55119" />
<trkpt lat="46.84535" lon="17.5511" />
<trkpt lat="46.84502" lon="17.55074" />
<trkpt lat="46.84464" lon="17.55011" />
<trkpt lat="46.84384" lon="17.54959" />
<trkpt lat="46.84117" lon="17.54856" />
<trkpt lat="46.83846" lon="17.54774" />
<trkpt lat="46.83817" lon="17.54778" />
<trkpt lat="46.83645" lon="17.54923" />
<trkpt lat="46.83637" lon="17.54941" />
<trkpt lat="46.83634" lon="17.54926" />
<trkpt lat="46.83628" lon="17.5492" />
<trkpt lat="46.83628" lon="17.5492" />
<trkpt lat="46.83613" lon="17.54931" />
<trkpt lat="46.8361" lon="17.54849" />
<trkpt lat="46.83627" lon="17.54795" />
<trkpt lat="46.83654" lon="17.54748" />
<trkpt lat="46.83665" lon="17.54713" />
<trkpt lat="46.83755" lon="17.54088" />
<trkpt lat="46.8386" lon="17.54032" />
<trkpt lat="46.83933" lon="17.5403" />
<trkpt lat="46.83954" lon="17.54015" />
<trkpt lat="46.83976" lon="17.53988" />
<trkpt lat="46.83986" lon="17.53964" />
<trkpt lat="46.83987" lon="17.53936" />
<trkpt lat="46.83973" lon="17.53876" />
<trkpt lat="46.83983" lon="17.53833" />
<trkpt lat="46.83944" lon="17.53809" />
<trkpt lat="46.83916" lon="17.53812" />
<trkpt lat="46.8385" lon="17.53799" />
<trkpt lat="46.83821" lon="17.53772" />
<trkpt lat="46.83762" lon="17.53685" />
<trkpt lat="46.83612" lon="17.53556" />
<trkpt lat="46.83596" lon="17.5352" />
<trkpt lat="46.83579" lon="17.53449" />
<trkpt lat="46.83504" lon="17.53469" />
<trkpt lat="46.83499" lon="17.53493" />
<trkpt lat="46.83499" lon="17.53583" />
<trkpt lat="46.83485" lon="17.53595" />
<trkpt lat="46.83482" lon="17.53606" />
<trkpt lat="46.83486" lon="17.53624" />
<trkpt lat="46.83361" lon="17.53601" />
<trkpt lat="46.8332" lon="17.53603" />
<trkpt lat="46.83253" lon="17.53683" />
<trkpt lat="46.83229" lon="17.53682" />
<trkpt lat="46.83223" lon="17.53687" />
<trkpt lat="46.83206" lon="17.53655" />
<trkpt lat="46.83127" lon="17.53609" />
<trkpt lat="46.83118" lon="17.53527" />
<trkpt lat="46.83051" lon="17.53527" />
<trkpt lat="46.8299" lon="17.53508" />
<trkpt lat="46.82915" lon="17.53525" />
<trkpt lat="46.82895" lon="17.53507" />
<trkpt lat="46.82883" lon="17.53486" />
<trkpt lat="46.82813" lon="17.53594" />
<trkpt lat="46.82752" lon="17.53655" />
<trkpt lat="46.82734" lon="17.53656" />
<trkpt lat="46.82722" lon="17.53668" />
<trkpt lat="46.82689" lon="17.53712" />
<trkpt lat="46.82635" lon="17.5374" />
<trkpt lat="46.82514" lon="17.53708" />
<trkpt lat="46.82456" lon="17.53681" />
<trkpt lat="46.82356" lon="17.5368" />
<trkpt lat="46.82297" lon="17.53695" />
<trkpt lat="46.82279" lon="17.53692" />
<trkpt lat="46.82241" lon="17.53682" />
<trkpt lat="46.82121" lon="17.53603" />
<trkpt lat="46.82035" lon="17.53575" />
<trkpt lat="46.81998" lon="17.53571" />
<trkpt lat="46.81934" lon="17.53597" />
<trkpt lat="46.8185" lon="17.53611" />
<trkpt lat="46.81806" lon="17.53625" />
<trkpt lat="46.81835" lon="17.53576" />
<trkpt lat="46.81866" lon="17.53548" />
<trkpt lat="46.81927" lon="17.5353" />
<trkpt lat="46.81953" lon="17.53504" />
<trkpt lat="46.81962" lon="17.53475" />
<trkpt lat="46.81956" lon="17.53455" />
<trkpt lat="46.81925" lon="17.53434" />
<trkpt lat="46.81922" lon="17.53421" />
<trkpt lat="46.8195" lon="17.53387" />
<trkpt lat="46.81947" lon="17.53379" />
<trkpt lat="46.81884" lon="17.53372" />
<trkpt lat="46.81849" lon="17.5335" />
<trkpt lat="46.81847" lon="17.53293" />
<trkpt lat="46.81836" lon="17.53266" />
<trkpt lat="46.81833" lon="17.53236" />
<trkpt lat="46.81821" lon="17.53142" />
<trkpt lat="46.81819" lon="17.53081" />
<trkpt lat="46.81823" lon="17.53079" />
<trkpt lat="46.81819" lon="17.52966" />
<trkpt lat="46.81816" lon="17.52779" />
<trkpt lat="46.81785" lon="17.52605" />
<trkpt lat="46.81782" lon="17.52606" />
<trkpt lat="46.81599" lon="17.52667" />
<trkpt lat="46.81527" lon="17.52681" />
<trkpt lat="46.81425" lon="17.52685" />
<trkpt lat="46.81367" lon="17.52692" />
<trkpt lat="46.81367" lon="17.52576" />
<trkpt lat="46.81351" lon="17.5249" />
<trkpt lat="46.81382" lon="17.52467" />
<trkpt lat="46.81431" lon="17.52442" />
<trkpt lat="46.81475" lon="17.52387" />
<trkpt lat="46.81543" lon="17.52271" />
<trkpt lat="46.81629" lon="17.52189" />
<trkpt lat="46.81634" lon="17.52175" />
<trkpt lat="46.81581" lon="17.51964" />
<trkpt lat="46.81544" lon="17.51524" />
<trkpt lat="46.8134" lon="17.51543" />
<trkpt lat="46.81165" lon="17.515" />
<trkpt lat="46.8104" lon="17.51456" />
<trkpt lat="46.80963" lon="17.5142" />
<trkpt lat="46.80942" lon="17.51405" />
<trkpt lat="46.8093" lon="17.51413" />
<trkpt lat="46.80919" lon="17.51397" />
<trkpt lat="46.80863" lon="17.51403" />
<trkpt lat="46.80846" lon="17.514" />
<trkpt lat="46.80796" lon="17.51379" />
<trkpt lat="46.80763" lon="17.51378" />
<trkpt lat="46.80673" lon="17.51401" />
<trkpt lat="46.80646" lon="17.51393" />
<trkpt lat="46.80619" lon="17.51389" />
<trkpt lat="46.80571" lon="17.5139" />
<trkpt lat="46.80492" lon="17.51423" />
<trkpt lat="46.80436" lon="17.51451" />
<trkpt lat="46.80395" lon="17.51472" />
<trkpt lat="46.80388" lon="17.51474" />
<trkpt lat="46.80375" lon="17.51493" />
<trkpt lat="46.80368" lon="17.51503" />
<trkpt lat="46.80357" lon="17.51517" />
<trkpt lat="46.80286" lon="17.51587" />
<trkpt lat="46.80293" lon="17.51616" />
<trkpt lat="46.80276" lon="17.51615" />
<trkpt lat="46.80257" lon="17.51617" />
<trkpt lat="46.80249" lon="17.51618" />
<trkpt lat="46.80212" lon="17.5163" />
<trkpt lat="46.80177" lon="17.51645" />
<trkpt lat="46.80158" lon="17.51655" />
<trkpt lat="46.80105" lon="17.51678" />
<trkpt lat="46.80072" lon="17.5168" />
<trkpt lat="46.79993" lon="17.51646" />
<trkpt lat="46.79955" lon="17.5163" />
<trkpt lat="46.79902" lon="17.51619" />
<trkpt lat="46.79761" lon="17.51592" />
<trkpt lat="46.79721" lon="17.51573" />
<trkpt lat="46.7966" lon="17.51527" />
<trkpt lat="46.79556" lon="17.51401" />
<trkpt lat="46.79536" lon="17.51377" />
<trkpt lat="46.7945" lon="17.51267" />
<trkpt lat="46.7936" lon="17.51167" />
<trkpt lat="46.79152" lon="17.50976" />
<trkpt lat="46.78815" lon="17.50658" />
<trkpt lat="46.78772" lon="17.50743" />
<trkpt lat="46.78747" lon="17.50791" />
<trkpt lat="46.78746" lon="17.50793" />
</trkseg>
</trk>
</gpx>
