<?xml version="1.0" encoding="UTF-8"?>
<gpx version="1.1" creator="heyjoe.hu" schemaLocation="http://www.topografix.com/GPX/1/1 http://www.topografix.com/GPX/1/1/gpx.xsd" xmlns="http://www.topografix.com/GPX/1/1" xmlns:xsi="http://www.w3.org/2001/XMLSchema-instance" xsi:schemaLocation="http://www.topografix.com/GPX/1/1 http://www.topografix.com/GPX/1/1/gpx.xsd http://www.garmin.com/xmlschemas/GpxExtensions/v3 http://www.garmin.com/xmlschemas/GpxExtensionsv3.xsd http://www.garmin.com/xmlschemas/TrackPointExtension/v1 http://www.garmin.com/xmlschemas/TrackPointExtensionv1.xsd http://www.garmin.com/xmlschemas/PowerExtension/v1 http://www.garmin.com/xmlschemas/PowerExtensionv1.xsd http://www.topografix.com/GPX/gpx_style/0/2 http://www.topografix.com/GPX/gpx_style/0/2/gpx_style.xsd" xmlns:gpxtpx="http://www.garmin.com/xmlschemas/TrackPointExtension/v1" xmlns:gpxx="http://www.garmin.com/xmlschemas/GpxExtensions/v3" xmlns:gpxpx="http://www.garmin.com/xmlschemas/PowerExtension/v1" xmlns:gpx_style="http://www.topografix.com/GPX/gpx_style/0/2">
  <metadata>
    <name>dbe_nyomvonal</name>
    <author>
      <name>gpx.studio</name>
      <link href="https://gpx.studio"/>
    </author>
  </metadata>
  <trk>
    <name>dbe_nyomvonal</name>
    <trkseg>
      <trkpt lat="47.32683" lon="17.84137"/>
      <trkpt lat="47.32683" lon="17.84141"/>
      <trkpt lat="47.32683" lon="17.84169"/>
      <trkpt lat="47.32681" lon="17.84203"/>
      <trkpt lat="47.32681" lon="17.84231"/>
      <trkpt lat="47.32681" lon="17.84244"/>
      <trkpt lat="47.32736" lon="17.84281"/>
      <trkpt lat="47.32775" lon="17.84281"/>
      <trkpt lat="47.3291" lon="17.84293"/>
      <trkpt lat="47.32925" lon="17.84296"/>
      <trkpt lat="47.32955" lon="17.84296"/>
      <trkpt lat="47.32985" lon="17.84296"/>
      <trkpt lat="47.33007" lon="17.84291"/>
      <trkpt lat="47.33069" lon="17.84255"/>
      <trkpt lat="47.33093" lon="17.84233"/>
      <trkpt lat="47.33116" lon="17.84205"/>
      <trkpt lat="47.332" lon="17.84079"/>
      <trkpt lat="47.33221" lon="17.84055"/>
      <trkpt lat="47.33247" lon="17.84032"/>
      <trkpt lat="47.33256" lon="17.84036"/>
      <trkpt lat="47.33262" lon="17.84038"/>
      <trkpt lat="47.33279" lon="17.84049"/>
      <trkpt lat="47.33301" lon="17.84096"/>
      <trkpt lat="47.33322" lon="17.84145"/>
      <trkpt lat="47.33402" lon="17.84285"/>
      <trkpt lat="47.33432" lon="17.84235"/>
      <trkpt lat="47.33444" lon="17.8419"/>
      <trkpt lat="47.33468" lon="17.84135"/>
      <trkpt lat="47.33479" lon="17.84124"/>
      <trkpt lat="47.335" lon="17.84132"/>
      <trkpt lat="47.33539" lon="17.84165"/>
      <trkpt lat="47.33565" lon="17.84193"/>
      <trkpt lat="47.33582" lon="17.84216"/>
      <trkpt lat="47.33588" lon="17.84238"/>
      <trkpt lat="47.33595" lon="17.84285"/>
      <trkpt lat="47.33603" lon="17.84317"/>
      <trkpt lat="47.3361" lon="17.8436"/>
      <trkpt lat="47.3362" lon="17.84386"/>
      <trkpt lat="47.33635" lon="17.84414"/>
      <trkpt lat="47.33659" lon="17.84454"/>
      <trkpt lat="47.33678" lon="17.84484"/>
      <trkpt lat="47.33685" lon="17.8451"/>
      <trkpt lat="47.33691" lon="17.84557"/>
      <trkpt lat="47.33696" lon="17.84575"/>
      <trkpt lat="47.33706" lon="17.846"/>
      <trkpt lat="47.33738" lon="17.84662"/>
      <trkpt lat="47.33756" lon="17.84703"/>
      <trkpt lat="47.33775" lon="17.84757"/>
      <trkpt lat="47.33786" lon="17.84787"/>
      <trkpt lat="47.33794" lon="17.84817"/>
      <trkpt lat="47.33801" lon="17.84832"/>
      <trkpt lat="47.3382" lon="17.84858"/>
      <trkpt lat="47.3388" lon="17.8492"/>
      <trkpt lat="47.33886" lon="17.84931"/>
      <trkpt lat="47.33947" lon="17.85006"/>
      <trkpt lat="47.33957" lon="17.85004"/>
      <trkpt lat="47.33979" lon="17.85036"/>
      <trkpt lat="47.33968" lon="17.85077"/>
      <trkpt lat="47.33972" lon="17.85107"/>
      <trkpt lat="47.33979" lon="17.85128"/>
      <trkpt lat="47.3405" lon="17.85192"/>
      <trkpt lat="47.34071" lon="17.85167"/>
      <trkpt lat="47.34125" lon="17.85233"/>
      <trkpt lat="47.34185" lon="17.85274"/>
      <trkpt lat="47.34193" lon="17.85287"/>
      <trkpt lat="47.34206" lon="17.85332"/>
      <trkpt lat="47.34247" lon="17.85366"/>
      <trkpt lat="47.34337" lon="17.85493"/>
      <trkpt lat="47.34404" lon="17.856"/>
      <trkpt lat="47.34434" lon="17.85619"/>
      <trkpt lat="47.34457" lon="17.85701"/>
      <trkpt lat="47.34485" lon="17.85746"/>
      <trkpt lat="47.34541" lon="17.85774"/>
      <trkpt lat="47.34584" lon="17.8583"/>
      <trkpt lat="47.34614" lon="17.85834"/>
      <trkpt lat="47.34661" lon="17.85849"/>
      <trkpt lat="47.34702" lon="17.85907"/>
      <trkpt lat="47.34719" lon="17.85892"/>
      <trkpt lat="47.34803" lon="17.85989"/>
      <trkpt lat="47.34854" lon="17.86031"/>
      <trkpt lat="47.34901" lon="17.86115"/>
      <trkpt lat="47.34951" lon="17.86216"/>
      <trkpt lat="47.34957" lon="17.86252"/>
      <trkpt lat="47.34962" lon="17.86252"/>
      <trkpt lat="47.34966" lon="17.86252"/>
      <trkpt lat="47.34972" lon="17.86345"/>
      <trkpt lat="47.34983" lon="17.86398"/>
      <trkpt lat="47.35" lon="17.86435"/>
      <trkpt lat="47.35024" lon="17.86478"/>
      <trkpt lat="47.35058" lon="17.86559"/>
      <trkpt lat="47.35069" lon="17.86594"/>
      <trkpt lat="47.35071" lon="17.8663"/>
      <trkpt lat="47.35084" lon="17.86654"/>
      <trkpt lat="47.35101" lon="17.86703"/>
      <trkpt lat="47.35146" lon="17.86776"/>
      <trkpt lat="47.35172" lon="17.86815"/>
      <trkpt lat="47.35189" lon="17.86834"/>
      <trkpt lat="47.35206" lon="17.86843"/>
      <trkpt lat="47.35215" lon="17.86858"/>
      <trkpt lat="47.35238" lon="17.86888"/>
      <trkpt lat="47.35262" lon="17.86948"/>
      <trkpt lat="47.35283" lon="17.86976"/>
      <trkpt lat="47.35326" lon="17.87006"/>
      <trkpt lat="47.35373" lon="17.87074"/>
      <trkpt lat="47.35382" lon="17.87079"/>
      <trkpt lat="47.35382" lon="17.87079"/>
      <trkpt lat="47.35382" lon="17.87079"/>
      <trkpt lat="47.35373" lon="17.87019"/>
      <trkpt lat="47.35373" lon="17.86999"/>
      <trkpt lat="47.35371" lon="17.86988"/>
      <trkpt lat="47.35373" lon="17.86967"/>
      <trkpt lat="47.35382" lon="17.8695"/>
      <trkpt lat="47.35384" lon="17.86939"/>
      <trkpt lat="47.35386" lon="17.86918"/>
      <trkpt lat="47.35391" lon="17.86903"/>
      <trkpt lat="47.35401" lon="17.86875"/>
      <trkpt lat="47.35419" lon="17.86849"/>
      <trkpt lat="47.35438" lon="17.86825"/>
      <trkpt lat="47.35453" lon="17.86808"/>
      <trkpt lat="47.3547" lon="17.86798"/>
      <trkpt lat="47.35562" lon="17.86763"/>
      <trkpt lat="47.35599" lon="17.86744"/>
      <trkpt lat="47.35631" lon="17.86729"/>
      <trkpt lat="47.35698" lon="17.86654"/>
      <trkpt lat="47.35854" lon="17.86495"/>
      <trkpt lat="47.35908" lon="17.8639"/>
      <trkpt lat="47.35931" lon="17.86332"/>
      <trkpt lat="47.35949" lon="17.8627"/>
      <trkpt lat="47.36002" lon="17.8613"/>
      <trkpt lat="47.36022" lon="17.86092"/>
      <trkpt lat="47.3603" lon="17.86066"/>
      <trkpt lat="47.3603" lon="17.86047"/>
      <trkpt lat="47.36028" lon="17.86004"/>
      <trkpt lat="47.36028" lon="17.85931"/>
      <trkpt lat="47.36041" lon="17.85819"/>
      <trkpt lat="47.36049" lon="17.85778"/>
      <trkpt lat="47.36107" lon="17.85697"/>
      <trkpt lat="47.36127" lon="17.85639"/>
      <trkpt lat="47.3617" lon="17.85587"/>
      <trkpt lat="47.36197" lon="17.85551"/>
      <trkpt lat="47.36219" lon="17.85519"/>
      <trkpt lat="47.36275" lon="17.85388"/>
      <trkpt lat="47.363" lon="17.8528"/>
      <trkpt lat="47.36326" lon="17.85167"/>
      <trkpt lat="47.36346" lon="17.8512"/>
      <trkpt lat="47.36371" lon="17.85072"/>
      <trkpt lat="47.36382" lon="17.85064"/>
      <trkpt lat="47.36395" lon="17.85019"/>
      <trkpt lat="47.36416" lon="17.84965"/>
      <trkpt lat="47.36429" lon="17.84937"/>
      <trkpt lat="47.36438" lon="17.84907"/>
      <trkpt lat="47.3644" lon="17.84862"/>
      <trkpt lat="47.36466" lon="17.84733"/>
      <trkpt lat="47.36461" lon="17.84723"/>
      <trkpt lat="47.36457" lon="17.84714"/>
      <trkpt lat="47.36451" lon="17.8469"/>
      <trkpt lat="47.36386" lon="17.84581"/>
      <trkpt lat="47.3635" lon="17.8451"/>
      <trkpt lat="47.36328" lon="17.84489"/>
      <trkpt lat="47.36309" lon="17.84461"/>
      <trkpt lat="47.36296" lon="17.84433"/>
      <trkpt lat="47.36277" lon="17.84401"/>
      <trkpt lat="47.36255" lon="17.84338"/>
      <trkpt lat="47.36197" lon="17.84244"/>
      <trkpt lat="47.3618" lon="17.84195"/>
      <trkpt lat="47.36163" lon="17.84167"/>
      <trkpt lat="47.36146" lon="17.84126"/>
      <trkpt lat="47.36116" lon="17.84081"/>
      <trkpt lat="47.36101" lon="17.84064"/>
      <trkpt lat="47.3609" lon="17.84049"/>
      <trkpt lat="47.36062" lon="17.84019"/>
      <trkpt lat="47.36024" lon="17.84014"/>
      <trkpt lat="47.35983" lon="17.84021"/>
      <trkpt lat="47.35968" lon="17.8401"/>
      <trkpt lat="47.35959" lon="17.83996"/>
      <trkpt lat="47.35957" lon="17.83993"/>
      <trkpt lat="47.35953" lon="17.83961"/>
      <trkpt lat="47.35944" lon="17.83935"/>
      <trkpt lat="47.35923" lon="17.83916"/>
      <trkpt lat="47.35876" lon="17.8389"/>
      <trkpt lat="47.35865" lon="17.83875"/>
      <trkpt lat="47.35846" lon="17.83823"/>
      <trkpt lat="47.35826" lon="17.83783"/>
      <trkpt lat="47.35826" lon="17.83766"/>
      <trkpt lat="47.35835" lon="17.83753"/>
      <trkpt lat="47.35852" lon="17.83738"/>
      <trkpt lat="47.35863" lon="17.83718"/>
      <trkpt lat="47.35869" lon="17.8371"/>
      <trkpt lat="47.35904" lon="17.83675"/>
      <trkpt lat="47.3597" lon="17.83633"/>
      <trkpt lat="47.36034" lon="17.83598"/>
      <trkpt lat="47.36034" lon="17.83583"/>
      <trkpt lat="47.3603" lon="17.83568"/>
      <trkpt lat="47.36019" lon="17.83555"/>
      <trkpt lat="47.36011" lon="17.83534"/>
      <trkpt lat="47.36006" lon="17.83506"/>
      <trkpt lat="47.36006" lon="17.83484"/>
      <trkpt lat="47.36011" lon="17.83467"/>
      <trkpt lat="47.36022" lon="17.83446"/>
      <trkpt lat="47.36032" lon="17.83414"/>
      <trkpt lat="47.36069" lon="17.83356"/>
      <trkpt lat="47.36056" lon="17.833"/>
      <trkpt lat="47.36058" lon="17.83283"/>
      <trkpt lat="47.36062" lon="17.83266"/>
      <trkpt lat="47.36067" lon="17.83253"/>
      <trkpt lat="47.36084" lon="17.83229"/>
      <trkpt lat="47.36146" lon="17.83122"/>
      <trkpt lat="47.36157" lon="17.83098"/>
      <trkpt lat="47.36161" lon="17.83081"/>
      <trkpt lat="47.3617" lon="17.8307"/>
      <trkpt lat="47.36174" lon="17.83064"/>
      <trkpt lat="47.3618" lon="17.83047"/>
      <trkpt lat="47.36182" lon="17.83034"/>
      <trkpt lat="47.36182" lon="17.83021"/>
      <trkpt lat="47.36185" lon="17.83006"/>
      <trkpt lat="47.36193" lon="17.82984"/>
      <trkpt lat="47.36195" lon="17.82972"/>
      <trkpt lat="47.36193" lon="17.82961"/>
      <trkpt lat="47.36189" lon="17.82952"/>
      <trkpt lat="47.36189" lon="17.82937"/>
      <trkpt lat="47.36193" lon="17.82929"/>
      <trkpt lat="47.36197" lon="17.82924"/>
      <trkpt lat="47.362" lon="17.82916"/>
      <trkpt lat="47.362" lon="17.82909"/>
      <trkpt lat="47.36197" lon="17.82899"/>
      <trkpt lat="47.36197" lon="17.82888"/>
      <trkpt lat="47.362" lon="17.82879"/>
      <trkpt lat="47.36206" lon="17.82869"/>
      <trkpt lat="47.36221" lon="17.8286"/>
      <trkpt lat="47.36228" lon="17.82854"/>
      <trkpt lat="47.3623" lon="17.82849"/>
      <trkpt lat="47.36232" lon="17.82841"/>
      <trkpt lat="47.3623" lon="17.82832"/>
      <trkpt lat="47.36228" lon="17.82826"/>
      <trkpt lat="47.36225" lon="17.82821"/>
      <trkpt lat="47.36223" lon="17.82813"/>
      <trkpt lat="47.36223" lon="17.828"/>
      <trkpt lat="47.36228" lon="17.82779"/>
      <trkpt lat="47.36228" lon="17.82774"/>
      <trkpt lat="47.36225" lon="17.82763"/>
      <trkpt lat="47.36212" lon="17.82725"/>
      <trkpt lat="47.36206" lon="17.82718"/>
      <trkpt lat="47.36204" lon="17.82712"/>
      <trkpt lat="47.362" lon="17.82693"/>
      <trkpt lat="47.36191" lon="17.8268"/>
      <trkpt lat="47.36185" lon="17.82673"/>
      <trkpt lat="47.36178" lon="17.82671"/>
      <trkpt lat="47.36163" lon="17.82671"/>
      <trkpt lat="47.36157" lon="17.82673"/>
      <trkpt lat="47.3615" lon="17.82673"/>
      <trkpt lat="47.36133" lon="17.82658"/>
      <trkpt lat="47.36092" lon="17.8265"/>
      <trkpt lat="47.36092" lon="17.82626"/>
      <trkpt lat="47.36103" lon="17.8257"/>
      <trkpt lat="47.36105" lon="17.82542"/>
      <trkpt lat="47.36105" lon="17.82527"/>
      <trkpt lat="47.36103" lon="17.82515"/>
      <trkpt lat="47.36079" lon="17.8245"/>
      <trkpt lat="47.36058" lon="17.82401"/>
      <trkpt lat="47.36049" lon="17.82384"/>
      <trkpt lat="47.36039" lon="17.82371"/>
      <trkpt lat="47.36032" lon="17.82358"/>
      <trkpt lat="47.36019" lon="17.82343"/>
      <trkpt lat="47.36019" lon="17.8233"/>
      <trkpt lat="47.36017" lon="17.82317"/>
      <trkpt lat="47.36017" lon="17.82289"/>
      <trkpt lat="47.36022" lon="17.82268"/>
      <trkpt lat="47.3603" lon="17.82242"/>
      <trkpt lat="47.3603" lon="17.82242"/>
      <trkpt lat="47.3603" lon="17.82242"/>
      <trkpt lat="47.36024" lon="17.82216"/>
      <trkpt lat="47.36022" lon="17.8218"/>
      <trkpt lat="47.36019" lon="17.8215"/>
      <trkpt lat="47.36009" lon="17.82045"/>
      <trkpt lat="47.36002" lon="17.82006"/>
      <trkpt lat="47.36" lon="17.81997"/>
      <trkpt lat="47.35996" lon="17.81989"/>
      <trkpt lat="47.35989" lon="17.81974"/>
      <trkpt lat="47.35979" lon="17.81944"/>
      <trkpt lat="47.35968" lon="17.81905"/>
      <trkpt lat="47.35961" lon="17.81869"/>
      <trkpt lat="47.35944" lon="17.81742"/>
      <trkpt lat="47.35912" lon="17.81603"/>
      <trkpt lat="47.35906" lon="17.81555"/>
      <trkpt lat="47.35906" lon="17.81474"/>
      <trkpt lat="47.35914" lon="17.81433"/>
      <trkpt lat="47.35925" lon="17.81392"/>
      <trkpt lat="47.35959" lon="17.81289"/>
      <trkpt lat="47.35966" lon="17.81266"/>
      <trkpt lat="47.3597" lon="17.81238"/>
      <trkpt lat="47.3597" lon="17.81199"/>
      <trkpt lat="47.35966" lon="17.8109"/>
      <trkpt lat="47.35968" lon="17.81034"/>
      <trkpt lat="47.35979" lon="17.80905"/>
      <trkpt lat="47.35979" lon="17.80843"/>
      <trkpt lat="47.35972" lon="17.80764"/>
      <trkpt lat="47.35964" lon="17.80721"/>
      <trkpt lat="47.35949" lon="17.80658"/>
      <trkpt lat="47.3594" lon="17.80635"/>
      <trkpt lat="47.35919" lon="17.8059"/>
      <trkpt lat="47.35901" lon="17.80609"/>
      <trkpt lat="47.35891" lon="17.8062"/>
      <trkpt lat="47.35884" lon="17.80624"/>
      <trkpt lat="47.35878" lon="17.80626"/>
      <trkpt lat="47.35865" lon="17.80622"/>
      <trkpt lat="47.35828" lon="17.80603"/>
      <trkpt lat="47.3574" lon="17.80549"/>
      <trkpt lat="47.357" lon="17.80528"/>
      <trkpt lat="47.35661" lon="17.80515"/>
      <trkpt lat="47.35634" lon="17.8051"/>
      <trkpt lat="47.35579" lon="17.805"/>
      <trkpt lat="47.35554" lon="17.80498"/>
      <trkpt lat="47.35509" lon="17.80493"/>
      <trkpt lat="47.35461" lon="17.80487"/>
      <trkpt lat="47.35412" lon="17.80485"/>
      <trkpt lat="47.35389" lon="17.80476"/>
      <trkpt lat="47.35369" lon="17.80459"/>
      <trkpt lat="47.35341" lon="17.80429"/>
      <trkpt lat="47.35318" lon="17.80392"/>
      <trkpt lat="47.35303" lon="17.80373"/>
      <trkpt lat="47.35281" lon="17.80352"/>
      <trkpt lat="47.35122" lon="17.80225"/>
      <trkpt lat="47.3511" lon="17.80223"/>
      <trkpt lat="47.35097" lon="17.80225"/>
      <trkpt lat="47.35077" lon="17.80238"/>
      <trkpt lat="47.35032" lon="17.80292"/>
      <trkpt lat="47.35011" lon="17.80307"/>
      <trkpt lat="47.34992" lon="17.80315"/>
      <trkpt lat="47.34923" lon="17.80334"/>
      <trkpt lat="47.34906" lon="17.80343"/>
      <trkpt lat="47.34891" lon="17.80356"/>
      <trkpt lat="47.34882" lon="17.80371"/>
      <trkpt lat="47.34871" lon="17.80395"/>
      <trkpt lat="47.34861" lon="17.80425"/>
      <trkpt lat="47.34841" lon="17.80468"/>
      <trkpt lat="47.34833" lon="17.80483"/>
      <trkpt lat="47.34822" lon="17.80491"/>
      <trkpt lat="47.34801" lon="17.80502"/>
      <trkpt lat="47.34766" lon="17.8051"/>
      <trkpt lat="47.34728" lon="17.80513"/>
      <trkpt lat="47.34713" lon="17.80517"/>
      <trkpt lat="47.34695" lon="17.80525"/>
      <trkpt lat="47.34689" lon="17.8053"/>
      <trkpt lat="47.34685" lon="17.80532"/>
      <trkpt lat="47.34657" lon="17.80568"/>
      <trkpt lat="47.34614" lon="17.80637"/>
      <trkpt lat="47.34595" lon="17.80658"/>
      <trkpt lat="47.34571" lon="17.8068"/>
      <trkpt lat="47.34539" lon="17.80701"/>
      <trkpt lat="47.34517" lon="17.80719"/>
      <trkpt lat="47.34494" lon="17.80744"/>
      <trkpt lat="47.34472" lon="17.80774"/>
      <trkpt lat="47.34449" lon="17.80817"/>
      <trkpt lat="47.34427" lon="17.80849"/>
      <trkpt lat="47.34371" lon="17.80916"/>
      <trkpt lat="47.3435" lon="17.80935"/>
      <trkpt lat="47.34324" lon="17.80955"/>
      <trkpt lat="47.34301" lon="17.80965"/>
      <trkpt lat="47.34279" lon="17.80972"/>
      <trkpt lat="47.34232" lon="17.80974"/>
      <trkpt lat="47.34148" lon="17.80957"/>
      <trkpt lat="47.34133" lon="17.80957"/>
      <trkpt lat="47.34118" lon="17.80961"/>
      <trkpt lat="47.34105" lon="17.80967"/>
      <trkpt lat="47.34095" lon="17.80978"/>
      <trkpt lat="47.3409" lon="17.80987"/>
      <trkpt lat="47.34073" lon="17.81028"/>
      <trkpt lat="47.34067" lon="17.81045"/>
      <trkpt lat="47.34043" lon="17.8112"/>
      <trkpt lat="47.34035" lon="17.81165"/>
      <trkpt lat="47.34028" lon="17.8121"/>
      <trkpt lat="47.34013" lon="17.81285"/>
      <trkpt lat="47.33996" lon="17.81332"/>
      <trkpt lat="47.3397" lon="17.81382"/>
      <trkpt lat="47.33947" lon="17.81414"/>
      <trkpt lat="47.33919" lon="17.81433"/>
      <trkpt lat="47.33829" lon="17.81474"/>
      <trkpt lat="47.33807" lon="17.81489"/>
      <trkpt lat="47.33745" lon="17.81549"/>
      <trkpt lat="47.33732" lon="17.8156"/>
      <trkpt lat="47.33726" lon="17.81568"/>
      <trkpt lat="47.33661" lon="17.81633"/>
      <trkpt lat="47.33638" lon="17.81661"/>
      <trkpt lat="47.3361" lon="17.81697"/>
      <trkpt lat="47.33565" lon="17.81768"/>
      <trkpt lat="47.33552" lon="17.81781"/>
      <trkpt lat="47.33535" lon="17.81791"/>
      <trkpt lat="47.33502" lon="17.818"/>
      <trkpt lat="47.33485" lon="17.81806"/>
      <trkpt lat="47.33453" lon="17.81824"/>
      <trkpt lat="47.3344" lon="17.81828"/>
      <trkpt lat="47.33423" lon="17.81832"/>
      <trkpt lat="47.33414" lon="17.81841"/>
      <trkpt lat="47.33395" lon="17.81849"/>
      <trkpt lat="47.33387" lon="17.81852"/>
      <trkpt lat="47.33374" lon="17.8186"/>
      <trkpt lat="47.33356" lon="17.81886"/>
      <trkpt lat="47.33352" lon="17.8189"/>
      <trkpt lat="47.33346" lon="17.81892"/>
      <trkpt lat="47.33331" lon="17.81888"/>
      <trkpt lat="47.33318" lon="17.81888"/>
      <trkpt lat="47.33307" lon="17.8189"/>
      <trkpt lat="47.33292" lon="17.81899"/>
      <trkpt lat="47.33273" lon="17.81922"/>
      <trkpt lat="47.33264" lon="17.81946"/>
      <trkpt lat="47.3326" lon="17.81965"/>
      <trkpt lat="47.33245" lon="17.82"/>
      <trkpt lat="47.33234" lon="17.82021"/>
      <trkpt lat="47.33219" lon="17.82038"/>
      <trkpt lat="47.33202" lon="17.82055"/>
      <trkpt lat="47.33191" lon="17.82064"/>
      <trkpt lat="47.33181" lon="17.82068"/>
      <trkpt lat="47.3317" lon="17.8207"/>
      <trkpt lat="47.33159" lon="17.82066"/>
      <trkpt lat="47.33144" lon="17.82055"/>
      <trkpt lat="47.33133" lon="17.82051"/>
      <trkpt lat="47.33125" lon="17.82051"/>
      <trkpt lat="47.33114" lon="17.82055"/>
      <trkpt lat="47.33082" lon="17.8209"/>
      <trkpt lat="47.3306" lon="17.82107"/>
      <trkpt lat="47.3305" lon="17.8212"/>
      <trkpt lat="47.3303" lon="17.82128"/>
      <trkpt lat="47.3302" lon="17.82143"/>
      <trkpt lat="47.32992" lon="17.82197"/>
      <trkpt lat="47.32981" lon="17.8221"/>
      <trkpt lat="47.32949" lon="17.82264"/>
      <trkpt lat="47.32923" lon="17.82302"/>
      <trkpt lat="47.3291" lon="17.82319"/>
      <trkpt lat="47.32895" lon="17.82336"/>
      <trkpt lat="47.32878" lon="17.82349"/>
      <trkpt lat="47.32809" lon="17.82409"/>
      <trkpt lat="47.32786" lon="17.82424"/>
      <trkpt lat="47.32766" lon="17.82427"/>
      <trkpt lat="47.32711" lon="17.82416"/>
      <trkpt lat="47.32693" lon="17.82399"/>
      <trkpt lat="47.32659" lon="17.82375"/>
      <trkpt lat="47.32659" lon="17.82375"/>
      <trkpt lat="47.32659" lon="17.82375"/>
      <trkpt lat="47.32586" lon="17.82339"/>
      <trkpt lat="47.32575" lon="17.82332"/>
      <trkpt lat="47.3255" lon="17.82311"/>
      <trkpt lat="47.32539" lon="17.82296"/>
      <trkpt lat="47.32515" lon="17.82261"/>
      <trkpt lat="47.32487" lon="17.82218"/>
      <trkpt lat="47.32475" lon="17.82206"/>
      <trkpt lat="47.32464" lon="17.82191"/>
      <trkpt lat="47.32457" lon="17.82178"/>
      <trkpt lat="47.32447" lon="17.82161"/>
      <trkpt lat="47.32442" lon="17.8215"/>
      <trkpt lat="47.32438" lon="17.82133"/>
      <trkpt lat="47.32417" lon="17.82058"/>
      <trkpt lat="47.32408" lon="17.82021"/>
      <trkpt lat="47.32404" lon="17.81982"/>
      <trkpt lat="47.32404" lon="17.81955"/>
      <trkpt lat="47.32397" lon="17.81888"/>
      <trkpt lat="47.32397" lon="17.81862"/>
      <trkpt lat="47.32404" lon="17.81837"/>
      <trkpt lat="47.32408" lon="17.81796"/>
      <trkpt lat="47.32427" lon="17.81706"/>
      <trkpt lat="47.32427" lon="17.8165"/>
      <trkpt lat="47.3243" lon="17.81635"/>
      <trkpt lat="47.32432" lon="17.81624"/>
      <trkpt lat="47.32436" lon="17.81613"/>
      <trkpt lat="47.32438" lon="17.81605"/>
      <trkpt lat="47.3244" lon="17.81594"/>
      <trkpt lat="47.32442" lon="17.81581"/>
      <trkpt lat="47.32453" lon="17.81538"/>
      <trkpt lat="47.32457" lon="17.81515"/>
      <trkpt lat="47.3246" lon="17.81491"/>
      <trkpt lat="47.32447" lon="17.81394"/>
      <trkpt lat="47.32414" lon="17.81257"/>
      <trkpt lat="47.32404" lon="17.81234"/>
      <trkpt lat="47.32357" lon="17.81154"/>
      <trkpt lat="47.32342" lon="17.81126"/>
      <trkpt lat="47.32333" lon="17.81101"/>
      <trkpt lat="47.32324" lon="17.8107"/>
      <trkpt lat="47.32307" lon="17.81032"/>
      <trkpt lat="47.32279" lon="17.80987"/>
      <trkpt lat="47.32264" lon="17.80955"/>
      <trkpt lat="47.32208" lon="17.80811"/>
      <trkpt lat="47.32198" lon="17.80796"/>
      <trkpt lat="47.32189" lon="17.80789"/>
      <trkpt lat="47.32178" lon="17.80787"/>
      <trkpt lat="47.32157" lon="17.80787"/>
      <trkpt lat="47.32114" lon="17.80822"/>
      <trkpt lat="47.32097" lon="17.8083"/>
      <trkpt lat="47.32075" lon="17.80824"/>
      <trkpt lat="47.32065" lon="17.80826"/>
      <trkpt lat="47.32058" lon="17.80828"/>
      <trkpt lat="47.32033" lon="17.80841"/>
      <trkpt lat="47.3202" lon="17.80849"/>
      <trkpt lat="47.32007" lon="17.8086"/>
      <trkpt lat="47.31994" lon="17.80879"/>
      <trkpt lat="47.31983" lon="17.8089"/>
      <trkpt lat="47.31972" lon="17.80899"/>
      <trkpt lat="47.31945" lon="17.80912"/>
      <trkpt lat="47.31936" lon="17.80916"/>
      <trkpt lat="47.3193" lon="17.80925"/>
      <trkpt lat="47.3191" lon="17.80959"/>
      <trkpt lat="47.31899" lon="17.80972"/>
      <trkpt lat="47.31889" lon="17.8098"/>
      <trkpt lat="47.31844" lon="17.81"/>
      <trkpt lat="47.31818" lon="17.81023"/>
      <trkpt lat="47.31788" lon="17.81047"/>
      <trkpt lat="47.3176" lon="17.81066"/>
      <trkpt lat="47.31745" lon="17.81075"/>
      <trkpt lat="47.31715" lon="17.81088"/>
      <trkpt lat="47.31704" lon="17.81094"/>
      <trkpt lat="47.31646" lon="17.81148"/>
      <trkpt lat="47.31623" lon="17.81173"/>
      <trkpt lat="47.31603" lon="17.81199"/>
      <trkpt lat="47.31591" lon="17.81212"/>
      <trkpt lat="47.31571" lon="17.81225"/>
      <trkpt lat="47.31543" lon="17.81249"/>
      <trkpt lat="47.31535" lon="17.81251"/>
      <trkpt lat="47.31524" lon="17.81255"/>
      <trkpt lat="47.31511" lon="17.81255"/>
      <trkpt lat="47.315" lon="17.81251"/>
      <trkpt lat="47.31492" lon="17.81251"/>
      <trkpt lat="47.31479" lon="17.81253"/>
      <trkpt lat="47.31442" lon="17.81272"/>
      <trkpt lat="47.31359" lon="17.8133"/>
      <trkpt lat="47.31301" lon="17.81362"/>
      <trkpt lat="47.31288" lon="17.81375"/>
      <trkpt lat="47.31269" lon="17.81401"/>
      <trkpt lat="47.31196" lon="17.81448"/>
      <trkpt lat="47.31191" lon="17.8145"/>
      <trkpt lat="47.311909" lon="17.814491">
        <ele>361.23</ele>
      </trkpt>
      <trkpt lat="47.311875" lon="17.814499">
        <ele>361.28</ele>
      </trkpt>
      <trkpt lat="47.31135" lon="17.814833">
        <ele>361.92</ele>
      </trkpt>
      <trkpt lat="47.310914" lon="17.815093">
        <ele>362.9</ele>
      </trkpt>
      <trkpt lat="47.310583" lon="17.815252">
        <ele>363.72</ele>
      </trkpt>
      <trkpt lat="47.310518" lon="17.815265">
        <ele>363.89</ele>
      </trkpt>
      <trkpt lat="47.310473" lon="17.815228">
        <ele>364.05</ele>
      </trkpt>
      <trkpt lat="47.31043" lon="17.815149">
        <ele>364.26</ele>
      </trkpt>
      <trkpt lat="47.310357" lon="17.814976">
        <ele>364.75</ele>
      </trkpt>
      <trkpt lat="47.310259" lon="17.81478">
        <ele>365.56</ele>
      </trkpt>
      <trkpt lat="47.310218" lon="17.814712">
        <ele>365.89</ele>
      </trkpt>
      <trkpt lat="47.310122" lon="17.814623">
        <ele>366.58</ele>
      </trkpt>
      <trkpt lat="47.310047" lon="17.814602">
        <ele>367.04</ele>
      </trkpt>
      <trkpt lat="47.309925" lon="17.814595">
        <ele>367.76</ele>
      </trkpt>
      <trkpt lat="47.309777" lon="17.814613">
        <ele>368.64</ele>
      </trkpt>
      <trkpt lat="47.309544" lon="17.814677">
        <ele>369.9</ele>
      </trkpt>
      <trkpt lat="47.309308" lon="17.814754">
        <ele>369.68</ele>
      </trkpt>
      <trkpt lat="47.309099" lon="17.814846">
        <ele>369.36</ele>
      </trkpt>
      <trkpt lat="47.309013" lon="17.814861">
        <ele>369.28</ele>
      </trkpt>
      <trkpt lat="47.308916" lon="17.814862">
        <ele>369.25</ele>
      </trkpt>
      <trkpt lat="47.308822" lon="17.814849">
        <ele>369.27</ele>
      </trkpt>
      <trkpt lat="47.30883" lon="17.814554">
        <ele>370.16</ele>
      </trkpt>
      <trkpt lat="47.308808" lon="17.814222">
        <ele>370.83</ele>
      </trkpt>
      <trkpt lat="47.308771" lon="17.814021">
        <ele>371.33</ele>
      </trkpt>
      <trkpt lat="47.308636" lon="17.813439">
        <ele>371.75</ele>
      </trkpt>
      <trkpt lat="47.308504" lon="17.812975">
        <ele>371.78</ele>
      </trkpt>
      <trkpt lat="47.308111" lon="17.81167">
        <ele>366.27</ele>
      </trkpt>
      <trkpt lat="47.30805" lon="17.811441">
        <ele>366.31</ele>
      </trkpt>
      <trkpt lat="47.308018" lon="17.81128">
        <ele>366.37</ele>
      </trkpt>
      <trkpt lat="47.308009" lon="17.811145">
        <ele>366.43</ele>
      </trkpt>
      <trkpt lat="47.308009" lon="17.811076">
        <ele>366.44</ele>
      </trkpt>
      <trkpt lat="47.30802" lon="17.811">
        <ele>366.41</ele>
      </trkpt>
      <trkpt lat="47.30735" lon="17.810419">
        <ele>371.01</ele>
      </trkpt>
      <trkpt lat="47.307039" lon="17.810068">
        <ele>374.51</ele>
      </trkpt>
      <trkpt lat="47.306643" lon="17.809019">
        <ele>379.08</ele>
      </trkpt>
      <trkpt lat="47.306635" lon="17.80896">
        <ele>379.21</ele>
      </trkpt>
      <trkpt lat="47.306549" lon="17.808709">
        <ele>379.65</ele>
      </trkpt>
      <trkpt lat="47.306506" lon="17.808613">
        <ele>379.66</ele>
      </trkpt>
      <trkpt lat="47.306446" lon="17.808513">
        <ele>379.74</ele>
      </trkpt>
      <trkpt lat="47.306384" lon="17.808371">
        <ele>379.78</ele>
      </trkpt>
      <trkpt lat="47.306238" lon="17.808157">
        <ele>380.13</ele>
      </trkpt>
      <trkpt lat="47.306115" lon="17.808044">
        <ele>380.47</ele>
      </trkpt>
      <trkpt lat="47.305927" lon="17.807953">
        <ele>381.03</ele>
      </trkpt>
      <trkpt lat="47.30565" lon="17.807854">
        <ele>382</ele>
      </trkpt>
      <trkpt lat="47.305194" lon="17.807729">
        <ele>383.1</ele>
      </trkpt>
      <trkpt lat="47.30499" lon="17.807684">
        <ele>383.15</ele>
      </trkpt>
      <trkpt lat="47.304686" lon="17.807639">
        <ele>383.18</ele>
      </trkpt>
      <trkpt lat="47.30444" lon="17.807621">
        <ele>383.54</ele>
      </trkpt>
      <trkpt lat="47.30385" lon="17.807541">
        <ele>385.52</ele>
      </trkpt>
      <trkpt lat="47.303301" lon="17.80745">
        <ele>387.31</ele>
      </trkpt>
      <trkpt lat="47.302997" lon="17.80737">
        <ele>388.35</ele>
      </trkpt>
      <trkpt lat="47.302956" lon="17.807309">
        <ele>388.55</ele>
      </trkpt>
      <trkpt lat="47.302904" lon="17.807194">
        <ele>388.86</ele>
      </trkpt>
      <trkpt lat="47.302725" lon="17.806566">
        <ele>389.86</ele>
      </trkpt>
      <trkpt lat="47.302716" lon="17.806454">
        <ele>389.93</ele>
      </trkpt>
      <trkpt lat="47.302718" lon="17.806301">
        <ele>390</ele>
      </trkpt>
      <trkpt lat="47.302585" lon="17.806129">
        <ele>389.32</ele>
      </trkpt>
      <trkpt lat="47.302447" lon="17.805971">
        <ele>388.83</ele>
      </trkpt>
      <trkpt lat="47.302343" lon="17.805904">
        <ele>388.71</ele>
      </trkpt>
      <trkpt lat="47.302265" lon="17.805887">
        <ele>388.75</ele>
      </trkpt>
      <trkpt lat="47.30213" lon="17.80592">
        <ele>389</ele>
      </trkpt>
      <trkpt lat="47.302041" lon="17.805957">
        <ele>389.23</ele>
      </trkpt>
      <trkpt lat="47.301828" lon="17.805981">
        <ele>390.54</ele>
      </trkpt>
      <trkpt lat="47.301548" lon="17.806051">
        <ele>392.11</ele>
      </trkpt>
      <trkpt lat="47.301124" lon="17.806191">
        <ele>393.58</ele>
      </trkpt>
      <trkpt lat="47.300948" lon="17.806196">
        <ele>393.9</ele>
      </trkpt>
      <trkpt lat="47.30077" lon="17.806242">
        <ele>394.17</ele>
      </trkpt>
      <trkpt lat="47.300206" lon="17.806405">
        <ele>395.52</ele>
      </trkpt>
      <trkpt lat="47.299957" lon="17.806488">
        <ele>396.13</ele>
      </trkpt>
      <trkpt lat="47.299384" lon="17.806574">
        <ele>397.6</ele>
      </trkpt>
      <trkpt lat="47.299023" lon="17.806617">
        <ele>398.9</ele>
      </trkpt>
      <trkpt lat="47.29846" lon="17.806858">
        <ele>401.95</ele>
      </trkpt>
      <trkpt lat="47.298078" lon="17.806982">
        <ele>404.74</ele>
      </trkpt>
      <trkpt lat="47.29799" lon="17.806987">
        <ele>405.38</ele>
      </trkpt>
      <trkpt lat="47.297918" lon="17.806928">
        <ele>405.99</ele>
      </trkpt>
      <trkpt lat="47.297747" lon="17.806698">
        <ele>407.1</ele>
      </trkpt>
      <trkpt lat="47.297663" lon="17.806566">
        <ele>407.66</ele>
      </trkpt>
      <trkpt lat="47.297536" lon="17.806236">
        <ele>408.65</ele>
      </trkpt>
      <trkpt lat="47.297505" lon="17.806091">
        <ele>408.72</ele>
      </trkpt>
      <trkpt lat="47.297426" lon="17.805914">
        <ele>408.89</ele>
      </trkpt>
      <trkpt lat="47.297357" lon="17.80582">
        <ele>409.01</ele>
      </trkpt>
      <trkpt lat="47.29723" lon="17.805615">
        <ele>409.02</ele>
      </trkpt>
      <trkpt lat="47.29719" lon="17.805565">
        <ele>409.01</ele>
      </trkpt>
      <trkpt lat="47.297099" lon="17.805507">
        <ele>409.03</ele>
      </trkpt>
      <trkpt lat="47.297024" lon="17.805489">
        <ele>409.15</ele>
      </trkpt>
      <trkpt lat="47.296865" lon="17.805495">
        <ele>409.74</ele>
      </trkpt>
      <trkpt lat="47.295713" lon="17.805968">
        <ele>416.46</ele>
      </trkpt>
      <trkpt lat="47.295171" lon="17.806209">
        <ele>419.19</ele>
      </trkpt>
      <trkpt lat="47.294867" lon="17.806454">
        <ele>421.7</ele>
      </trkpt>
      <trkpt lat="47.294758" lon="17.806542">
        <ele>422.61</ele>
      </trkpt>
      <trkpt lat="47.294268" lon="17.806858">
        <ele>427.36</ele>
      </trkpt>
      <trkpt lat="47.294112" lon="17.80703">
        <ele>428.59</ele>
      </trkpt>
      <trkpt lat="47.293895" lon="17.807355">
        <ele>431.12</ele>
      </trkpt>
      <trkpt lat="47.293613" lon="17.807636">
        <ele>435.25</ele>
      </trkpt>
      <trkpt lat="47.293543" lon="17.807778">
        <ele>436.7</ele>
      </trkpt>
      <trkpt lat="47.29353" lon="17.807955">
        <ele>437.41</ele>
      </trkpt>
      <trkpt lat="47.293575" lon="17.808377">
        <ele>439.06</ele>
      </trkpt>
      <trkpt lat="47.293634" lon="17.808728">
        <ele>440</ele>
      </trkpt>
      <trkpt lat="47.293639" lon="17.808897">
        <ele>440.53</ele>
      </trkpt>
      <trkpt lat="47.293509" lon="17.80965">
        <ele>444.8</ele>
      </trkpt>
      <trkpt lat="47.293282" lon="17.809744">
        <ele>449.11</ele>
      </trkpt>
      <trkpt lat="47.292865" lon="17.809848">
        <ele>455.63</ele>
      </trkpt>
      <trkpt lat="47.292431" lon="17.809952">
        <ele>452.5</ele>
      </trkpt>
      <trkpt lat="47.29189" lon="17.81004">
        <ele>447.73</ele>
      </trkpt>
      <trkpt lat="47.291587" lon="17.810137">
        <ele>443.99</ele>
      </trkpt>
      <trkpt lat="47.291173" lon="17.809276">
        <ele>441.53</ele>
      </trkpt>
      <trkpt lat="47.290797" lon="17.808204">
        <ele>443.93</ele>
      </trkpt>
      <trkpt lat="47.290159" lon="17.806195">
        <ele>452.69</ele>
      </trkpt>
      <trkpt lat="47.290113" lon="17.805862">
        <ele>452.41</ele>
      </trkpt>
      <trkpt lat="47.290105" lon="17.805076">
        <ele>452.03</ele>
      </trkpt>
      <trkpt lat="47.290195" lon="17.802464">
        <ele>456.3</ele>
      </trkpt>
      <trkpt lat="47.29014" lon="17.802073">
        <ele>457.76</ele>
      </trkpt>
      <trkpt lat="47.289993" lon="17.801558">
        <ele>459.02</ele>
      </trkpt>
      <trkpt lat="47.289839" lon="17.801204">
        <ele>460.45</ele>
      </trkpt>
      <trkpt lat="47.289306" lon="17.800234">
        <ele>470.15</ele>
      </trkpt>
      <trkpt lat="47.288415" lon="17.798897">
        <ele>487.74</ele>
      </trkpt>
      <trkpt lat="47.288259" lon="17.798587">
        <ele>488.04</ele>
      </trkpt>
      <trkpt lat="47.288173" lon="17.7983">
        <ele>487.7</ele>
      </trkpt>
      <trkpt lat="47.288162" lon="17.798048">
        <ele>488.17</ele>
      </trkpt>
      <trkpt lat="47.288191" lon="17.797847">
        <ele>488.13</ele>
      </trkpt>
      <trkpt lat="47.288241" lon="17.797721">
        <ele>488.05</ele>
      </trkpt>
      <trkpt lat="47.288386" lon="17.797486">
        <ele>488.28</ele>
      </trkpt>
      <trkpt lat="47.288457" lon="17.797325">
        <ele>488</ele>
      </trkpt>
      <trkpt lat="47.28849" lon="17.797177">
        <ele>487.38</ele>
      </trkpt>
      <trkpt lat="47.288486" lon="17.796963">
        <ele>486.47</ele>
      </trkpt>
      <trkpt lat="47.288347" lon="17.795906">
        <ele>482.12</ele>
      </trkpt>
      <trkpt lat="47.288201" lon="17.794624">
        <ele>480.19</ele>
      </trkpt>
      <trkpt lat="47.288136" lon="17.794443">
        <ele>479.48</ele>
      </trkpt>
      <trkpt lat="47.28814" lon="17.79444"/>
      <trkpt lat="47.2881" lon="17.79435"/>
      <trkpt lat="47.28741" lon="17.79425"/>
      <trkpt lat="47.28685" lon="17.79483"/>
      <trkpt lat="47.28674" lon="17.79483"/>
      <trkpt lat="47.28537" lon="17.79474"/>
      <trkpt lat="47.28524" lon="17.79453"/>
      <trkpt lat="47.28513" lon="17.7944"/>
      <trkpt lat="47.28507" lon="17.79429"/>
      <trkpt lat="47.28468" lon="17.79418"/>
      <trkpt lat="47.28462" lon="17.79416"/>
      <trkpt lat="47.2846" lon="17.79375"/>
      <trkpt lat="47.28458" lon="17.79354"/>
      <trkpt lat="47.28458" lon="17.79354"/>
      <trkpt lat="47.28458" lon="17.79354"/>
      <trkpt lat="47.28462" lon="17.79279"/>
      <trkpt lat="47.28466" lon="17.79249"/>
      <trkpt lat="47.28434" lon="17.79006"/>
      <trkpt lat="47.28419" lon="17.79004"/>
      <trkpt lat="47.28395" lon="17.78996"/>
      <trkpt lat="47.28383" lon="17.78987"/>
      <trkpt lat="47.28363" lon="17.78968"/>
      <trkpt lat="47.28346" lon="17.78944"/>
      <trkpt lat="47.2834" lon="17.78929"/>
      <trkpt lat="47.28331" lon="17.78905"/>
      <trkpt lat="47.2832" lon="17.78809"/>
      <trkpt lat="47.28314" lon="17.78785"/>
      <trkpt lat="47.2831" lon="17.78777"/>
      <trkpt lat="47.28303" lon="17.78772"/>
      <trkpt lat="47.28295" lon="17.7877"/>
      <trkpt lat="47.28269" lon="17.78777"/>
      <trkpt lat="47.28245" lon="17.78774"/>
      <trkpt lat="47.28226" lon="17.78768"/>
      <trkpt lat="47.28215" lon="17.78762"/>
      <trkpt lat="47.28209" lon="17.78755"/>
      <trkpt lat="47.282" lon="17.78742"/>
      <trkpt lat="47.28192" lon="17.78719"/>
      <trkpt lat="47.28172" lon="17.78648"/>
      <trkpt lat="47.28168" lon="17.78611"/>
      <trkpt lat="47.28164" lon="17.78556"/>
      <trkpt lat="47.28153" lon="17.78506"/>
      <trkpt lat="47.28153" lon="17.78474"/>
      <trkpt lat="47.28162" lon="17.78438"/>
      <trkpt lat="47.28091" lon="17.78313"/>
      <trkpt lat="47.28071" lon="17.78277"/>
      <trkpt lat="47.28003" lon="17.78255"/>
      <trkpt lat="47.27943" lon="17.78266"/>
      <trkpt lat="47.27913" lon="17.78242"/>
      <trkpt lat="47.27908" lon="17.78202"/>
      <trkpt lat="47.27908" lon="17.78146"/>
      <trkpt lat="47.27906" lon="17.78122"/>
      <trkpt lat="47.279" lon="17.78107"/>
      <trkpt lat="47.27893" lon="17.78094"/>
      <trkpt lat="47.27891" lon="17.78084"/>
      <trkpt lat="47.27891" lon="17.78075"/>
      <trkpt lat="47.27893" lon="17.7806"/>
      <trkpt lat="47.27893" lon="17.78032"/>
      <trkpt lat="47.27891" lon="17.78004"/>
      <trkpt lat="47.27885" lon="17.77985"/>
      <trkpt lat="47.27876" lon="17.77972"/>
      <trkpt lat="47.27793" lon="17.77901"/>
      <trkpt lat="47.27786" lon="17.77888"/>
      <trkpt lat="47.2778" lon="17.77856"/>
      <trkpt lat="47.27728" lon="17.77817"/>
      <trkpt lat="47.27698" lon="17.7779"/>
      <trkpt lat="47.2767" lon="17.7776"/>
      <trkpt lat="47.27642" lon="17.77719"/>
      <trkpt lat="47.27608" lon="17.77657"/>
      <trkpt lat="47.27595" lon="17.77607"/>
      <trkpt lat="47.27576" lon="17.77508"/>
      <trkpt lat="47.27565" lon="17.7747"/>
      <trkpt lat="47.27554" lon="17.77444"/>
      <trkpt lat="47.27541" lon="17.77425"/>
      <trkpt lat="47.27522" lon="17.77412"/>
      <trkpt lat="47.27468" lon="17.77393"/>
      <trkpt lat="47.27456" lon="17.77384"/>
      <trkpt lat="47.27445" lon="17.77371"/>
      <trkpt lat="47.27438" lon="17.77356"/>
      <trkpt lat="47.27434" lon="17.77339"/>
      <trkpt lat="47.2743" lon="17.77318"/>
      <trkpt lat="47.27421" lon="17.77238"/>
      <trkpt lat="47.27421" lon="17.77234"/>
      <trkpt lat="47.27417" lon="17.77206"/>
      <trkpt lat="47.27408" lon="17.77152"/>
      <trkpt lat="47.27391" lon="17.77073"/>
      <trkpt lat="47.27389" lon="17.7706"/>
      <trkpt lat="47.27378" lon="17.77024"/>
      <trkpt lat="47.27365" lon="17.76968"/>
      <trkpt lat="47.27353" lon="17.76914"/>
      <trkpt lat="47.27338" lon="17.7688"/>
      <trkpt lat="47.2731" lon="17.76837"/>
      <trkpt lat="47.27293" lon="17.76815"/>
      <trkpt lat="47.2728" lon="17.76792"/>
      <trkpt lat="47.27271" lon="17.7677"/>
      <trkpt lat="47.27267" lon="17.76751"/>
      <trkpt lat="47.27265" lon="17.76717"/>
      <trkpt lat="47.27271" lon="17.76687"/>
      <trkpt lat="47.27284" lon="17.76633"/>
      <trkpt lat="47.2729" lon="17.76609"/>
      <trkpt lat="47.27295" lon="17.76592"/>
      <trkpt lat="47.27299" lon="17.76571"/>
      <trkpt lat="47.27301" lon="17.76543"/>
      <trkpt lat="47.27301" lon="17.76524"/>
      <trkpt lat="47.27301" lon="17.76515"/>
      <trkpt lat="47.27293" lon="17.76485"/>
      <trkpt lat="47.27286" lon="17.76453"/>
      <trkpt lat="47.27286" lon="17.76386"/>
      <trkpt lat="47.2729" lon="17.76365"/>
      <trkpt lat="47.27308" lon="17.763"/>
      <trkpt lat="47.2731" lon="17.76273"/>
      <trkpt lat="47.27308" lon="17.76238"/>
      <trkpt lat="47.27303" lon="17.76208"/>
      <trkpt lat="47.27297" lon="17.76182"/>
      <trkpt lat="47.27258" lon="17.76064"/>
      <trkpt lat="47.27254" lon="17.76049"/>
      <trkpt lat="47.27196" lon="17.75856"/>
      <trkpt lat="47.27155" lon="17.75721"/>
      <trkpt lat="47.27144" lon="17.75697"/>
      <trkpt lat="47.27129" lon="17.75678"/>
      <trkpt lat="47.27114" lon="17.75663"/>
      <trkpt lat="47.27095" lon="17.75652"/>
      <trkpt lat="47.27072" lon="17.75648"/>
      <trkpt lat="47.27046" lon="17.7565"/>
      <trkpt lat="47.26938" lon="17.75697"/>
      <trkpt lat="47.26908" lon="17.75706"/>
      <trkpt lat="47.26883" lon="17.75708"/>
      <trkpt lat="47.26859" lon="17.75708"/>
      <trkpt lat="47.26842" lon="17.75704"/>
      <trkpt lat="47.26829" lon="17.75695"/>
      <trkpt lat="47.26818" lon="17.75682"/>
      <trkpt lat="47.2681" lon="17.75661"/>
      <trkpt lat="47.26808" lon="17.75637"/>
      <trkpt lat="47.26814" lon="17.75612"/>
      <trkpt lat="47.26825" lon="17.75582"/>
      <trkpt lat="47.26855" lon="17.75519"/>
      <trkpt lat="47.26856" lon="17.75513"/>
      <trkpt lat="47.26856" lon="17.75513"/>
      <trkpt lat="47.26856" lon="17.75512"/>
      <trkpt lat="47.26859" lon="17.755"/>
      <trkpt lat="47.26859" lon="17.75483"/>
      <trkpt lat="47.26853" lon="17.75468"/>
      <trkpt lat="47.26846" lon="17.75461"/>
      <trkpt lat="47.26838" lon="17.75455"/>
      <trkpt lat="47.26778" lon="17.75434"/>
      <trkpt lat="47.26739" lon="17.75423"/>
      <trkpt lat="47.26726" lon="17.75414"/>
      <trkpt lat="47.26715" lon="17.75399"/>
      <trkpt lat="47.26709" lon="17.75382"/>
      <trkpt lat="47.26707" lon="17.75363"/>
      <trkpt lat="47.26711" lon="17.75343"/>
      <trkpt lat="47.26736" lon="17.75285"/>
      <trkpt lat="47.26756" lon="17.75236"/>
      <trkpt lat="47.26763" lon="17.75223"/>
      <trkpt lat="47.26782" lon="17.75178"/>
      <trkpt lat="47.26788" lon="17.75157"/>
      <trkpt lat="47.2679" lon="17.75131"/>
      <trkpt lat="47.2679" lon="17.75105"/>
      <trkpt lat="47.26782" lon="17.75082"/>
      <trkpt lat="47.26773" lon="17.75067"/>
      <trkpt lat="47.26763" lon="17.75054"/>
      <trkpt lat="47.26698" lon="17.75002"/>
      <trkpt lat="47.26687" lon="17.74989"/>
      <trkpt lat="47.26675" lon="17.7497"/>
      <trkpt lat="47.26664" lon="17.74942"/>
      <trkpt lat="47.26657" lon="17.74914"/>
      <trkpt lat="47.26647" lon="17.74889"/>
      <trkpt lat="47.26638" lon="17.74869"/>
      <trkpt lat="47.26623" lon="17.74856"/>
      <trkpt lat="47.2661" lon="17.7485"/>
      <trkpt lat="47.26595" lon="17.7485"/>
      <trkpt lat="47.26557" lon="17.74852"/>
      <trkpt lat="47.26529" lon="17.74861"/>
      <trkpt lat="47.26445" lon="17.74876"/>
      <trkpt lat="47.26372" lon="17.74886"/>
      <trkpt lat="47.2634" lon="17.74895"/>
      <trkpt lat="47.26323" lon="17.74904"/>
      <trkpt lat="47.26282" lon="17.74938"/>
      <trkpt lat="47.26252" lon="17.7497"/>
      <trkpt lat="47.26243" lon="17.74974"/>
      <trkpt lat="47.26226" lon="17.74976"/>
      <trkpt lat="47.26207" lon="17.74974"/>
      <trkpt lat="47.26185" lon="17.74964"/>
      <trkpt lat="47.26164" lon="17.74944"/>
      <trkpt lat="47.26149" lon="17.74929"/>
      <trkpt lat="47.26119" lon="17.74895"/>
      <trkpt lat="47.26097" lon="17.74878"/>
      <trkpt lat="47.26072" lon="17.74861"/>
      <trkpt lat="47.26046" lon="17.74848"/>
      <trkpt lat="47.25988" lon="17.74833"/>
      <trkpt lat="47.25979" lon="17.74828"/>
      <trkpt lat="47.25971" lon="17.74822"/>
      <trkpt lat="47.25962" lon="17.74811"/>
      <trkpt lat="47.25954" lon="17.74786"/>
      <trkpt lat="47.25949" lon="17.74758"/>
      <trkpt lat="47.25947" lon="17.74734"/>
      <trkpt lat="47.25949" lon="17.74693"/>
      <trkpt lat="47.25956" lon="17.74652"/>
      <trkpt lat="47.25969" lon="17.74618"/>
      <trkpt lat="47.25979" lon="17.74599"/>
      <trkpt lat="47.25994" lon="17.7458"/>
      <trkpt lat="47.26009" lon="17.74569"/>
      <trkpt lat="47.26027" lon="17.74565"/>
      <trkpt lat="47.26076" lon="17.7456"/>
      <trkpt lat="47.26091" lon="17.74554"/>
      <trkpt lat="47.26104" lon="17.74543"/>
      <trkpt lat="47.2611" lon="17.7453"/>
      <trkpt lat="47.26115" lon="17.74509"/>
      <trkpt lat="47.26112" lon="17.74489"/>
      <trkpt lat="47.26108" lon="17.74474"/>
      <trkpt lat="47.26099" lon="17.74462"/>
      <trkpt lat="47.26078" lon="17.74449"/>
      <trkpt lat="47.26016" lon="17.74427"/>
      <trkpt lat="47.25992" lon="17.74414"/>
      <trkpt lat="47.25969" lon="17.74397"/>
      <trkpt lat="47.2596" lon="17.74389"/>
      <trkpt lat="47.2578" lon="17.74122"/>
      <trkpt lat="47.2576" lon="17.74097"/>
      <trkpt lat="47.2572" lon="17.74032"/>
      <trkpt lat="47.25713" lon="17.74015"/>
      <trkpt lat="47.25711" lon="17.74002"/>
      <trkpt lat="47.25711" lon="17.73966"/>
      <trkpt lat="47.25718" lon="17.73947"/>
      <trkpt lat="47.25724" lon="17.73936"/>
      <trkpt lat="47.25739" lon="17.73921"/>
      <trkpt lat="47.2575" lon="17.73912"/>
      <trkpt lat="47.25767" lon="17.73908"/>
      <trkpt lat="47.2578" lon="17.73906"/>
      <trkpt lat="47.2584" lon="17.73895"/>
      <trkpt lat="47.25878" lon="17.73886"/>
      <trkpt lat="47.25911" lon="17.73876"/>
      <trkpt lat="47.25941" lon="17.73859"/>
      <trkpt lat="47.25971" lon="17.73831"/>
      <trkpt lat="47.26087" lon="17.73687"/>
      <trkpt lat="47.26119" lon="17.73638"/>
      <trkpt lat="47.26127" lon="17.73618"/>
      <trkpt lat="47.2613" lon="17.73601"/>
      <trkpt lat="47.26132" lon="17.73577"/>
      <trkpt lat="47.26127" lon="17.73539"/>
      <trkpt lat="47.26108" lon="17.73449"/>
      <trkpt lat="47.26084" lon="17.7338"/>
      <trkpt lat="47.26078" lon="17.73348"/>
      <trkpt lat="47.26078" lon="17.7332"/>
      <trkpt lat="47.26082" lon="17.73296"/>
      <trkpt lat="47.26093" lon="17.73268"/>
      <trkpt lat="47.26115" lon="17.73241"/>
      <trkpt lat="47.2614" lon="17.73219"/>
      <trkpt lat="47.26162" lon="17.73204"/>
      <trkpt lat="47.26172" lon="17.73193"/>
      <trkpt lat="47.26179" lon="17.73183"/>
      <trkpt lat="47.26181" lon="17.73172"/>
      <trkpt lat="47.26183" lon="17.73157"/>
      <trkpt lat="47.26181" lon="17.73142"/>
      <trkpt lat="47.26177" lon="17.73129"/>
      <trkpt lat="47.26147" lon="17.73099"/>
      <trkpt lat="47.26063" lon="17.73024"/>
      <trkpt lat="47.26044" lon="17.73"/>
      <trkpt lat="47.26035" lon="17.72979"/>
      <trkpt lat="47.26031" lon="17.72959"/>
      <trkpt lat="47.26029" lon="17.72942"/>
      <trkpt lat="47.26029" lon="17.72891"/>
      <trkpt lat="47.26042" lon="17.72715"/>
      <trkpt lat="47.2605" lon="17.72614"/>
      <trkpt lat="47.2605" lon="17.7256"/>
      <trkpt lat="47.26048" lon="17.7255"/>
      <trkpt lat="47.26046" lon="17.72541"/>
      <trkpt lat="47.26046" lon="17.72535"/>
      <trkpt lat="47.26035" lon="17.72507"/>
      <trkpt lat="47.26024" lon="17.72487"/>
      <trkpt lat="47.26009" lon="17.72472"/>
      <trkpt lat="47.25973" lon="17.72462"/>
      <trkpt lat="47.25924" lon="17.72457"/>
      <trkpt lat="47.25926" lon="17.72453"/>
      <trkpt lat="47.25924" lon="17.72457"/>
      <trkpt lat="47.25906" lon="17.72453"/>
      <trkpt lat="47.25893" lon="17.72442"/>
      <trkpt lat="47.25883" lon="17.72432"/>
      <trkpt lat="47.25874" lon="17.72421"/>
      <trkpt lat="47.25866" lon="17.72404"/>
      <trkpt lat="47.25853" lon="17.72372"/>
      <trkpt lat="47.25842" lon="17.72335"/>
      <trkpt lat="47.25838" lon="17.72329"/>
      <trkpt lat="47.25825" lon="17.72296"/>
      <trkpt lat="47.25803" lon="17.72245"/>
      <trkpt lat="47.25801" lon="17.72241"/>
      <trkpt lat="47.25788" lon="17.72204"/>
      <trkpt lat="47.25773" lon="17.72168"/>
      <trkpt lat="47.25765" lon="17.72159"/>
      <trkpt lat="47.2576" lon="17.72153"/>
      <trkpt lat="47.2576" lon="17.72153"/>
      <trkpt lat="47.2572" lon="17.72189"/>
      <trkpt lat="47.25705" lon="17.72202"/>
      <trkpt lat="47.25694" lon="17.72213"/>
      <trkpt lat="47.25679" lon="17.72228"/>
      <trkpt lat="47.2566" lon="17.72243"/>
      <trkpt lat="47.25645" lon="17.7226"/>
      <trkpt lat="47.25621" lon="17.72281"/>
      <trkpt lat="47.25615" lon="17.72288"/>
      <trkpt lat="47.25608" lon="17.72296"/>
      <trkpt lat="47.25582" lon="17.72322"/>
      <trkpt lat="47.25578" lon="17.72326"/>
      <trkpt lat="47.25567" lon="17.72335"/>
      <trkpt lat="47.25544" lon="17.72354"/>
      <trkpt lat="47.25533" lon="17.72365"/>
      <trkpt lat="47.25516" lon="17.72384"/>
      <trkpt lat="47.25497" lon="17.72404"/>
      <trkpt lat="47.25477" lon="17.72421"/>
      <trkpt lat="47.25464" lon="17.72432"/>
      <trkpt lat="47.25447" lon="17.72451"/>
      <trkpt lat="47.25432" lon="17.72466"/>
      <trkpt lat="47.25411" lon="17.72485"/>
      <trkpt lat="47.25396" lon="17.725"/>
      <trkpt lat="47.254" lon="17.72509"/>
      <trkpt lat="47.25387" lon="17.72522"/>
      <trkpt lat="47.25366" lon="17.72543"/>
      <trkpt lat="47.25342" lon="17.72565"/>
      <trkpt lat="47.25318" lon="17.72586"/>
      <trkpt lat="47.25288" lon="17.72618"/>
      <trkpt lat="47.25248" lon="17.72655"/>
      <trkpt lat="47.25228" lon="17.72678"/>
      <trkpt lat="47.2522" lon="17.72691"/>
      <trkpt lat="47.25211" lon="17.72708"/>
      <trkpt lat="47.25203" lon="17.7273"/>
      <trkpt lat="47.252" lon="17.72739"/>
      <trkpt lat="47.25196" lon="17.72751"/>
      <trkpt lat="47.25194" lon="17.72764"/>
      <trkpt lat="47.25192" lon="17.72786"/>
      <trkpt lat="47.25194" lon="17.72803"/>
      <trkpt lat="47.25198" lon="17.72824"/>
      <trkpt lat="47.252" lon="17.72833"/>
      <trkpt lat="47.25209" lon="17.72865"/>
      <trkpt lat="47.25209" lon="17.72865"/>
      <trkpt lat="47.25209" lon="17.72865"/>
      <trkpt lat="47.25198" lon="17.72867"/>
      <trkpt lat="47.25123" lon="17.72876"/>
      <trkpt lat="47.25063" lon="17.7288"/>
      <trkpt lat="47.25016" lon="17.72884"/>
      <trkpt lat="47.25001" lon="17.72882"/>
      <trkpt lat="47.24988" lon="17.72882"/>
      <trkpt lat="47.24979" lon="17.72889"/>
      <trkpt lat="47.24943" lon="17.72919"/>
      <trkpt lat="47.2493" lon="17.72934"/>
      <trkpt lat="47.24919" lon="17.7294"/>
      <trkpt lat="47.24904" lon="17.7294"/>
      <trkpt lat="47.24801" lon="17.72912"/>
      <trkpt lat="47.24773" lon="17.72908"/>
      <trkpt lat="47.24748" lon="17.72908"/>
      <trkpt lat="47.24713" lon="17.72917"/>
      <trkpt lat="47.24681" lon="17.72932"/>
      <trkpt lat="47.24623" lon="17.72947"/>
      <trkpt lat="47.24617" lon="17.72947"/>
      <trkpt lat="47.24589" lon="17.72957"/>
      <trkpt lat="47.24582" lon="17.72963"/>
      <trkpt lat="47.24557" lon="17.72983"/>
      <trkpt lat="47.24518" lon="17.73017"/>
      <trkpt lat="47.24503" lon="17.73037"/>
      <trkpt lat="47.24469" lon="17.73112"/>
      <trkpt lat="47.24443" lon="17.73148"/>
      <trkpt lat="47.24424" lon="17.73168"/>
      <trkpt lat="47.24419" lon="17.7317"/>
      <trkpt lat="47.244" lon="17.73183"/>
      <trkpt lat="47.24389" lon="17.73191"/>
      <trkpt lat="47.24319" lon="17.73234"/>
      <trkpt lat="47.24211" lon="17.73271"/>
      <trkpt lat="47.24042" lon="17.73301"/>
      <trkpt lat="47.23937" lon="17.73322"/>
      <trkpt lat="47.23883" lon="17.73337"/>
      <trkpt lat="47.23851" lon="17.73354"/>
      <trkpt lat="47.23709" lon="17.73447"/>
      <trkpt lat="47.23701" lon="17.73457"/>
      <trkpt lat="47.23696" lon="17.73466"/>
      <trkpt lat="47.23692" lon="17.73479"/>
      <trkpt lat="47.2369" lon="17.73494"/>
      <trkpt lat="47.23694" lon="17.73513"/>
      <trkpt lat="47.23724" lon="17.73584"/>
      <trkpt lat="47.23726" lon="17.73597"/>
      <trkpt lat="47.23726" lon="17.7361"/>
      <trkpt lat="47.23722" lon="17.73625"/>
      <trkpt lat="47.23716" lon="17.73633"/>
      <trkpt lat="47.23705" lon="17.73644"/>
      <trkpt lat="47.23679" lon="17.73653"/>
      <trkpt lat="47.23673" lon="17.7365"/>
      <trkpt lat="47.23666" lon="17.73646"/>
      <trkpt lat="47.23623" lon="17.73569"/>
      <trkpt lat="47.23604" lon="17.73541"/>
      <trkpt lat="47.23583" lon="17.73522"/>
      <trkpt lat="47.23559" lon="17.73513"/>
      <trkpt lat="47.23531" lon="17.73511"/>
      <trkpt lat="47.2349" lon="17.73513"/>
      <trkpt lat="47.23458" lon="17.7352"/>
      <trkpt lat="47.2343" lon="17.73537"/>
      <trkpt lat="47.23385" lon="17.73569"/>
      <trkpt lat="47.23359" lon="17.73592"/>
      <trkpt lat="47.23319" lon="17.7364"/>
      <trkpt lat="47.23269" lon="17.73726"/>
      <trkpt lat="47.23226" lon="17.73783"/>
      <trkpt lat="47.23216" lon="17.73805"/>
      <trkpt lat="47.23198" lon="17.73805"/>
      <trkpt lat="47.2316" lon="17.73835"/>
      <trkpt lat="47.2316" lon="17.73844"/>
      <trkpt lat="47.23155" lon="17.73852"/>
      <trkpt lat="47.23151" lon="17.73859"/>
      <trkpt lat="47.2314" lon="17.7388"/>
      <trkpt lat="47.23128" lon="17.73912"/>
      <trkpt lat="47.23117" lon="17.73962"/>
      <trkpt lat="47.23108" lon="17.73974"/>
      <trkpt lat="47.23091" lon="17.73983"/>
      <trkpt lat="47.23048" lon="17.74047"/>
      <trkpt lat="47.23044" lon="17.74075"/>
      <trkpt lat="47.23022" lon="17.74082"/>
      <trkpt lat="47.2299" lon="17.74105"/>
      <trkpt lat="47.22965" lon="17.74137"/>
      <trkpt lat="47.22943" lon="17.74159"/>
      <trkpt lat="47.22883" lon="17.74213"/>
      <trkpt lat="47.22864" lon="17.74219"/>
      <trkpt lat="47.22836" lon="17.7424"/>
      <trkpt lat="47.22816" lon="17.7426"/>
      <trkpt lat="47.2281" lon="17.74273"/>
      <trkpt lat="47.22797" lon="17.74283"/>
      <trkpt lat="47.22769" lon="17.74266"/>
      <trkpt lat="47.22703" lon="17.74258"/>
      <trkpt lat="47.22617" lon="17.74262"/>
      <trkpt lat="47.2248" lon="17.74273"/>
      <trkpt lat="47.22428" lon="17.74281"/>
      <trkpt lat="47.22422" lon="17.74288"/>
      <trkpt lat="47.22415" lon="17.74298"/>
      <trkpt lat="47.22407" lon="17.74305"/>
      <trkpt lat="47.22385" lon="17.74313"/>
      <trkpt lat="47.22372" lon="17.74324"/>
      <trkpt lat="47.22362" lon="17.74348"/>
      <trkpt lat="47.22349" lon="17.74369"/>
      <trkpt lat="47.22338" lon="17.74369"/>
      <trkpt lat="47.22329" lon="17.74374"/>
      <trkpt lat="47.22321" lon="17.74384"/>
      <trkpt lat="47.22314" lon="17.74397"/>
      <trkpt lat="47.22222" lon="17.74356"/>
      <trkpt lat="47.22196" lon="17.74335"/>
      <trkpt lat="47.2216" lon="17.7432"/>
      <trkpt lat="47.22138" lon="17.74313"/>
      <trkpt lat="47.2208" lon="17.74322"/>
      <trkpt lat="47.22055" lon="17.74331"/>
      <trkpt lat="47.21999" lon="17.74408"/>
      <trkpt lat="47.21984" lon="17.74429"/>
      <trkpt lat="47.21986" lon="17.74485"/>
      <trkpt lat="47.2198" lon="17.745"/>
      <trkpt lat="47.2195" lon="17.74526"/>
      <trkpt lat="47.21915" lon="17.7453"/>
      <trkpt lat="47.21849" lon="17.74547"/>
      <trkpt lat="47.21814" lon="17.74571"/>
      <trkpt lat="47.21786" lon="17.74601"/>
      <trkpt lat="47.21759" lon="17.74625"/>
      <trkpt lat="47.21694" lon="17.74674"/>
      <trkpt lat="47.21668" lon="17.74708"/>
      <trkpt lat="47.21653" lon="17.74719"/>
      <trkpt lat="47.21653" lon="17.74734"/>
      <trkpt lat="47.21651" lon="17.74747"/>
      <trkpt lat="47.21621" lon="17.74775"/>
      <trkpt lat="47.21561" lon="17.74818"/>
      <trkpt lat="47.21533" lon="17.74833"/>
      <trkpt lat="47.2151" lon="17.74846"/>
      <trkpt lat="47.2148" lon="17.7488"/>
      <trkpt lat="47.21462" lon="17.74908"/>
      <trkpt lat="47.2145" lon="17.74936"/>
      <trkpt lat="47.21443" lon="17.74966"/>
      <trkpt lat="47.21443" lon="17.74992"/>
      <trkpt lat="47.21413" lon="17.75"/>
      <trkpt lat="47.21368" lon="17.74994"/>
      <trkpt lat="47.21351" lon="17.75002"/>
      <trkpt lat="47.21272" lon="17.75075"/>
      <trkpt lat="47.21216" lon="17.75137"/>
      <trkpt lat="47.21164" lon="17.7524"/>
      <trkpt lat="47.21085" lon="17.75369"/>
      <trkpt lat="47.21016" lon="17.75483"/>
      <trkpt lat="47.20915" lon="17.75637"/>
      <trkpt lat="47.20892" lon="17.75674"/>
      <trkpt lat="47.20877" lon="17.75708"/>
      <trkpt lat="47.20823" lon="17.75777"/>
      <trkpt lat="47.20812" lon="17.75803"/>
      <trkpt lat="47.20793" lon="17.75815"/>
      <trkpt lat="47.20709" lon="17.75886"/>
      <trkpt lat="47.20675" lon="17.75923"/>
      <trkpt lat="47.20647" lon="17.75946"/>
      <trkpt lat="47.20611" lon="17.75968"/>
      <trkpt lat="47.20602" lon="17.75974"/>
      <trkpt lat="47.20516" lon="17.76041"/>
      <trkpt lat="47.20516" lon="17.76041"/>
      <trkpt lat="47.20516" lon="17.7604"/>
      <trkpt lat="47.20482" lon="17.75983"/>
      <trkpt lat="47.20424" lon="17.75869"/>
      <trkpt lat="47.20383" lon="17.75826"/>
      <trkpt lat="47.20355" lon="17.75777"/>
      <trkpt lat="47.2036" lon="17.75753"/>
      <trkpt lat="47.20362" lon="17.7573"/>
      <trkpt lat="47.20368" lon="17.75674"/>
      <trkpt lat="47.20368" lon="17.7565"/>
      <trkpt lat="47.20375" lon="17.75635"/>
      <trkpt lat="47.2037" lon="17.7562"/>
      <trkpt lat="47.20377" lon="17.75599"/>
      <trkpt lat="47.20398" lon="17.75571"/>
      <trkpt lat="47.20402" lon="17.75543"/>
      <trkpt lat="47.20402" lon="17.75509"/>
      <trkpt lat="47.20458" lon="17.7544"/>
      <trkpt lat="47.20377" lon="17.75309"/>
      <trkpt lat="47.20336" lon="17.75236"/>
      <trkpt lat="47.20333" lon="17.75239"/>
      <trkpt lat="47.20323" lon="17.75251"/>
      <trkpt lat="47.20319" lon="17.75262"/>
      <trkpt lat="47.20312" lon="17.75264"/>
      <trkpt lat="47.20306" lon="17.75264"/>
      <trkpt lat="47.20304" lon="17.75253"/>
      <trkpt lat="47.20306" lon="17.75234"/>
      <trkpt lat="47.20278" lon="17.75202"/>
      <trkpt lat="47.20272" lon="17.7518"/>
      <trkpt lat="47.20267" lon="17.75135"/>
      <trkpt lat="47.20265" lon="17.75125"/>
      <trkpt lat="47.20252" lon="17.75103"/>
      <trkpt lat="47.20235" lon="17.75086"/>
      <trkpt lat="47.20216" lon="17.75058"/>
      <trkpt lat="47.20212" lon="17.75063"/>
      <trkpt lat="47.20207" lon="17.75069"/>
      <trkpt lat="47.20145" lon="17.74959"/>
      <trkpt lat="47.20126" lon="17.74951"/>
      <trkpt lat="47.20115" lon="17.74942"/>
      <trkpt lat="47.20061" lon="17.74931"/>
      <trkpt lat="47.2004" lon="17.74916"/>
      <trkpt lat="47.20031" lon="17.74916"/>
      <trkpt lat="47.20003" lon="17.74927"/>
      <trkpt lat="47.19984" lon="17.74938"/>
      <trkpt lat="47.19973" lon="17.74936"/>
      <trkpt lat="47.19952" lon="17.74923"/>
      <trkpt lat="47.19924" lon="17.74919"/>
      <trkpt lat="47.19885" lon="17.74929"/>
      <trkpt lat="47.19853" lon="17.74949"/>
      <trkpt lat="47.19729" lon="17.74981"/>
      <trkpt lat="47.19686" lon="17.74985"/>
      <trkpt lat="47.19647" lon="17.74974"/>
      <trkpt lat="47.19604" lon="17.74989"/>
      <trkpt lat="47.19583" lon="17.74974"/>
      <trkpt lat="47.19523" lon="17.74878"/>
      <trkpt lat="47.19499" lon="17.74837"/>
      <trkpt lat="47.19473" lon="17.74809"/>
      <trkpt lat="47.19454" lon="17.74766"/>
      <trkpt lat="47.19418" lon="17.74693"/>
      <trkpt lat="47.19413" lon="17.74644"/>
      <trkpt lat="47.19411" lon="17.74614"/>
      <trkpt lat="47.19405" lon="17.74605"/>
      <trkpt lat="47.1939" lon="17.74592"/>
      <trkpt lat="47.19373" lon="17.74565"/>
      <trkpt lat="47.19355" lon="17.74511"/>
      <trkpt lat="47.19353" lon="17.74479"/>
      <trkpt lat="47.19362" lon="17.74459"/>
      <trkpt lat="47.19362" lon="17.74442"/>
      <trkpt lat="47.1936" lon="17.74421"/>
      <trkpt lat="47.19351" lon="17.74397"/>
      <trkpt lat="47.19355" lon="17.74376"/>
      <trkpt lat="47.19373" lon="17.74326"/>
      <trkpt lat="47.19377" lon="17.7429"/>
      <trkpt lat="47.19379" lon="17.74221"/>
      <trkpt lat="47.19383" lon="17.74198"/>
      <trkpt lat="47.19392" lon="17.74165"/>
      <trkpt lat="47.1937" lon="17.74137"/>
      <trkpt lat="47.1934" lon="17.74082"/>
      <trkpt lat="47.19293" lon="17.74007"/>
      <trkpt lat="47.19242" lon="17.7391"/>
      <trkpt lat="47.19194" lon="17.73837"/>
      <trkpt lat="47.19156" lon="17.73771"/>
      <trkpt lat="47.19109" lon="17.73685"/>
      <trkpt lat="47.19081" lon="17.73691"/>
      <trkpt lat="47.19018" lon="17.73719"/>
      <trkpt lat="47.19012" lon="17.73726"/>
      <trkpt lat="47.19012" lon="17.73726"/>
      <trkpt lat="47.19012" lon="17.73726"/>
      <trkpt lat="47.18993" lon="17.73723"/>
      <trkpt lat="47.18971" lon="17.73745"/>
      <trkpt lat="47.18954" lon="17.73749"/>
      <trkpt lat="47.18939" lon="17.7376"/>
      <trkpt lat="47.18907" lon="17.73801"/>
      <trkpt lat="47.1889" lon="17.73826"/>
      <trkpt lat="47.18885" lon="17.73841"/>
      <trkpt lat="47.18885" lon="17.7385"/>
      <trkpt lat="47.18858" lon="17.73861"/>
      <trkpt lat="47.18838" lon="17.73863"/>
      <trkpt lat="47.18832" lon="17.73856"/>
      <trkpt lat="47.1883" lon="17.73844"/>
      <trkpt lat="47.18834" lon="17.7379"/>
      <trkpt lat="47.18834" lon="17.73756"/>
      <trkpt lat="47.18832" lon="17.73728"/>
      <trkpt lat="47.18821" lon="17.73713"/>
      <trkpt lat="47.1881" lon="17.7371"/>
      <trkpt lat="47.1872" lon="17.73777"/>
      <trkpt lat="47.18682" lon="17.73798"/>
      <trkpt lat="47.18654" lon="17.73831"/>
      <trkpt lat="47.18621" lon="17.73837"/>
      <trkpt lat="47.18576" lon="17.73831"/>
      <trkpt lat="47.18568" lon="17.73837"/>
      <trkpt lat="47.18544" lon="17.73874"/>
      <trkpt lat="47.18508" lon="17.73908"/>
      <trkpt lat="47.18499" lon="17.73932"/>
      <trkpt lat="47.18497" lon="17.73959"/>
      <trkpt lat="47.18493" lon="17.74002"/>
      <trkpt lat="47.1848" lon="17.7405"/>
      <trkpt lat="47.18452" lon="17.74101"/>
      <trkpt lat="47.18446" lon="17.74116"/>
      <trkpt lat="47.18443" lon="17.74176"/>
      <trkpt lat="47.18439" lon="17.74238"/>
      <trkpt lat="47.18439" lon="17.74264"/>
      <trkpt lat="47.18446" lon="17.74283"/>
      <trkpt lat="47.18443" lon="17.74333"/>
      <trkpt lat="47.18439" lon="17.74369"/>
      <trkpt lat="47.18435" lon="17.7447"/>
      <trkpt lat="47.18439" lon="17.74489"/>
      <trkpt lat="47.18433" lon="17.74517"/>
      <trkpt lat="47.18424" lon="17.74541"/>
      <trkpt lat="47.18409" lon="17.74569"/>
      <trkpt lat="47.18381" lon="17.74595"/>
      <trkpt lat="47.18328" lon="17.74571"/>
      <trkpt lat="47.18235" lon="17.7453"/>
      <trkpt lat="47.18203" lon="17.74507"/>
      <trkpt lat="47.18179" lon="17.745"/>
      <trkpt lat="47.18104" lon="17.74513"/>
      <trkpt lat="47.18046" lon="17.74552"/>
      <trkpt lat="47.18004" lon="17.74582"/>
      <trkpt lat="47.17954" lon="17.74629"/>
      <trkpt lat="47.17883" lon="17.74695"/>
      <trkpt lat="47.17847" lon="17.74745"/>
      <trkpt lat="47.17767" lon="17.74904"/>
      <trkpt lat="47.17697" lon="17.74985"/>
      <trkpt lat="47.17649" lon="17.75107"/>
      <trkpt lat="47.1763" lon="17.75159"/>
      <trkpt lat="47.17626" lon="17.75219"/>
      <trkpt lat="47.17602" lon="17.75305"/>
      <trkpt lat="47.17585" lon="17.75328"/>
      <trkpt lat="47.17581" lon="17.7535"/>
      <trkpt lat="47.17561" lon="17.75382"/>
      <trkpt lat="47.17542" lon="17.7541"/>
      <trkpt lat="47.17521" lon="17.7544"/>
      <trkpt lat="47.17499" lon="17.75459"/>
      <trkpt lat="47.17486" lon="17.75468"/>
      <trkpt lat="47.17469" lon="17.75487"/>
      <trkpt lat="47.17441" lon="17.75483"/>
      <trkpt lat="47.17418" lon="17.75491"/>
      <trkpt lat="47.17403" lon="17.75511"/>
      <trkpt lat="47.1739" lon="17.75532"/>
      <trkpt lat="47.1739" lon="17.75545"/>
      <trkpt lat="47.1739" lon="17.75545"/>
      <trkpt lat="47.17392" lon="17.75592"/>
      <trkpt lat="47.17381" lon="17.7564"/>
      <trkpt lat="47.17379" lon="17.75687"/>
      <trkpt lat="47.17332" lon="17.75672"/>
      <trkpt lat="47.17321" lon="17.75618"/>
      <trkpt lat="47.17317" lon="17.75586"/>
      <trkpt lat="47.1731" lon="17.75526"/>
      <trkpt lat="47.17263" lon="17.75504"/>
      <trkpt lat="47.17203" lon="17.75472"/>
      <trkpt lat="47.17182" lon="17.75457"/>
      <trkpt lat="47.17147" lon="17.75442"/>
      <trkpt lat="47.1713" lon="17.75438"/>
      <trkpt lat="47.17122" lon="17.75451"/>
      <trkpt lat="47.17111" lon="17.75464"/>
      <trkpt lat="47.17096" lon="17.7547"/>
      <trkpt lat="47.17077" lon="17.75472"/>
      <trkpt lat="47.16894" lon="17.75481"/>
      <trkpt lat="47.16806" lon="17.75494"/>
      <trkpt lat="47.1677" lon="17.755"/>
      <trkpt lat="47.16654" lon="17.7553"/>
      <trkpt lat="47.16469" lon="17.75573"/>
      <trkpt lat="47.16334" lon="17.7562"/>
      <trkpt lat="47.1622" lon="17.75648"/>
      <trkpt lat="47.16117" lon="17.7567"/>
      <trkpt lat="47.15643" lon="17.75775"/>
      <trkpt lat="47.15411" lon="17.7582"/>
      <trkpt lat="47.15259" lon="17.75846"/>
      <trkpt lat="47.1518" lon="17.75858"/>
      <trkpt lat="47.15014" lon="17.75899"/>
      <trkpt lat="47.14841" lon="17.75934"/>
      <trkpt lat="47.14705" lon="17.75959"/>
      <trkpt lat="47.14583" lon="17.75989"/>
      <trkpt lat="47.14564" lon="17.75964"/>
      <trkpt lat="47.14407" lon="17.75998"/>
      <trkpt lat="47.1436" lon="17.76009"/>
      <trkpt lat="47.1433" lon="17.76009"/>
      <trkpt lat="47.14309" lon="17.76"/>
      <trkpt lat="47.14283" lon="17.75983"/>
      <trkpt lat="47.14257" lon="17.75959"/>
      <trkpt lat="47.14158" lon="17.75878"/>
      <trkpt lat="47.13774" lon="17.75571"/>
      <trkpt lat="47.13551" lon="17.75378"/>
      <trkpt lat="47.13532" lon="17.7536"/>
      <trkpt lat="47.13515" lon="17.75343"/>
      <trkpt lat="47.13446" lon="17.75285"/>
      <trkpt lat="47.13386" lon="17.75243"/>
      <trkpt lat="47.13341" lon="17.7521"/>
      <trkpt lat="47.13321" lon="17.75195"/>
      <trkpt lat="47.13315" lon="17.75189"/>
      <trkpt lat="47.13294" lon="17.75174"/>
      <trkpt lat="47.13285" lon="17.75163"/>
      <trkpt lat="47.13268" lon="17.75142"/>
      <trkpt lat="47.13259" lon="17.75129"/>
      <trkpt lat="47.13242" lon="17.75101"/>
      <trkpt lat="47.13225" lon="17.75069"/>
      <trkpt lat="47.13214" lon="17.75047"/>
      <trkpt lat="47.13214" lon="17.75047"/>
    </trkseg>
  </trk>
</gpx>
