<?xml version="1.0" encoding="UTF-8"?>
<gpx xmlns:xsi="http://www.w3.org/2001/XMLSchema-instance" xmlns="http://www.topografix.com/GPX/1/1" xsi:schemaLocation="http://www.topografix.com/GPX/1/1 http://www.topografix.com/GPX/1/1/gpx.xsd" version="1.1" creator="Routino">
<metadata>
<desc>Creator : Routino - http://www.routino.org/</desc>
<author>
</author>
<copyright author="Based on OpenStreetMap data from http://www.openstreetmap.org/">
<license>http://www.openstreetmap.org/copyright</license></copyright>
</metadata>
<trk>
<name>Shortest route</name>
<desc>Shortest route between 'start' and 'finish' waypoints</desc>

<trkseg>
<trkpt lat="47.777942" lon="18.744281">
<ele>110</ele>
</trkpt>
<trkpt lat="47.778038" lon="18.743921">
<ele>109.84</ele>
</trkpt>
<trkpt lat="47.778147" lon="18.743852">
<ele>109.68</ele>
</trkpt>
<trkpt lat="47.778347" lon="18.743835">
<ele>109.32</ele>
</trkpt>
<trkpt lat="47.778436" lon="18.743891">
<ele>109.16</ele>
</trkpt>
<trkpt lat="47.778698" lon="18.744075">
<ele>109.0</ele>
</trkpt>
<trkpt lat="47.779247" lon="18.744297">
<ele>109.0</ele>
</trkpt>
<trkpt lat="47.779557" lon="18.744185">
<ele>109.16</ele>
</trkpt>
<trkpt lat="47.779669" lon="18.744727">
<ele>109.8</ele>
</trkpt>
<trkpt lat="47.779911" lon="18.745828">
<ele>110.64</ele>
</trkpt>
<trkpt lat="47.7802" lon="18.747149">
<ele>111.88</ele>
</trkpt>
<trkpt lat="47.780399" lon="18.74704">
<ele>112.84</ele>
</trkpt>
<trkpt lat="47.780424" lon="18.747128">
<ele>113.64</ele>
</trkpt>
<trkpt lat="47.780546" lon="18.747535">
<ele>114.36</ele>
</trkpt>
<trkpt lat="47.780634" lon="18.747826">
<ele>114.68</ele>
</trkpt>
<trkpt lat="47.780685" lon="18.748012">
<ele>115</ele>
</trkpt></trkseg>
<trkseg>
<trkpt lat="47.780685" lon="18.748012">
<ele>115</ele>
</trkpt>
<trkpt lat="47.780726" lon="18.748145">
<ele>114.68</ele>
</trkpt>
<trkpt lat="47.780856" lon="18.748065">
<ele>114.32</ele>
</trkpt>
<trkpt lat="47.780931" lon="18.74802">
<ele>114.16</ele>
</trkpt>
<trkpt lat="47.781077" lon="18.747935">
<ele>114.0</ele>
</trkpt>
<trkpt lat="47.781115" lon="18.748067">
<ele>114.0</ele>
</trkpt>
<trkpt lat="47.781395" lon="18.747901">
<ele>114.16</ele>
</trkpt>
<trkpt lat="47.781417" lon="18.747986">
<ele>114.32</ele>
</trkpt>
<trkpt lat="47.783398" lon="18.746914">
<ele>115.0</ele>
</trkpt>
<trkpt lat="47.783431" lon="18.747049">
<ele>114.84</ele>
</trkpt>
<trkpt lat="47.783696" lon="18.748164">
<ele>115.08</ele>
</trkpt>
<trkpt lat="47.784774" lon="18.747472">
<ele>113.96</ele>
</trkpt>
<trkpt lat="47.784844" lon="18.747482">
<ele>113</ele>
</trkpt></trkseg>
<trkseg>
<trkpt lat="47.784844" lon="18.747482">
<ele>113</ele>
</trkpt>
<trkpt lat="47.784962" lon="18.748112">
<ele>117.44</ele>
</trkpt>
<trkpt lat="47.785132" lon="18.749093">
<ele>123.72</ele>
</trkpt>
<trkpt lat="47.785196" lon="18.749847">
<ele>130.12</ele>
</trkpt>
<trkpt lat="47.785346" lon="18.750072">
<ele>139.64</ele>
</trkpt>
<trkpt lat="47.785805" lon="18.75049">
<ele>145.88</ele>
</trkpt>
<trkpt lat="47.785951" lon="18.750807">
<ele>153.84</ele>
</trkpt>
<trkpt lat="47.786218" lon="18.751723">
<ele>156.96</ele>
</trkpt>
<trkpt lat="47.78636" lon="18.751858">
<ele>163.68</ele>
</trkpt>
<trkpt lat="47.786656" lon="18.75221">
<ele>171.68</ele>
</trkpt>
<trkpt lat="47.787509" lon="18.753225">
<ele>188.52</ele>
</trkpt>
<trkpt lat="47.78916" lon="18.755157">
<ele>208.0</ele>
</trkpt>
<trkpt lat="47.78921" lon="18.757335">
<ele>228.72</ele>
</trkpt>
<trkpt lat="47.790062" lon="18.757982">
<ele>246.28</ele>
</trkpt>
<trkpt lat="47.790555" lon="18.758348">
<ele>257.8</ele>
</trkpt>
<trkpt lat="47.791266" lon="18.759084">
<ele>266.2</ele>
</trkpt>
<trkpt lat="47.791593" lon="18.759268">
<ele>268.6</ele>
</trkpt>
<trkpt lat="47.791699" lon="18.759224">
<ele>269</ele>
</trkpt></trkseg>
<trkseg>
<trkpt lat="47.791699" lon="18.759224">
<ele>269</ele>
</trkpt>
<trkpt lat="47.791798" lon="18.76034">
<ele>273.32</ele>
</trkpt>
<trkpt lat="47.79174" lon="18.760517">
<ele>277.48</ele>
</trkpt>
<trkpt lat="47.791304" lon="18.761452">
<ele>283.8</ele>
</trkpt>
<trkpt lat="47.791276" lon="18.761696">
<ele>287.48</ele>
</trkpt>
<trkpt lat="47.791069" lon="18.762184">
<ele>292.76</ele>
</trkpt>
<trkpt lat="47.790981" lon="18.76235">
<ele>295.8</ele>
</trkpt>
<trkpt lat="47.79042" lon="18.76311">
<ele>300.4</ele>
</trkpt>
<trkpt lat="47.79029" lon="18.763286">
<ele>302.8</ele>
</trkpt>
<trkpt lat="47.790211" lon="18.763377">
<ele>304.2</ele>
</trkpt>
<trkpt lat="47.78959" lon="18.764865">
<ele>304.56</ele>
</trkpt>
<trkpt lat="47.789579" lon="18.764889">
<ele>303.92</ele>
</trkpt>
<trkpt lat="47.789533" lon="18.765145">
<ele>303.28</ele>
</trkpt>
<trkpt lat="47.789521" lon="18.765453">
<ele>302.96</ele>
</trkpt>
<trkpt lat="47.789415" lon="18.765541">
<ele>302.64</ele>
</trkpt>
<trkpt lat="47.789317" lon="18.765866">
<ele>304.48</ele>
</trkpt>
<trkpt lat="47.789188" lon="18.766107">
<ele>305.92</ele>
</trkpt>
<trkpt lat="47.78903" lon="18.766764">
<ele>309.24</ele>
</trkpt>
<trkpt lat="47.789028" lon="18.766878">
<ele>310.84</ele>
</trkpt>
<trkpt lat="47.789099" lon="18.768206">
<ele>313.04</ele>
</trkpt>
<trkpt lat="47.789094" lon="18.768297">
<ele>313.52</ele>
</trkpt>
<trkpt lat="47.78916" lon="18.768784">
<ele>314.0</ele>
</trkpt>
<trkpt lat="47.789253" lon="18.768884">
<ele>314.96</ele>
</trkpt>
<trkpt lat="47.789384" lon="18.769104">
<ele>315.92</ele>
</trkpt>
<trkpt lat="47.789382" lon="18.769436">
<ele>319.36</ele>
</trkpt>
<trkpt lat="47.789206" lon="18.769819">
<ele>321.6</ele>
</trkpt>
<trkpt lat="47.789024" lon="18.770212">
<ele>328.96</ele>
</trkpt>
<trkpt lat="47.788329" lon="18.770729">
<ele>333.76</ele>
</trkpt>
<trkpt lat="47.788105" lon="18.771087">
<ele>342.96</ele>
</trkpt>
<trkpt lat="47.787562" lon="18.771537">
<ele>346.32</ele>
</trkpt>
<trkpt lat="47.787518" lon="18.771572">
<ele>349.68</ele>
</trkpt>
<trkpt lat="47.787422" lon="18.771588">
<ele>349.32</ele>
</trkpt>
<trkpt lat="47.787233" lon="18.771604">
<ele>353.0</ele>
</trkpt>
<trkpt lat="47.787022" lon="18.771616">
<ele>360.52</ele>
</trkpt>
<trkpt lat="47.787061" lon="18.771734">
<ele>373</ele>
</trkpt></trkseg>
<trkseg>
<trkpt lat="47.787061" lon="18.771734">
<ele>373</ele>
</trkpt>
<trkpt lat="47.787022" lon="18.771616">
<ele>364.36</ele>
</trkpt>
<trkpt lat="47.786809" lon="18.77163">
<ele>360.04</ele>
</trkpt>
<trkpt lat="47.786682" lon="18.771691">
<ele>364.36</ele>
</trkpt>
<trkpt lat="47.786605" lon="18.771888">
<ele>367.12</ele>
</trkpt>
<trkpt lat="47.786547" lon="18.772024">
<ele>370.48</ele>
</trkpt>
<trkpt lat="47.786453" lon="18.772252">
<ele>370.0</ele>
</trkpt>
<trkpt lat="47.786403" lon="18.772264">
<ele>371.92</ele>
</trkpt>
<trkpt lat="47.786223" lon="18.772438">
<ele>373.84</ele>
</trkpt>
<trkpt lat="47.785988" lon="18.772746">
<ele>377.84</ele>
</trkpt>
<trkpt lat="47.785943" lon="18.772993">
<ele>379.44</ele>
</trkpt>
<trkpt lat="47.785735" lon="18.773367">
<ele>381.12</ele>
</trkpt>
<trkpt lat="47.785163" lon="18.773836">
<ele>381.28</ele>
</trkpt>
<trkpt lat="47.784732" lon="18.774349">
<ele>382.04</ele>
</trkpt>
<trkpt lat="47.784664" lon="18.774433">
<ele>382.84</ele>
</trkpt>
<trkpt lat="47.78417" lon="18.774825">
<ele>383.8</ele>
</trkpt>
<trkpt lat="47.784005" lon="18.775657">
<ele>384.2</ele>
</trkpt>
<trkpt lat="47.783878" lon="18.775951">
<ele>384.4</ele>
</trkpt>
<trkpt lat="47.783684" lon="18.776775">
<ele>383.48</ele>
</trkpt>
<trkpt lat="47.783662" lon="18.777341">
<ele>382.84</ele>
</trkpt>
<trkpt lat="47.783583" lon="18.777641">
<ele>380.68</ele>
</trkpt>
<trkpt lat="47.783584" lon="18.77789">
<ele>380.52</ele>
</trkpt>
<trkpt lat="47.783334" lon="18.778619">
<ele>379.16</ele>
</trkpt>
<trkpt lat="47.782979" lon="18.779358">
<ele>380.72</ele>
</trkpt>
<trkpt lat="47.78296" lon="18.779524">
<ele>378.16</ele>
</trkpt>
<trkpt lat="47.783033" lon="18.779805">
<ele>376.56</ele>
</trkpt>
<trkpt lat="47.782736" lon="18.781808">
<ele>370.44</ele>
</trkpt>
<trkpt lat="47.782648" lon="18.781972">
<ele>367.72</ele>
</trkpt>
<trkpt lat="47.782547" lon="18.782025">
<ele>365.0</ele>
</trkpt>
<trkpt lat="47.78252" lon="18.782094">
<ele>365</ele>
</trkpt></trkseg>
<trkseg>
<trkpt lat="47.78252" lon="18.782094">
<ele>365</ele>
</trkpt>
<trkpt lat="47.782447" lon="18.78228">
<ele>359.68</ele>
</trkpt>
<trkpt lat="47.782407" lon="18.782543">
<ele>356.88</ele>
</trkpt>
<trkpt lat="47.78245" lon="18.782639">
<ele>353.52</ele>
</trkpt>
<trkpt lat="47.783065" lon="18.78283">
<ele>353.72</ele>
</trkpt>
<trkpt lat="47.783748" lon="18.782219">
<ele>346.56</ele>
</trkpt>
<trkpt lat="47.784038" lon="18.781265">
<ele>342.52</ele>
</trkpt>
<trkpt lat="47.784357" lon="18.780729">
<ele>331.68</ele>
</trkpt>
<trkpt lat="47.784388" lon="18.780889">
<ele>325.28</ele>
</trkpt>
<trkpt lat="47.784429" lon="18.781364">
<ele>319.36</ele>
</trkpt>
<trkpt lat="47.784397" lon="18.781688">
<ele>313.04</ele>
</trkpt>
<trkpt lat="47.784475" lon="18.782084">
<ele>307.28</ele>
</trkpt>
<trkpt lat="47.784527" lon="18.783497">
<ele>299.2</ele>
</trkpt>
<trkpt lat="47.784616" lon="18.784287">
<ele>293.28</ele>
</trkpt>
<trkpt lat="47.784056" lon="18.785032">
<ele>291.36</ele>
</trkpt>
<trkpt lat="47.783671" lon="18.785171">
<ele>292</ele>
</trkpt></trkseg>
<trkseg>
<trkpt lat="47.783671" lon="18.785171">
<ele>292</ele>
</trkpt>
<trkpt lat="47.783593" lon="18.7852">
<ele>292.32</ele>
</trkpt>
<trkpt lat="47.783264" lon="18.785094">
<ele>294.6</ele>
</trkpt>
<trkpt lat="47.783039" lon="18.785111">
<ele>296.68</ele>
</trkpt>
<trkpt lat="47.782361" lon="18.784885">
<ele>301.16</ele>
</trkpt>
<trkpt lat="47.782205" lon="18.784728">
<ele>301.0</ele>
</trkpt>
<trkpt lat="47.781668" lon="18.784539">
<ele>299.24</ele>
</trkpt>
<trkpt lat="47.780971" lon="18.784811">
<ele>291.36</ele>
</trkpt>
<trkpt lat="47.780647" lon="18.784951">
<ele>284.08</ele>
</trkpt>
<trkpt lat="47.780483" lon="18.785227">
<ele>275.52</ele>
</trkpt>
<trkpt lat="47.780512" lon="18.785671">
<ele>271.04</ele>
</trkpt>
<trkpt lat="47.780448" lon="18.785882">
<ele>266.56</ele>
</trkpt>
<trkpt lat="47.780305" lon="18.786119">
<ele>265.28</ele>
</trkpt>
<trkpt lat="47.780075" lon="18.786312">
<ele>261.44</ele>
</trkpt>
<trkpt lat="47.780037" lon="18.786423">
<ele>256.96</ele>
</trkpt>
<trkpt lat="47.780173" lon="18.786933">
<ele>249.28</ele>
</trkpt>
<trkpt lat="47.780747" lon="18.787715">
<ele>242.4</ele>
</trkpt>
<trkpt lat="47.780766" lon="18.787957">
<ele>237.92</ele>
</trkpt>
<trkpt lat="47.780651" lon="18.788141">
<ele>236</ele>
</trkpt></trkseg>
<trkseg>
<trkpt lat="47.780651" lon="18.788141">
<ele>236</ele>
</trkpt>
<trkpt lat="47.780587" lon="18.788244">
<ele>235.04</ele>
</trkpt>
<trkpt lat="47.780338" lon="18.788418">
<ele>231.24</ele>
</trkpt>
<trkpt lat="47.78002" lon="18.788828">
<ele>228.68</ele>
</trkpt>
<trkpt lat="47.779582" lon="18.789733">
<ele>222.88</ele>
</trkpt>
<trkpt lat="47.779237" lon="18.790148">
<ele>220.96</ele>
</trkpt>
<trkpt lat="47.779281" lon="18.790849">
<ele>216.68</ele>
</trkpt>
<trkpt lat="47.779316" lon="18.791723">
<ele>213.92</ele>
</trkpt>
<trkpt lat="47.779568" lon="18.792558">
<ele>210.44</ele>
</trkpt>
<trkpt lat="47.779779" lon="18.792927">
<ele>209.64</ele>
</trkpt>
<trkpt lat="47.780054" lon="18.79312">
<ele>211.04</ele>
</trkpt>
<trkpt lat="47.78106" lon="18.793041">
<ele>213.28</ele>
</trkpt>
<trkpt lat="47.781271" lon="18.793091">
<ele>213.92</ele>
</trkpt>
<trkpt lat="47.782156" lon="18.792848">
<ele>213.04</ele>
</trkpt>
<trkpt lat="47.782696" lon="18.792669">
<ele>210.92</ele>
</trkpt>
<trkpt lat="47.783028" lon="18.792717">
<ele>209.48</ele>
</trkpt>
<trkpt lat="47.783319" lon="18.792612">
<ele>208.36</ele>
</trkpt>
<trkpt lat="47.783574" lon="18.792413">
<ele>207.64</ele>
</trkpt>
<trkpt lat="47.783618" lon="18.792346">
<ele>207</ele>
</trkpt></trkseg>
<trkseg>
<trkpt lat="47.783618" lon="18.792346">
<ele>207</ele>
</trkpt>
<trkpt lat="47.784034" lon="18.791717">
<ele>204.76</ele>
</trkpt>
<trkpt lat="47.784534" lon="18.791467">
<ele>200.32</ele>
</trkpt>
<trkpt lat="47.784749" lon="18.791503">
<ele>196.48</ele>
</trkpt>
<trkpt lat="47.785165" lon="18.79118">
<ele>190.08</ele>
</trkpt>
<trkpt lat="47.785204" lon="18.791712">
<ele>184.28</ele>
</trkpt>
<trkpt lat="47.785064" lon="18.792989">
<ele>178.32</ele>
</trkpt>
<trkpt lat="47.78508" lon="18.793986">
<ele>172.24</ele>
</trkpt>
<trkpt lat="47.78515" lon="18.794737">
<ele>167.84</ele>
</trkpt>
<trkpt lat="47.785969" lon="18.79478">
<ele>164.84</ele>
</trkpt>
<trkpt lat="47.788097" lon="18.794871">
<ele>162.36</ele>
</trkpt>
<trkpt lat="47.78862" lon="18.795415">
<ele>160.08</ele>
</trkpt>
<trkpt lat="47.788633" lon="18.795916">
<ele>157.32</ele>
</trkpt>
<trkpt lat="47.788488" lon="18.796722">
<ele>154.68</ele>
</trkpt>
<trkpt lat="47.788257" lon="18.797533">
<ele>153.36</ele>
</trkpt>
<trkpt lat="47.788273" lon="18.797663">
<ele>152.24</ele>
</trkpt>
<trkpt lat="47.788529" lon="18.797876">
<ele>151.28</ele>
</trkpt>
<trkpt lat="47.789089" lon="18.798196">
<ele>150.16</ele>
</trkpt>
<trkpt lat="47.789998" lon="18.798532">
<ele>148.4</ele>
</trkpt>
<trkpt lat="47.790655" lon="18.799043">
<ele>146.36</ele>
</trkpt>
<trkpt lat="47.792044" lon="18.799803">
<ele>144.44</ele>
</trkpt>
<trkpt lat="47.792924" lon="18.799986">
<ele>142.76</ele>
</trkpt>
<trkpt lat="47.793682" lon="18.800564">
<ele>142.36</ele>
</trkpt>
<trkpt lat="47.793725" lon="18.800868">
<ele>142.8</ele>
</trkpt>
<trkpt lat="47.793584" lon="18.801133">
<ele>143.6</ele>
</trkpt>
<trkpt lat="47.79268" lon="18.802322">
<ele>145.72</ele>
</trkpt>
<trkpt lat="47.792598" lon="18.802518">
<ele>146.96</ele>
</trkpt>
<trkpt lat="47.794024" lon="18.804679">
<ele>149.2</ele>
</trkpt>
<trkpt lat="47.794484" lon="18.805525">
<ele>149.4</ele>
</trkpt>
<trkpt lat="47.794494" lon="18.805696">
<ele>149.56</ele>
</trkpt>
<trkpt lat="47.794336" lon="18.80597">
<ele>147.96</ele>
</trkpt>
<trkpt lat="47.794367" lon="18.806155">
<ele>145.72</ele>
</trkpt>
<trkpt lat="47.794772" lon="18.806765">
<ele>143.08</ele>
</trkpt>
<trkpt lat="47.795064" lon="18.806919">
<ele>139.88</ele>
</trkpt>
<trkpt lat="47.795267" lon="18.80687">
<ele>137</ele>
</trkpt></trkseg>
<trkseg>
<trkpt lat="47.795267" lon="18.80687">
<ele>137</ele>
</trkpt>
<trkpt lat="47.795511" lon="18.807385">
<ele>137.32</ele>
</trkpt>
<trkpt lat="47.795393" lon="18.808172">
<ele>137.96</ele>
</trkpt>
<trkpt lat="47.794965" lon="18.809988">
<ele>139.8</ele>
</trkpt>
<trkpt lat="47.794739" lon="18.810766">
<ele>143.24</ele>
</trkpt>
<trkpt lat="47.794565" lon="18.81121">
<ele>149.52</ele>
</trkpt>
<trkpt lat="47.794448" lon="18.812033">
<ele>159.52</ele>
</trkpt>
<trkpt lat="47.794396" lon="18.812611">
<ele>170.0</ele>
</trkpt>
<trkpt lat="47.793987" lon="18.813716">
<ele>181.0</ele>
</trkpt>
<trkpt lat="47.794011" lon="18.813946">
<ele>186.6</ele>
</trkpt>
<trkpt lat="47.79418" lon="18.814225">
<ele>190.36</ele>
</trkpt>
<trkpt lat="47.794251" lon="18.814436">
<ele>190.68</ele>
</trkpt>
<trkpt lat="47.794258" lon="18.814736">
<ele>192.76</ele>
</trkpt>
<trkpt lat="47.794224" lon="18.814857">
<ele>195.8</ele>
</trkpt>
<trkpt lat="47.79469" lon="18.815066">
<ele>203.6</ele>
</trkpt>
<trkpt lat="47.79503" lon="18.815636">
<ele>212.4</ele>
</trkpt>
<trkpt lat="47.795108" lon="18.816654">
<ele>222.8</ele>
</trkpt>
<trkpt lat="47.795084" lon="18.81713">
<ele>231.36</ele>
</trkpt>
<trkpt lat="47.795115" lon="18.817477">
<ele>236.64</ele>
</trkpt>
<trkpt lat="47.795045" lon="18.818092">
<ele>241.72</ele>
</trkpt>
<trkpt lat="47.795101" lon="18.818224">
<ele>243.8</ele>
</trkpt>
<trkpt lat="47.795266" lon="18.818547">
<ele>247.88</ele>
</trkpt>
<trkpt lat="47.795256" lon="18.818916">
<ele>252.68</ele>
</trkpt>
<trkpt lat="47.795112" lon="18.819632">
<ele>259.76</ele>
</trkpt>
<trkpt lat="47.794852" lon="18.820264">
<ele>273.16</ele>
</trkpt>
<trkpt lat="47.794667" lon="18.821136">
<ele>285.16</ele>
</trkpt>
<trkpt lat="47.794194" lon="18.822548">
<ele>301.32</ele>
</trkpt>
<trkpt lat="47.794102" lon="18.822928">
<ele>310.16</ele>
</trkpt>
<trkpt lat="47.794115" lon="18.823509">
<ele>320.48</ele>
</trkpt>
<trkpt lat="47.794185" lon="18.823958">
<ele>324.88</ele>
</trkpt>
<trkpt lat="47.794454" lon="18.825268">
<ele>333.52</ele>
</trkpt>
<trkpt lat="47.79484" lon="18.826942">
<ele>335.92</ele>
</trkpt>
<trkpt lat="47.795109" lon="18.827397">
<ele>340.8</ele>
</trkpt>
<trkpt lat="47.795505" lon="18.827964">
<ele>339.2</ele>
</trkpt>
<trkpt lat="47.795778" lon="18.829791">
<ele>339.32</ele>
</trkpt>
<trkpt lat="47.795749" lon="18.830479">
<ele>338</ele>
</trkpt></trkseg>
<trkseg>
<trkpt lat="47.795749" lon="18.830479">
<ele>338</ele>
</trkpt>
<trkpt lat="47.795745" lon="18.830587">
<ele>338.8</ele>
</trkpt>
<trkpt lat="47.79557" lon="18.831392">
<ele>338.6</ele>
</trkpt>
<trkpt lat="47.795202" lon="18.832226">
<ele>336.0</ele>
</trkpt>
<trkpt lat="47.794986" lon="18.832882">
<ele>330.92</ele>
</trkpt>
<trkpt lat="47.794101" lon="18.836262">
<ele>323.64</ele>
</trkpt>
<trkpt lat="47.794165" lon="18.837097">
<ele>316.92</ele>
</trkpt>
<trkpt lat="47.79402" lon="18.837685">
<ele>311.52</ele>
</trkpt>
<trkpt lat="47.793853" lon="18.838115">
<ele>308.16</ele>
</trkpt>
<trkpt lat="47.793829" lon="18.838316">
<ele>305.12</ele>
</trkpt>
<trkpt lat="47.793911" lon="18.838471">
<ele>301.52</ele>
</trkpt>
<trkpt lat="47.79454" lon="18.838677">
<ele>297.92</ele>
</trkpt>
<trkpt lat="47.794743" lon="18.839375">
<ele>295.24</ele>
</trkpt>
<trkpt lat="47.794745" lon="18.83978">
<ele>293.96</ele>
</trkpt>
<trkpt lat="47.794631" lon="18.840187">
<ele>294.04</ele>
</trkpt>
<trkpt lat="47.794729" lon="18.841204">
<ele>292.88</ele>
</trkpt>
<trkpt lat="47.794808" lon="18.841488">
<ele>290.8</ele>
</trkpt>
<trkpt lat="47.794846" lon="18.841968">
<ele>285.88</ele>
</trkpt>
<trkpt lat="47.794661" lon="18.842859">
<ele>281.12</ele>
</trkpt>
<trkpt lat="47.794509" lon="18.843413">
<ele>276.36</ele>
</trkpt>
<trkpt lat="47.794495" lon="18.84361">
<ele>271.56</ele>
</trkpt>
<trkpt lat="47.794567" lon="18.843998">
<ele>267.88</ele>
</trkpt>
<trkpt lat="47.794419" lon="18.845288">
<ele>260.52</ele>
</trkpt>
<trkpt lat="47.794435" lon="18.845552">
<ele>256.36</ele>
</trkpt>
<trkpt lat="47.794637" lon="18.846145">
<ele>247.96</ele>
</trkpt>
<trkpt lat="47.794793" lon="18.846336">
<ele>244.12</ele>
</trkpt>
<trkpt lat="47.795068" lon="18.846472">
<ele>235.4</ele>
</trkpt>
<trkpt lat="47.795349" lon="18.846516">
<ele>229.48</ele>
</trkpt>
<trkpt lat="47.795675" lon="18.846778">
<ele>220.96</ele>
</trkpt>
<trkpt lat="47.796009" lon="18.846721">
<ele>215.28</ele>
</trkpt>
<trkpt lat="47.796069" lon="18.846759">
<ele>211.6</ele>
</trkpt>
<trkpt lat="47.796251" lon="18.846955">
<ele>206.0</ele>
</trkpt>
<trkpt lat="47.79637" lon="18.847384">
<ele>200.08</ele>
</trkpt>
<trkpt lat="47.796426" lon="18.848903">
<ele>187.4</ele>
</trkpt>
<trkpt lat="47.796287" lon="18.849614">
<ele>177.16</ele>
</trkpt>
<trkpt lat="47.796211" lon="18.85087">
<ele>164.88</ele>
</trkpt>
<trkpt lat="47.795843" lon="18.852145">
<ele>158.6</ele>
</trkpt>
<trkpt lat="47.795582" lon="18.853626">
<ele>150.84</ele>
</trkpt>
<trkpt lat="47.795482" lon="18.853819">
<ele>147.48</ele>
</trkpt>
<trkpt lat="47.795359" lon="18.855498">
<ele>143.12</ele>
</trkpt>
<trkpt lat="47.795389" lon="18.856092">
<ele>140.2</ele>
</trkpt>
<trkpt lat="47.795223" lon="18.856895">
<ele>136.8</ele>
</trkpt>
<trkpt lat="47.794948" lon="18.857447">
<ele>131.92</ele>
</trkpt>
<trkpt lat="47.794887" lon="18.858025">
<ele>129.72</ele>
</trkpt>
<trkpt lat="47.794894" lon="18.859494">
<ele>127.04</ele>
</trkpt>
<trkpt lat="47.795108" lon="18.860386">
<ele>126.04</ele>
</trkpt>
<trkpt lat="47.79512" lon="18.861013">
<ele>123.32</ele>
</trkpt>
<trkpt lat="47.794831" lon="18.863363">
<ele>119.48</ele>
</trkpt>
<trkpt lat="47.79469" lon="18.863644">
<ele>116.92</ele>
</trkpt>
<trkpt lat="47.794385" lon="18.863788">
<ele>114.68</ele>
</trkpt>
<trkpt lat="47.794486" lon="18.864159">
<ele>114.36</ele>
</trkpt>
<trkpt lat="47.794683" lon="18.86442">
<ele>113.64</ele>
</trkpt>
<trkpt lat="47.794713" lon="18.864577">
<ele>113</ele>
</trkpt></trkseg>
<trkseg>
<trkpt lat="47.794713" lon="18.864577">
<ele>113</ele>
</trkpt>
<trkpt lat="47.793879" lon="18.86498">
<ele>114.08</ele>
</trkpt>
<trkpt lat="47.793814" lon="18.865016">
<ele>115.72</ele>
</trkpt>
<trkpt lat="47.792643" lon="18.865683">
<ele>117.12</ele>
</trkpt>
<trkpt lat="47.791537" lon="18.866422">
<ele>119.84</ele>
</trkpt>
<trkpt lat="47.791041" lon="18.866772">
<ele>120.24</ele>
</trkpt>
<trkpt lat="47.790773" lon="18.86692">
<ele>122.84</ele>
</trkpt>
<trkpt lat="47.790169" lon="18.86708">
<ele>122.68</ele>
</trkpt>
<trkpt lat="47.789564" lon="18.867249">
<ele>124.4</ele>
</trkpt>
<trkpt lat="47.789188" lon="18.867514">
<ele>124.12</ele>
</trkpt>
<trkpt lat="47.787932" lon="18.86935">
<ele>124.36</ele>
</trkpt>
<trkpt lat="47.787647" lon="18.869664">
<ele>123.56</ele>
</trkpt>
<trkpt lat="47.786828" lon="18.87108">
<ele>122.64</ele>
</trkpt>
<trkpt lat="47.786029" lon="18.872638">
<ele>122.92</ele>
</trkpt>
<trkpt lat="47.785884" lon="18.87292">
<ele>122.76</ele>
</trkpt>
<trkpt lat="47.785724" lon="18.873233">
<ele>124.48</ele>
</trkpt>
<trkpt lat="47.784995" lon="18.874423">
<ele>124.16</ele>
</trkpt>
<trkpt lat="47.784943" lon="18.874483">
<ele>124.64</ele>
</trkpt>
<trkpt lat="47.784924" lon="18.874505">
<ele>124.0</ele>
</trkpt>
<trkpt lat="47.784833" lon="18.874607">
<ele>124.0</ele>
</trkpt>
<trkpt lat="47.78471" lon="18.874781">
<ele>123.68</ele>
</trkpt>
<trkpt lat="47.784622" lon="18.874945">
<ele>123.36</ele>
</trkpt>
<trkpt lat="47.78451" lon="18.875237">
<ele>122.8</ele>
</trkpt>
<trkpt lat="47.784322" lon="18.875749">
<ele>122.8</ele>
</trkpt>
<trkpt lat="47.784237" lon="18.875984">
<ele>123</ele>
</trkpt></trkseg>
<trkseg>
<trkpt lat="47.784237" lon="18.875984">
<ele>123</ele>
</trkpt>
<trkpt lat="47.784207" lon="18.876067">
<ele>123.48</ele>
</trkpt>
<trkpt lat="47.784181" lon="18.876048">
<ele>123.8</ele>
</trkpt>
<trkpt lat="47.784085" lon="18.875948">
<ele>124.72</ele>
</trkpt>
<trkpt lat="47.783778" lon="18.875257">
<ele>124.68</ele>
</trkpt>
<trkpt lat="47.783711" lon="18.875044">
<ele>125.0</ele>
</trkpt>
<trkpt lat="47.783508" lon="18.87473">
<ele>124.96</ele>
</trkpt>
<trkpt lat="47.783266" lon="18.874191">
<ele>125.48</ele>
</trkpt>
<trkpt lat="47.783187" lon="18.874123">
<ele>126.2</ele>
</trkpt>
<trkpt lat="47.783131" lon="18.874074">
<ele>127.32</ele>
</trkpt>
<trkpt lat="47.783087" lon="18.874037">
<ele>128.44</ele>
</trkpt>
<trkpt lat="47.780416" lon="18.872614">
<ele>130.84</ele>
</trkpt>
<trkpt lat="47.780425" lon="18.871056">
<ele>132.8</ele>
</trkpt>
<trkpt lat="47.780401" lon="18.868443">
<ele>136.36</ele>
</trkpt>
<trkpt lat="47.780392" lon="18.867682">
<ele>140.24</ele>
</trkpt>
<trkpt lat="47.780268" lon="18.864185">
<ele>146.84</ele>
</trkpt>
<trkpt lat="47.780095" lon="18.862805">
<ele>153.84</ele>
</trkpt>
<trkpt lat="47.779942" lon="18.85995">
<ele>164.92</ele>
</trkpt>
<trkpt lat="47.779816" lon="18.859245">
<ele>170.2</ele>
</trkpt>
<trkpt lat="47.779185" lon="18.858079">
<ele>179.96</ele>
</trkpt>
<trkpt lat="47.77859" lon="18.856711">
<ele>179.84</ele>
</trkpt>
<trkpt lat="47.778596" lon="18.8564">
<ele>184.52</ele>
</trkpt>
<trkpt lat="47.778707" lon="18.856206">
<ele>181.64</ele>
</trkpt>
<trkpt lat="47.778773" lon="18.855952">
<ele>185.8</ele>
</trkpt>
<trkpt lat="47.778281" lon="18.854361">
<ele>182.92</ele>
</trkpt>
<trkpt lat="47.777598" lon="18.852897">
<ele>190.8</ele>
</trkpt>
<trkpt lat="47.777421" lon="18.852159">
<ele>187.92</ele>
</trkpt>
<trkpt lat="47.77701" lon="18.851016">
<ele>194.16</ele>
</trkpt>
<trkpt lat="47.775667" lon="18.848587">
<ele>194.08</ele>
</trkpt>
<trkpt lat="47.77553" lon="18.848371">
<ele>195.84</ele>
</trkpt>
<trkpt lat="47.775139" lon="18.848017">
<ele>198.44</ele>
</trkpt>
<trkpt lat="47.774064" lon="18.84731">
<ele>194.92</ele>
</trkpt>
<trkpt lat="47.773355" lon="18.846865">
<ele>197.48</ele>
</trkpt>
<trkpt lat="47.772329" lon="18.846182">
<ele>199.6</ele>
</trkpt>
<trkpt lat="47.771018" lon="18.845281">
<ele>208</ele>
</trkpt></trkseg>
<trkseg>
<trkpt lat="47.771018" lon="18.845281">
<ele>208</ele>
</trkpt>
<trkpt lat="47.770437" lon="18.844881">
<ele>211.64</ele>
</trkpt>
<trkpt lat="47.769955" lon="18.844398">
<ele>211.6</ele>
</trkpt>
<trkpt lat="47.769738" lon="18.843609">
<ele>216.6</ele>
</trkpt>
<trkpt lat="47.769063" lon="18.842547">
<ele>216.04</ele>
</trkpt>
<trkpt lat="47.768793" lon="18.841973">
<ele>220.76</ele>
</trkpt>
<trkpt lat="47.768461" lon="18.841673">
<ele>220.92</ele>
</trkpt>
<trkpt lat="47.767888" lon="18.84074">
<ele>223.8</ele>
</trkpt>
<trkpt lat="47.766268" lon="18.838429">
<ele>223.04</ele>
</trkpt>
<trkpt lat="47.766053" lon="18.838126">
<ele>224.12</ele>
</trkpt>
<trkpt lat="47.765812" lon="18.838204">
<ele>221.2</ele>
</trkpt>
<trkpt lat="47.76555" lon="18.838409">
<ele>219.84</ele>
</trkpt>
<trkpt lat="47.765025" lon="18.838475">
<ele>218.4</ele>
</trkpt>
<trkpt lat="47.764288" lon="18.838707">
<ele>219.0</ele>
</trkpt>
<trkpt lat="47.764008" lon="18.838692">
<ele>221.52</ele>
</trkpt>
<trkpt lat="47.763865" lon="18.838985">
<ele>223.44</ele>
</trkpt>
<trkpt lat="47.763015" lon="18.839532">
<ele>227.36</ele>
</trkpt>
<trkpt lat="47.76294" lon="18.839919">
<ele>228.96</ele>
</trkpt>
<trkpt lat="47.762847" lon="18.840229">
<ele>232.32</ele>
</trkpt>
<trkpt lat="47.761919" lon="18.84079">
<ele>234.24</ele>
</trkpt>
<trkpt lat="47.761435" lon="18.840752">
<ele>238.12</ele>
</trkpt>
<trkpt lat="47.761044" lon="18.840886">
<ele>242.92</ele>
</trkpt>
<trkpt lat="47.760453" lon="18.840885">
<ele>247.16</ele>
</trkpt>
<trkpt lat="47.760233" lon="18.840941">
<ele>249.88</ele>
</trkpt>
<trkpt lat="47.760001" lon="18.840847">
<ele>252.44</ele>
</trkpt>
<trkpt lat="47.759416" lon="18.840762">
<ele>253.84</ele>
</trkpt>
<trkpt lat="47.75902" lon="18.840647">
<ele>258.28</ele>
</trkpt>
<trkpt lat="47.758921" lon="18.840723">
<ele>260.52</ele>
</trkpt>
<trkpt lat="47.758133" lon="18.840654">
<ele>265.16</ele>
</trkpt>
<trkpt lat="47.758007" lon="18.840553">
<ele>267.24</ele>
</trkpt>
<trkpt lat="47.757069" lon="18.840635">
<ele>272.88</ele>
</trkpt>
<trkpt lat="47.756877" lon="18.840602">
<ele>276.08</ele>
</trkpt>
<trkpt lat="47.756391" lon="18.840381">
<ele>280.68</ele>
</trkpt>
<trkpt lat="47.75626" lon="18.84025">
<ele>283.56</ele>
</trkpt>
<trkpt lat="47.755913" lon="18.83964">
<ele>285.44</ele>
</trkpt>
<trkpt lat="47.755773" lon="18.839475">
<ele>288.96</ele>
</trkpt>
<trkpt lat="47.755352" lon="18.839352">
<ele>292.32</ele>
</trkpt>
<trkpt lat="47.755052" lon="18.83931">
<ele>296.48</ele>
</trkpt>
<trkpt lat="47.754907" lon="18.839407">
<ele>304.08</ele>
</trkpt>
<trkpt lat="47.754801" lon="18.839841">
<ele>310.32</ele>
</trkpt>
<trkpt lat="47.754906" lon="18.840804">
<ele>320.88</ele>
</trkpt>
<trkpt lat="47.754794" lon="18.841199">
<ele>329.24</ele>
</trkpt>
<trkpt lat="47.754296" lon="18.84185">
<ele>337.2</ele>
</trkpt>
<trkpt lat="47.754219" lon="18.842548">
<ele>344.28</ele>
</trkpt>
<trkpt lat="47.754304" lon="18.843151">
<ele>349.4</ele>
</trkpt>
<trkpt lat="47.754243" lon="18.843485">
<ele>355.64</ele>
</trkpt>
<trkpt lat="47.75403" lon="18.843951">
<ele>362.2</ele>
</trkpt>
<trkpt lat="47.753947" lon="18.844594">
<ele>371.48</ele>
</trkpt>
<trkpt lat="47.752734" lon="18.844715">
<ele>380.88</ele>
</trkpt>
<trkpt lat="47.752478" lon="18.844447">
<ele>391.2</ele>
</trkpt>
<trkpt lat="47.752306" lon="18.844512">
<ele>399.36</ele>
</trkpt>
<trkpt lat="47.751931" lon="18.844209">
<ele>406.4</ele>
</trkpt>
<trkpt lat="47.751441" lon="18.844087">
<ele>413.52</ele>
</trkpt>
<trkpt lat="47.751396" lon="18.844201">
<ele>417.2</ele>
</trkpt>
<trkpt lat="47.75129" lon="18.844227">
<ele>420.08</ele>
</trkpt>
<trkpt lat="47.751063" lon="18.844068">
<ele>419.28</ele>
</trkpt>
<trkpt lat="47.75095" lon="18.844076">
<ele>418</ele>
</trkpt></trkseg>
<trkseg>
<trkpt lat="47.75095" lon="18.844076">
<ele>418</ele>
</trkpt>
<trkpt lat="47.750753" lon="18.844088">
<ele>432.76</ele>
</trkpt>
<trkpt lat="47.750101" lon="18.843999">
<ele>443.0</ele>
</trkpt>
<trkpt lat="47.749615" lon="18.843706">
<ele>449.36</ele>
</trkpt>
<trkpt lat="47.748629" lon="18.84353">
<ele>450.12</ele>
</trkpt>
<trkpt lat="47.748037" lon="18.843035">
<ele>447.68</ele>
</trkpt>
<trkpt lat="47.747766" lon="18.842892">
<ele>442.56</ele>
</trkpt>
<trkpt lat="47.74756" lon="18.842665">
<ele>438.08</ele>
</trkpt>
<trkpt lat="47.746664" lon="18.842133">
<ele>430.16</ele>
</trkpt>
<trkpt lat="47.74577" lon="18.841769">
<ele>428.04</ele>
</trkpt>
<trkpt lat="47.745393" lon="18.841328">
<ele>426.48</ele>
</trkpt>
<trkpt lat="47.74501" lon="18.841114">
<ele>431.44</ele>
</trkpt>
<trkpt lat="47.744793" lon="18.841156">
<ele>438.04</ele>
</trkpt>
<trkpt lat="47.7441" lon="18.841027">
<ele>445.8</ele>
</trkpt>
<trkpt lat="47.743485" lon="18.840828">
<ele>450.08</ele>
</trkpt>
<trkpt lat="47.742806" lon="18.840918">
<ele>455.6</ele>
</trkpt>
<trkpt lat="47.742671" lon="18.840819">
<ele>459.04</ele>
</trkpt>
<trkpt lat="47.74254" lon="18.840383">
<ele>463.52</ele>
</trkpt>
<trkpt lat="47.74234" lon="18.840098">
<ele>468.16</ele>
</trkpt>
<trkpt lat="47.742289" lon="18.840282">
<ele>472</ele>
</trkpt></trkseg>
<trkseg>
<trkpt lat="47.742289" lon="18.840282">
<ele>472</ele>
</trkpt>
<trkpt lat="47.742252" lon="18.840413">
<ele>464.96</ele>
</trkpt>
<trkpt lat="47.74166" lon="18.840932">
<ele>453.52</ele>
</trkpt>
<trkpt lat="47.741161" lon="18.841215">
<ele>446.48</ele>
</trkpt>
<trkpt lat="47.740369" lon="18.841791">
<ele>433.6</ele>
</trkpt>
<trkpt lat="47.740052" lon="18.842206">
<ele>428.64</ele>
</trkpt>
<trkpt lat="47.739687" lon="18.842589">
<ele>418.2</ele>
</trkpt>
<trkpt lat="47.739452" lon="18.842857">
<ele>413.08</ele>
</trkpt>
<trkpt lat="47.738921" lon="18.844219">
<ele>402.88</ele>
</trkpt>
<trkpt lat="47.738569" lon="18.84494">
<ele>398.72</ele>
</trkpt>
<trkpt lat="47.738551" lon="18.845053">
<ele>393.96</ele>
</trkpt>
<trkpt lat="47.738451" lon="18.845035">
<ele>393</ele>
</trkpt></trkseg>
<trkseg>
<trkpt lat="47.738451" lon="18.845035">
<ele>393</ele>
</trkpt>
<trkpt lat="47.737871" lon="18.844932">
<ele>383.04</ele>
</trkpt>
<trkpt lat="47.737647" lon="18.845025">
<ele>376.72</ele>
</trkpt>
<trkpt lat="47.737383" lon="18.844864">
<ele>366.52</ele>
</trkpt>
<trkpt lat="47.736779" lon="18.844903">
<ele>362.84</ele>
</trkpt>
<trkpt lat="47.736308" lon="18.844818">
<ele>355.88</ele>
</trkpt>
<trkpt lat="47.736055" lon="18.844637">
<ele>352.04</ele>
</trkpt>
<trkpt lat="47.735647" lon="18.843744">
<ele>347.8</ele>
</trkpt>
<trkpt lat="47.735384" lon="18.843309">
<ele>344.76</ele>
</trkpt>
<trkpt lat="47.735108" lon="18.843127">
<ele>344.12</ele>
</trkpt>
<trkpt lat="47.734915" lon="18.843095">
<ele>345.8</ele>
</trkpt>
<trkpt lat="47.734684" lon="18.843197">
<ele>347.4</ele>
</trkpt>
<trkpt lat="47.734531" lon="18.843279">
<ele>350.44</ele>
</trkpt>
<trkpt lat="47.734446" lon="18.843323">
<ele>351.88</ele>
</trkpt>
<trkpt lat="47.734138" lon="18.843622">
<ele>355.12</ele>
</trkpt>
<trkpt lat="47.733779" lon="18.843725">
<ele>354.0</ele>
</trkpt>
<trkpt lat="47.733603" lon="18.843678">
<ele>352.88</ele>
</trkpt>
<trkpt lat="47.73324" lon="18.843109">
<ele>344.72</ele>
</trkpt>
<trkpt lat="47.733075" lon="18.843021">
<ele>342.96</ele>
</trkpt>
<trkpt lat="47.73209" lon="18.843253">
<ele>332.92</ele>
</trkpt>
<trkpt lat="47.731679" lon="18.843518">
<ele>332.44</ele>
</trkpt>
<trkpt lat="47.731605" lon="18.843095">
<ele>321.36</ele>
</trkpt>
<trkpt lat="47.73142" lon="18.842978">
<ele>318.64</ele>
</trkpt>
<trkpt lat="47.730842" lon="18.842965">
<ele>312.72</ele>
</trkpt>
<trkpt lat="47.729766" lon="18.842489">
<ele>311.28</ele>
</trkpt>
<trkpt lat="47.729342" lon="18.842238">
<ele>310.64</ele>
</trkpt>
<trkpt lat="47.72931" lon="18.842165">
<ele>310</ele>
</trkpt></trkseg>
<trkseg>
<trkpt lat="47.72931" lon="18.842165">
<ele>310</ele>
</trkpt>
<trkpt lat="47.729252" lon="18.842031">
<ele>315.44</ele>
</trkpt>
<trkpt lat="47.728794" lon="18.842204">
<ele>321.2</ele>
</trkpt>
<trkpt lat="47.728288" lon="18.842376">
<ele>328.96</ele>
</trkpt>
<trkpt lat="47.727841" lon="18.842433">
<ele>333.12</ele>
</trkpt>
<trkpt lat="47.72693" lon="18.842188">
<ele>335.04</ele>
</trkpt>
<trkpt lat="47.726735" lon="18.842132">
<ele>334.08</ele>
</trkpt>
<trkpt lat="47.726453" lon="18.842145">
<ele>331.28</ele>
</trkpt>
<trkpt lat="47.726302" lon="18.842282">
<ele>329.68</ele>
</trkpt>
<trkpt lat="47.726108" lon="18.842631">
<ele>328.4</ele>
</trkpt>
<trkpt lat="47.725976" lon="18.842886">
<ele>328.88</ele>
</trkpt>
<trkpt lat="47.725616" lon="18.843535">
<ele>332.84</ele>
</trkpt>
<trkpt lat="47.725211" lon="18.843867">
<ele>335.56</ele>
</trkpt>
<trkpt lat="47.724953" lon="18.844037">
<ele>340.88</ele>
</trkpt>
<trkpt lat="47.724503" lon="18.844302">
<ele>344.12</ele>
</trkpt>
<trkpt lat="47.724174" lon="18.844833">
<ele>353.08</ele>
</trkpt>
<trkpt lat="47.723431" lon="18.845463">
<ele>362.76</ele>
</trkpt>
<trkpt lat="47.723165" lon="18.845504">
<ele>378.76</ele>
</trkpt>
<trkpt lat="47.722756" lon="18.845737">
<ele>388.36</ele>
</trkpt>
<trkpt lat="47.72246" lon="18.845987">
<ele>398.52</ele>
</trkpt>
<trkpt lat="47.722386" lon="18.846037">
<ele>400.44</ele>
</trkpt>
<trkpt lat="47.722213" lon="18.846147">
<ele>404.6</ele>
</trkpt>
<trkpt lat="47.72168" lon="18.84669">
<ele>406.12</ele>
</trkpt>
<trkpt lat="47.721328" lon="18.846699">
<ele>410.84</ele>
</trkpt>
<trkpt lat="47.721217" lon="18.846754">
<ele>412.76</ele>
</trkpt>
<trkpt lat="47.721137" lon="18.846912">
<ele>415</ele>
</trkpt></trkseg>
<trkseg>
<trkpt lat="47.721137" lon="18.846912">
<ele>415</ele>
</trkpt>
<trkpt lat="47.721149" lon="18.847017">
<ele>414.52</ele>
</trkpt>
<trkpt lat="47.721434" lon="18.847467">
<ele>414.04</ele>
</trkpt>
<trkpt lat="47.721455" lon="18.847735">
<ele>413.6</ele>
</trkpt>
<trkpt lat="47.721433" lon="18.847919">
<ele>416.16</ele>
</trkpt>
<trkpt lat="47.721566" lon="18.848865">
<ele>419.52</ele>
</trkpt>
<trkpt lat="47.720946" lon="18.849329">
<ele>428.28</ele>
</trkpt>
<trkpt lat="47.720891" lon="18.849482">
<ele>434.04</ele>
</trkpt>
<trkpt lat="47.720623" lon="18.849764">
<ele>442.56</ele>
</trkpt>
<trkpt lat="47.72061" lon="18.849894">
<ele>447.2</ele>
</trkpt>
<trkpt lat="47.720532" lon="18.849892">
<ele>451.84</ele>
</trkpt>
<trkpt lat="47.720202" lon="18.850164">
<ele>456.16</ele>
</trkpt>
<trkpt lat="47.72032" lon="18.850364">
<ele>458.08</ele>
</trkpt>
<trkpt lat="47.720248" lon="18.850298">
<ele>460.0</ele>
</trkpt>
<trkpt lat="47.720056" lon="18.850068">
<ele>460</ele>
</trkpt></trkseg>
<trkseg>
<trkpt lat="47.720056" lon="18.850068">
<ele>460</ele>
</trkpt>
<trkpt lat="47.719999" lon="18.85">
<ele>468.96</ele>
</trkpt>
<trkpt lat="47.719772" lon="18.849293">
<ele>479.36</ele>
</trkpt>
<trkpt lat="47.719433" lon="18.849081">
<ele>486.32</ele>
</trkpt>
<trkpt lat="47.718203" lon="18.848862">
<ele>501.56</ele>
</trkpt>
<trkpt lat="47.718027" lon="18.848925">
<ele>509.88</ele>
</trkpt>
<trkpt lat="47.716925" lon="18.848639">
<ele>524.48</ele>
</trkpt>
<trkpt lat="47.716669" lon="18.848722">
<ele>529.12</ele>
</trkpt>
<trkpt lat="47.716502" lon="18.848867">
<ele>536.16</ele>
</trkpt>
<trkpt lat="47.71627" lon="18.849053">
<ele>538.08</ele>
</trkpt>
<trkpt lat="47.716199" lon="18.849052">
<ele>541.6</ele>
</trkpt>
<trkpt lat="47.715856" lon="18.849047">
<ele>543.52</ele>
</trkpt>
<trkpt lat="47.715325" lon="18.848893">
<ele>547.76</ele>
</trkpt>
<trkpt lat="47.715238" lon="18.849182">
<ele>552</ele>
</trkpt></trkseg>
<trkseg>
<trkpt lat="47.715238" lon="18.849182">
<ele>552</ele>
</trkpt>
<trkpt lat="47.714857" lon="18.849299">
<ele>555.4</ele>
</trkpt>
<trkpt lat="47.714499" lon="18.849219">
<ele>554.6</ele>
</trkpt>
<trkpt lat="47.714422" lon="18.849077">
<ele>550.6</ele>
</trkpt>
<trkpt lat="47.712785" lon="18.84784">
<ele>544.88</ele>
</trkpt>
<trkpt lat="47.710981" lon="18.847101">
<ele>543.88</ele>
</trkpt>
<trkpt lat="47.710442" lon="18.847122">
<ele>545.76</ele>
</trkpt>
<trkpt lat="47.709738" lon="18.847572">
<ele>547.84</ele>
</trkpt>
<trkpt lat="47.70953" lon="18.847614">
<ele>547.68</ele>
</trkpt>
<trkpt lat="47.708859" lon="18.847237">
<ele>540.48</ele>
</trkpt>
<trkpt lat="47.708496" lon="18.847238">
<ele>535.36</ele>
</trkpt>
<trkpt lat="47.70715" lon="18.846511">
<ele>527.68</ele>
</trkpt>
<trkpt lat="47.707061" lon="18.846112">
<ele>526.88</ele>
</trkpt>
<trkpt lat="47.706657" lon="18.845456">
<ele>525.24</ele>
</trkpt>
<trkpt lat="47.705766" lon="18.844223">
<ele>527.32</ele>
</trkpt>
<trkpt lat="47.705514" lon="18.843963">
<ele>527.0</ele>
</trkpt>
<trkpt lat="47.705431" lon="18.843971">
<ele>527.64</ele>
</trkpt>
<trkpt lat="47.705352" lon="18.843993">
<ele>527</ele>
</trkpt></trkseg>
<trkseg>
<trkpt lat="47.705352" lon="18.843993">
<ele>527</ele>
</trkpt>
<trkpt lat="47.705254" lon="18.844021">
<ele>522.84</ele>
</trkpt>
<trkpt lat="47.704101" lon="18.844642">
<ele>511.76</ele>
</trkpt>
<trkpt lat="47.70383" lon="18.844584">
<ele>499.76</ele>
</trkpt>
<trkpt lat="47.703209" lon="18.844103">
<ele>479.76</ele>
</trkpt>
<trkpt lat="47.70246" lon="18.843659">
<ele>462.72</ele>
</trkpt>
<trkpt lat="47.702269" lon="18.843562">
<ele>450.08</ele>
</trkpt>
<trkpt lat="47.702056" lon="18.843215">
<ele>440.12</ele>
</trkpt>
<trkpt lat="47.701798" lon="18.843144">
<ele>437.08</ele>
</trkpt>
<trkpt lat="47.701604" lon="18.842986">
<ele>431.56</ele>
</trkpt>
<trkpt lat="47.70132" lon="18.842743">
<ele>430.92</ele>
</trkpt>
<trkpt lat="47.700901" lon="18.842229">
<ele>427.68</ele>
</trkpt>
<trkpt lat="47.700427" lon="18.841988">
<ele>429.4</ele>
</trkpt>
<trkpt lat="47.700089" lon="18.842071">
<ele>428.92</ele>
</trkpt>
<trkpt lat="47.6998" lon="18.841993">
<ele>430.32</ele>
</trkpt>
<trkpt lat="47.699459" lon="18.842175">
<ele>428.4</ele>
</trkpt>
<trkpt lat="47.699353" lon="18.84217">
<ele>424.72</ele>
</trkpt>
<trkpt lat="47.699017" lon="18.842083">
<ele>420.76</ele>
</trkpt>
<trkpt lat="47.698441" lon="18.841617">
<ele>418.56</ele>
</trkpt>
<trkpt lat="47.698528" lon="18.841855">
<ele>419</ele>
</trkpt></trkseg>
<trkseg>
<trkpt lat="47.698528" lon="18.841855">
<ele>419</ele>
</trkpt>
<trkpt lat="47.698441" lon="18.841617">
<ele>410.88</ele>
</trkpt>
<trkpt lat="47.697872" lon="18.840911">
<ele>405.64</ele>
</trkpt>
<trkpt lat="47.697636" lon="18.840719">
<ele>400.96</ele>
</trkpt>
<trkpt lat="47.697148" lon="18.84074">
<ele>400.68</ele>
</trkpt>
<trkpt lat="47.697079" lon="18.840688">
<ele>399.88</ele>
</trkpt>
<trkpt lat="47.696413" lon="18.840434">
<ele>400.32</ele>
</trkpt>
<trkpt lat="47.696306" lon="18.840471">
<ele>398.72</ele>
</trkpt>
<trkpt lat="47.695939" lon="18.84056">
<ele>397.12</ele>
</trkpt>
<trkpt lat="47.695387" lon="18.840345">
<ele>389.72</ele>
</trkpt>
<trkpt lat="47.695044" lon="18.840018">
<ele>381.88</ele>
</trkpt>
<trkpt lat="47.693567" lon="18.838986">
<ele>368.84</ele>
</trkpt>
<trkpt lat="47.693273" lon="18.838773">
<ele>358.68</ele>
</trkpt>
<trkpt lat="47.692906" lon="18.838441">
<ele>350.36</ele>
</trkpt>
<trkpt lat="47.692657" lon="18.838268">
<ele>345</ele>
</trkpt></trkseg>
<trkseg>
<trkpt lat="47.692657" lon="18.838268">
<ele>345</ele>
</trkpt>
<trkpt lat="47.692367" lon="18.838066">
<ele>338.12</ele>
</trkpt>
<trkpt lat="47.691819" lon="18.837819">
<ele>330.92</ele>
</trkpt>
<trkpt lat="47.69132" lon="18.837412">
<ele>321.28</ele>
</trkpt>
<trkpt lat="47.690685" lon="18.836327">
<ele>313.92</ele>
</trkpt>
<trkpt lat="47.690444" lon="18.83579">
<ele>308.56</ele>
</trkpt>
<trkpt lat="47.690313" lon="18.835812">
<ele>304.4</ele>
</trkpt>
<trkpt lat="47.690208" lon="18.835741">
<ele>302.32</ele>
</trkpt>
<trkpt lat="47.689823" lon="18.835476">
<ele>296.4</ele>
</trkpt>
<trkpt lat="47.689284" lon="18.834922">
<ele>293.4</ele>
</trkpt>
<trkpt lat="47.688594" lon="18.834321">
<ele>286.08</ele>
</trkpt>
<trkpt lat="47.688585" lon="18.833652">
<ele>280.72</ele>
</trkpt>
<trkpt lat="47.688201" lon="18.832846">
<ele>273.04</ele>
</trkpt>
<trkpt lat="47.687247" lon="18.831778">
<ele>262.8</ele>
</trkpt>
<trkpt lat="47.686777" lon="18.830984">
<ele>254.64</ele>
</trkpt>
<trkpt lat="47.686541" lon="18.83053">
<ele>243.2</ele>
</trkpt>
<trkpt lat="47.68567" lon="18.830356">
<ele>236.72</ele>
</trkpt>
<trkpt lat="47.685434" lon="18.830207">
<ele>230.8</ele>
</trkpt>
<trkpt lat="47.685282" lon="18.830084">
<ele>228.4</ele>
</trkpt>
<trkpt lat="47.684784" lon="18.829933">
<ele>225.48</ele>
</trkpt>
<trkpt lat="47.684459" lon="18.82974">
<ele>223.56</ele>
</trkpt>
<trkpt lat="47.684063" lon="18.829652">
<ele>220.24</ele>
</trkpt>
<trkpt lat="47.683889" lon="18.829767">
<ele>217.68</ele>
</trkpt>
<trkpt lat="47.683376" lon="18.830459">
<ele>215.12</ele>
</trkpt>
<trkpt lat="47.683221" lon="18.830603">
<ele>211.88</ele>
</trkpt>
<trkpt lat="47.683148" lon="18.830674">
<ele>209</ele>
</trkpt></trkseg>
<trkseg>
<trkpt lat="47.683148" lon="18.830674">
<ele>209</ele>
</trkpt>
<trkpt lat="47.682657" lon="18.829164">
<ele>205.88</ele>
</trkpt>
<trkpt lat="47.682593" lon="18.828836">
<ele>202.52</ele>
</trkpt>
<trkpt lat="47.682661" lon="18.828426">
<ele>199.64</ele>
</trkpt>
<trkpt lat="47.68248" lon="18.827307">
<ele>195.92</ele>
</trkpt>
<trkpt lat="47.682272" lon="18.826645">
<ele>193.72</ele>
</trkpt>
<trkpt lat="47.681922" lon="18.825959">
<ele>191.64</ele>
</trkpt>
<trkpt lat="47.681687" lon="18.825687">
<ele>191.4</ele>
</trkpt>
<trkpt lat="47.681521" lon="18.825365">
<ele>190.64</ele>
</trkpt>
<trkpt lat="47.681458" lon="18.825127">
<ele>190.48</ele>
</trkpt>
<trkpt lat="47.681219" lon="18.824648">
<ele>189.84</ele>
</trkpt>
<trkpt lat="47.681214" lon="18.824536">
<ele>189.68</ele>
</trkpt>
<trkpt lat="47.680969" lon="18.824112">
<ele>188.84</ele>
</trkpt>
<trkpt lat="47.680917" lon="18.823936">
<ele>188.2</ele>
</trkpt>
<trkpt lat="47.680709" lon="18.822489">
<ele>186.96</ele>
</trkpt>
<trkpt lat="47.680685" lon="18.822312">
<ele>186.48</ele>
</trkpt>
<trkpt lat="47.680612" lon="18.821864">
<ele>185.68</ele>
</trkpt>
<trkpt lat="47.680598" lon="18.821668">
<ele>185.36</ele>
</trkpt>
<trkpt lat="47.680777" lon="18.82046">
<ele>184.48</ele>
</trkpt>
<trkpt lat="47.680748" lon="18.820051">
<ele>184.0</ele>
</trkpt>
<trkpt lat="47.680154" lon="18.819863">
<ele>183.0</ele>
</trkpt>
<trkpt lat="47.68003" lon="18.819735">
<ele>182.52</ele>
</trkpt>
<trkpt lat="47.679982" lon="18.81968">
<ele>182.44</ele>
</trkpt>
<trkpt lat="47.67949" lon="18.819394">
<ele>182.92</ele>
</trkpt>
<trkpt lat="47.679088" lon="18.818825">
<ele>184.4</ele>
</trkpt>
<trkpt lat="47.67891" lon="18.818681">
<ele>185.2</ele>
</trkpt>
<trkpt lat="47.678638" lon="18.818537">
<ele>186</ele>
</trkpt></trkseg>
<trkseg>
<trkpt lat="47.678638" lon="18.818537">
<ele>186</ele>
</trkpt>
<trkpt lat="47.678491" lon="18.819049">
<ele>186.0</ele>
</trkpt>
<trkpt lat="47.678292" lon="18.819569">
<ele>186.48</ele>
</trkpt>
<trkpt lat="47.677997" lon="18.819931">
<ele>186.16</ele>
</trkpt>
<trkpt lat="47.677705" lon="18.820095">
<ele>186.12</ele>
</trkpt>
<trkpt lat="47.677231" lon="18.820241">
<ele>184.48</ele>
</trkpt>
<trkpt lat="47.6757" lon="18.819618">
<ele>183.76</ele>
</trkpt>
<trkpt lat="47.67445" lon="18.819011">
<ele>182.96</ele>
</trkpt>
<trkpt lat="47.673937" lon="18.818736">
<ele>183.36</ele>
</trkpt>
<trkpt lat="47.673663" lon="18.8185">
<ele>184</ele>
</trkpt></trkseg>
<trkseg>
<trkpt lat="47.673663" lon="18.8185">
<ele>184</ele>
</trkpt>
<trkpt lat="47.673418" lon="18.818116">
<ele>184.6</ele>
</trkpt>
<trkpt lat="47.67324" lon="18.817647">
<ele>184.88</ele>
</trkpt>
<trkpt lat="47.67319" lon="18.81714">
<ele>184.92</ele>
</trkpt>
<trkpt lat="47.672755" lon="18.812427">
<ele>184.12</ele>
</trkpt>
<trkpt lat="47.67257" lon="18.81009">
<ele>183.64</ele>
</trkpt>
<trkpt lat="47.672559" lon="18.809961">
<ele>183</ele>
</trkpt></trkseg>
<trkseg>
<trkpt lat="47.672559" lon="18.809961">
<ele>183</ele>
</trkpt>
<trkpt lat="47.672529" lon="18.809309">
<ele>184.92</ele>
</trkpt>
<trkpt lat="47.67276" lon="18.807122">
<ele>186.36</ele>
</trkpt>
<trkpt lat="47.672484" lon="18.804448">
<ele>185.4</ele>
</trkpt>
<trkpt lat="47.672517" lon="18.803309">
<ele>184.24</ele>
</trkpt>
<trkpt lat="47.672519" lon="18.803254">
<ele>181.2</ele>
</trkpt>
<trkpt lat="47.672606" lon="18.803275">
<ele>178.48</ele>
</trkpt>
<trkpt lat="47.672945" lon="18.798385">
<ele>174.08</ele>
</trkpt>
<trkpt lat="47.673736" lon="18.793674">
<ele>171.28</ele>
</trkpt>
<trkpt lat="47.673875" lon="18.792848">
<ele>168.12</ele>
</trkpt>
<trkpt lat="47.673771" lon="18.792765">
<ele>167.16</ele>
</trkpt>
<trkpt lat="47.673815" lon="18.792484">
<ele>166.32</ele>
</trkpt>
<trkpt lat="47.67384" lon="18.79232">
<ele>166.16</ele>
</trkpt>
<trkpt lat="47.673821" lon="18.791597">
<ele>166.0</ele>
</trkpt>
<trkpt lat="47.673784" lon="18.791336">
<ele>166</ele>
</trkpt></trkseg></trk></gpx>