<?xml version="1.0" encoding="utf-8" standalone="yes"?>

<gpx version="1.1" creator="heyjoe.hu" xmlns="http://www.topografix.com/GPX/1/1" xmlns:xsi="http://www.w3.org/2001/XMLSchema-instance" xsi:schemaLocation="http://www.topografix.com/GPX/1/1 http://www.topografix.com/GPX/1/1/gpx.xsd">
<trk>
<trkseg>
<trkpt lat="47.3268699646" lon="17.841453552246" />
<trkpt lat="47.326827049255" lon="17.841410636902" />
<trkpt lat="47.3268699646" lon="17.840766906738" />
<trkpt lat="47.326719760895" lon="17.840144634247" />
<trkpt lat="47.326226234436" lon="17.839865684509" />
<trkpt lat="47.326140403748" lon="17.839694023132" />
<trkpt lat="47.326097488403" lon="17.839307785034" />
<trkpt lat="47.325668334961" lon="17.838513851166" />
<trkpt lat="47.325282096863" lon="17.837655544281" />
<trkpt lat="47.324659824371" lon="17.836239337921" />
<trkpt lat="47.324316501617" lon="17.835874557495" />
<trkpt lat="47.323822975159" lon="17.83572435379" />
<trkpt lat="47.321805953979" lon="17.835874557495" />
<trkpt lat="47.320947647095" lon="17.836089134216" />
<trkpt lat="47.319402694702" lon="17.835874557495" />
<trkpt lat="47.319016456604" lon="17.835681438446" />
<trkpt lat="47.318351268768" lon="17.834930419922" />
<trkpt lat="47.318179607391" lon="17.834479808807" />
<trkpt lat="47.318007946014" lon="17.833385467529" />
<trkpt lat="47.317278385162" lon="17.83055305481" />
<trkpt lat="47.316913604736" lon="17.829608917236" />
<trkpt lat="47.316741943359" lon="17.829072475433" />
<trkpt lat="47.316184043884" lon="17.826325893402" />
<trkpt lat="47.315926551819" lon="17.825424671173" />
<trkpt lat="47.315347194672" lon="17.82418012619" />
<trkpt lat="47.314531803131" lon="17.823235988617" />
<trkpt lat="47.313952445984" lon="17.822871208191" />
<trkpt lat="47.313952445984" lon="17.822420597076" />
<trkpt lat="47.314960956573" lon="17.821626663208" />
<trkpt lat="47.316269874573" lon="17.820746898651" />
<trkpt lat="47.317321300507" lon="17.819781303406" />
<trkpt lat="47.317643165588" lon="17.819266319275" />
<trkpt lat="47.318115234375" lon="17.818257808685" />
<trkpt lat="47.318286895752" lon="17.817764282227" />
<trkpt lat="47.318351268768" lon="17.816970348358" />
<trkpt lat="47.318437099457" lon="17.816734313965" />
<trkpt lat="47.31837272644" lon="17.816669940948" />
<trkpt lat="47.318201065063" lon="17.816627025604" />
<trkpt lat="47.317728996277" lon="17.816348075867" />
<trkpt lat="47.316935062408" lon="17.816412448883" />
<trkpt lat="47.315282821655" lon="17.816219329834" />
<trkpt lat="47.314639091492" lon="17.815918922424" />
<trkpt lat="47.314209938049" lon="17.815747261047" />
<trkpt lat="47.313416004181" lon="17.814910411835" />
<trkpt lat="47.312278747559" lon="17.814567089081" />
<trkpt lat="47.311956882477" lon="17.814502716064" />
<trkpt lat="47.312220158055" lon="17.814305154607" />
<trkpt lat="47.311871051788" lon="17.814502716064" />
<trkpt lat="47.310583591461" lon="17.815253734589" />
<trkpt lat="47.310476303101" lon="17.815232276917" />
<trkpt lat="47.310347557068" lon="17.814953327179" />
<trkpt lat="47.310218811035" lon="17.814717292786" />
<trkpt lat="47.310090065002" lon="17.814631462097" />
<trkpt lat="47.309553623199" lon="17.814695835114" />
<trkpt lat="47.30895280838" lon="17.814888954163" />
<trkpt lat="47.308854069561" lon="17.814761213958" />
<trkpt lat="47.30884552002" lon="17.814266681671" />
<trkpt lat="47.308523654938" lon="17.812979221344" />
<trkpt lat="47.308523654938" lon="17.812979221344" />
<trkpt lat="47.308523654938" lon="17.812979221344" />
<trkpt lat="47.308523654938" lon="17.812979221344" />
<trkpt lat="47.308523654938" lon="17.812979221344" />
<trkpt lat="47.308523654938" lon="17.812979221344" />
<trkpt lat="47.308523654938" lon="17.812979221344" />
<trkpt lat="47.308523654938" lon="17.812979221344" />
<trkpt lat="47.308523654938" lon="17.812979221344" />
<trkpt lat="47.308180332184" lon="17.81182050705" />
<trkpt lat="47.308073043823" lon="17.811455726624" />
<trkpt lat="47.308057453483" lon="17.811331003904" />
<trkpt lat="47.308051586151" lon="17.811026573181" />
<trkpt lat="47.308158874512" lon="17.810726165771" />
<trkpt lat="47.309167385101" lon="17.810039520264" />
<trkpt lat="47.310197353363" lon="17.809846401215" />
<trkpt lat="47.310562133789" lon="17.809739112854" />
<trkpt lat="47.310991287231" lon="17.809138298035" />
<trkpt lat="47.310390472412" lon="17.807614803314" />
<trkpt lat="47.31006860733" lon="17.806584835052" />
<trkpt lat="47.310240268707" lon="17.804546356201" />
<trkpt lat="47.311313152313" lon="17.800898551941" />
<trkpt lat="47.311849594116" lon="17.798774242401" />
<trkpt lat="47.311913967133" lon="17.796306610107" />
<trkpt lat="47.312150001526" lon="17.794589996338" />
<trkpt lat="47.311871051788" lon="17.792551517487" />
<trkpt lat="47.311913967133" lon="17.790126800537" />
<trkpt lat="47.311570644379" lon="17.788560390472" />
<trkpt lat="47.311184406281" lon="17.785813808441" />
<trkpt lat="47.310690879822" lon="17.783517837524" />
<trkpt lat="47.310519218445" lon="17.782316207886" />
<trkpt lat="47.309768199921" lon="17.781028747559" />
<trkpt lat="47.309639453888" lon="17.780578136444" />
<trkpt lat="47.30966091156" lon="17.779741287231" />
<trkpt lat="47.308715349063" lon="17.779085570946" />
<trkpt lat="47.30865240097" lon="17.779033184052" />
<trkpt lat="47.308309078217" lon="17.778754234314" />
<trkpt lat="47.307708263397" lon="17.778453826904" />
<trkpt lat="47.306978702545" lon="17.778453826904" />
<trkpt lat="47.306077480316" lon="17.778539657593" />
<trkpt lat="47.305862903595" lon="17.77841091156" />
<trkpt lat="47.305498123169" lon="17.777917385101" />
<trkpt lat="47.305219173431" lon="17.777810096741" />
<trkpt lat="47.304553985596" lon="17.777853012085" />
<trkpt lat="47.304253578186" lon="17.777724266052" />
<trkpt lat="47.303996086121" lon="17.777338027954" />
<trkpt lat="47.303802967072" lon="17.776565551758" />
<trkpt lat="47.303738594055" lon="17.776308059692" />
<trkpt lat="47.303738594055" lon="17.776308059692" />
<trkpt lat="47.303738594055" lon="17.776308059692" />
<trkpt lat="47.303738594055" lon="17.776308059692" />
<trkpt lat="47.303738594055" lon="17.776308059692" />
<trkpt lat="47.303738594055" lon="17.776308059692" />
<trkpt lat="47.303738594055" lon="17.776308059692" />
<trkpt lat="47.303738594055" lon="17.776308059692" />
<trkpt lat="47.303738594055" lon="17.776308059692" />
<trkpt lat="47.303502559662" lon="17.776007652283" />
<trkpt lat="47.303094863892" lon="17.77587890625" />
<trkpt lat="47.302536964417" lon="17.775900363922" />
<trkpt lat="47.302236557007" lon="17.775557041168" />
<trkpt lat="47.301936149597" lon="17.775299549103" />
<trkpt lat="47.301442623138" lon="17.775385379791" />
<trkpt lat="47.300755977631" lon="17.775492668152" />
<trkpt lat="47.300369739532" lon="17.775428295135" />
<trkpt lat="47.299468517303" lon="17.775063514709" />
<trkpt lat="47.299211025238" lon="17.775084972382" />
<trkpt lat="47.298996448517" lon="17.775342464447" />
<trkpt lat="47.298653125763" lon="17.776458263397" />
<trkpt lat="47.298395633698" lon="17.776672840118" />
<trkpt lat="47.298248363659" lon="17.776662698016" />
<trkpt lat="47.298248363659" lon="17.776662698016" />
<trkpt lat="47.297902107239" lon="17.776522636414" />
<trkpt lat="47.293417453766" lon="17.77364730835" />
<trkpt lat="47.292559146881" lon="17.773110866547" />
<trkpt lat="47.292232168838" lon="17.772568725049" />
<trkpt lat="47.290070056915" lon="17.77010679245" />
<trkpt lat="47.282314281911" lon="17.764544058591" />
<trkpt lat="47.280843257904" lon="17.762703895569" />
<trkpt lat="47.27766752243" lon="17.760365009308" />
<trkpt lat="47.27766752243" lon="17.759656906128" />
<trkpt lat="47.275671958923" lon="17.756266593933" />
<trkpt lat="47.274190122262" lon="17.754749134183" />
<trkpt lat="47.273418903351" lon="17.753283977509" />
<trkpt lat="47.26925611496" lon="17.75137424469" />
<trkpt lat="47.268612384796" lon="17.750172615051" />
<trkpt lat="47.267601694912" lon="17.746987324208" />
<trkpt lat="47.267367839813" lon="17.746825218201" />
<trkpt lat="47.267153263092" lon="17.74671792984" />
<trkpt lat="47.267088890076" lon="17.746503353119" />
<trkpt lat="47.26713180542" lon="17.746181488037" />
<trkpt lat="47.266230583191" lon="17.745881080627" />
<trkpt lat="47.265372276306" lon="17.745366096497" />
<trkpt lat="47.263741493225" lon="17.744121551514" />
<trkpt lat="47.261703014374" lon="17.743005752563" />
<trkpt lat="47.260973453522" lon="17.74266242981" />
<trkpt lat="47.26035118103" lon="17.742791175842" />
<trkpt lat="47.259085178375" lon="17.742340564728" />
<trkpt lat="47.258269786835" lon="17.741439342499" />
<trkpt lat="47.257926464081" lon="17.741181850433" />
<trkpt lat="47.2579283081" lon="17.741417465732" />
<trkpt lat="47.257390022278" lon="17.740688323975" />
<trkpt lat="47.257153987885" lon="17.740259170532" />
<trkpt lat="47.25711107254" lon="17.739851474762" />
<trkpt lat="47.257175445557" lon="17.739465236664" />
<trkpt lat="47.257261276245" lon="17.739229202271" />
<trkpt lat="47.257282733917" lon="17.739100456238" />
<trkpt lat="47.257218360901" lon="17.738950252533" />
<trkpt lat="47.256853580475" lon="17.738735675812" />
<trkpt lat="47.256231307983" lon="17.738671302795" />
<trkpt lat="47.25599527359" lon="17.738070487976" />
<trkpt lat="47.25599527359" lon="17.737255096436" />
<trkpt lat="47.255802154541" lon="17.736268043518" />
<trkpt lat="47.255802154541" lon="17.736268043518" />
<trkpt lat="47.255802154541" lon="17.736268043518" />
<trkpt lat="47.255802154541" lon="17.736268043518" />
<trkpt lat="47.255802154541" lon="17.736268043518" />
<trkpt lat="47.255802154541" lon="17.736268043518" />
<trkpt lat="47.255802154541" lon="17.736268043518" />
<trkpt lat="47.255802154541" lon="17.736268043518" />
<trkpt lat="47.255802154541" lon="17.736268043518" />
<trkpt lat="47.255802154541" lon="17.736268043518" />
<trkpt lat="47.255802154541" lon="17.736268043518" />
<trkpt lat="47.255802154541" lon="17.736268043518" />
<trkpt lat="47.255802154541" lon="17.736268043518" />
<trkpt lat="47.255802154541" lon="17.736268043518" />
<trkpt lat="47.25517988205" lon="17.736761569977" />
<trkpt lat="47.254235744476" lon="17.737727165222" />
<trkpt lat="47.252952307463" lon="17.738990737125" />
<trkpt lat="47.252304553986" lon="17.73952960968" />
<trkpt lat="47.251481954008" lon="17.740217261016" />
<trkpt lat="47.251102924347" lon="17.740623950958" />
<trkpt lat="47.251102924347" lon="17.740623950958" />
<trkpt lat="47.251102924347" lon="17.740623950958" />
<trkpt lat="47.251102924347" lon="17.740623950958" />
<trkpt lat="47.251102924347" lon="17.740623950958" />
<trkpt lat="47.251102924347" lon="17.740623950958" />
<trkpt lat="47.251102924347" lon="17.740623950958" />
<trkpt lat="47.251102924347" lon="17.740623950958" />
<trkpt lat="47.251102924347" lon="17.740623950958" />
<trkpt lat="47.251102924347" lon="17.740623950958" />
<trkpt lat="47.251102924347" lon="17.740623950958" />
<trkpt lat="47.251102924347" lon="17.740623950958" />
<trkpt lat="47.251102924347" lon="17.740623950958" />
<trkpt lat="47.251102924347" lon="17.740623950958" />
<trkpt lat="47.25086370483" lon="17.741127116606" />
<trkpt lat="47.250759601593" lon="17.741611003876" />
<trkpt lat="47.250716686249" lon="17.742619514465" />
<trkpt lat="47.249965667725" lon="17.743928432465" />
<trkpt lat="47.249116413295" lon="17.744956221431" />
<trkpt lat="47.248506546021" lon="17.74530172348" />
<trkpt lat="47.248013019562" lon="17.745366096497" />
<trkpt lat="47.247090339661" lon="17.745645046234" />
<trkpt lat="47.24627494812" lon="17.746031284332" />
<trkpt lat="47.245845794678" lon="17.747168540955" />
<trkpt lat="47.24515914917" lon="17.747769355774" />
<trkpt lat="47.244558334351" lon="17.748670578003" />
<trkpt lat="47.244000434875" lon="17.751631736755" />
<trkpt lat="47.243700027466" lon="17.754378318787" />
<trkpt lat="47.243056297302" lon="17.75562286377" />
<trkpt lat="47.243227958679" lon="17.758197784424" />
<trkpt lat="47.243056297302" lon="17.759613990784" />
<trkpt lat="47.24292755127" lon="17.760300636292" />
<trkpt lat="47.242670059204" lon="17.760815620422" />
<trkpt lat="47.242802409455" lon="17.761347955093" />
<trkpt lat="47.241983413696" lon="17.761459350586" />
<trkpt lat="47.241640090942" lon="17.760729789734" />
<trkpt lat="47.241339683533" lon="17.759742736816" />
<trkpt lat="47.241339683533" lon="17.759742736816" />
<trkpt lat="47.240266799927" lon="17.761287689209" />
<trkpt lat="47.239193916321" lon="17.762832641602" />
<trkpt lat="47.239108085632" lon="17.764978408813" />
<trkpt lat="47.239220654592" lon="17.765590371564" />
<trkpt lat="47.239408493042" lon="17.765579223633" />
<trkpt lat="47.239665985107" lon="17.766652107239" />
<trkpt lat="47.240138053894" lon="17.767038345337" />
<trkpt lat="47.240481376648" lon="17.76716709137" />
<trkpt lat="47.240824699402" lon="17.768669128418" />
<trkpt lat="47.241339683533" lon="17.768840789795" />
<trkpt lat="47.242412567139" lon="17.768497467041" />
<trkpt lat="47.243871688843" lon="17.767553329468" />
<trkpt lat="47.244601249695" lon="17.767081260681" />
<trkpt lat="47.246060371399" lon="17.766995429993" />
<trkpt lat="47.24727733992" lon="17.767626922578" />
<trkpt lat="47.247476577759" lon="17.76828289032" />
<trkpt lat="47.247457299381" lon="17.768765352666" />
<trkpt lat="47.247433662415" lon="17.768883705139" />
<trkpt lat="47.247433662415" lon="17.768883705139" />
<trkpt lat="47.247433662415" lon="17.768883705139" />
<trkpt lat="47.247433662415" lon="17.768883705139" />
<trkpt lat="47.247433662415" lon="17.768883705139" />
<trkpt lat="47.247433662415" lon="17.768883705139" />
<trkpt lat="47.247433662415" lon="17.768883705139" />
<trkpt lat="47.247433662415" lon="17.768883705139" />
<trkpt lat="47.247433662415" lon="17.768883705139" />
<trkpt lat="47.247433662415" lon="17.768883705139" />
<trkpt lat="47.247433662415" lon="17.768883705139" />
<trkpt lat="47.247433662415" lon="17.768883705139" />
<trkpt lat="47.247433662415" lon="17.768883705139" />
<trkpt lat="47.247433913872" lon="17.768892673776" />
<trkpt lat="47.247326374054" lon="17.7689909935" />
<trkpt lat="47.247197628021" lon="17.769012451172" />
<trkpt lat="47.247197628021" lon="17.769012451172" />
<trkpt lat="47.247068881989" lon="17.769269943237" />
<trkpt lat="47.246253490448" lon="17.770600318909" />
<trkpt lat="47.245995998383" lon="17.771909236908" />
<trkpt lat="47.246124744415" lon="17.773690223694" />
<trkpt lat="47.246232032776" lon="17.77547121048" />
<trkpt lat="47.246232032776" lon="17.77628660202" />
<trkpt lat="47.246360778809" lon="17.777166366577" />
<trkpt lat="47.246189117432" lon="17.780599594116" />
<trkpt lat="47.24627494812" lon="17.783646583557" />
<trkpt lat="47.247176170349" lon="17.784976959229" />
<trkpt lat="47.247133255005" lon="17.789525985718" />
<trkpt lat="47.246360778809" lon="17.791757583618" />
<trkpt lat="47.245845794678" lon="17.794976234436" />
<trkpt lat="47.245588302612" lon="17.796778678894" />
<trkpt lat="47.245330810547" lon="17.798666954041" />
<trkpt lat="47.244687080383" lon="17.800555229187" />
<trkpt lat="47.244429588318" lon="17.801671028137" />
<trkpt lat="47.243828773499" lon="17.803645133972" />
<trkpt lat="47.243056297302" lon="17.80463218689" />
<trkpt lat="47.242884635925" lon="17.806005477905" />
<trkpt lat="47.242841720581" lon="17.807679176331" />
<trkpt lat="47.242970466614" lon="17.809009552002" />
<trkpt lat="47.243099212646" lon="17.810683250427" />
<trkpt lat="47.243056297302" lon="17.811884880066" />
<trkpt lat="47.242455482483" lon="17.812485694885" />
<trkpt lat="47.242455482483" lon="17.812829017639" />
<trkpt lat="47.242455482483" lon="17.812829017639" />
<trkpt lat="47.242455482483" lon="17.812829017639" />
<trkpt lat="47.242455482483" lon="17.812829017639" />
<trkpt lat="47.242455482483" lon="17.812829017639" />
<trkpt lat="47.242455482483" lon="17.812829017639" />
<trkpt lat="47.242455482483" lon="17.812829017639" />
<trkpt lat="47.242455482483" lon="17.812829017639" />
<trkpt lat="47.242455482483" lon="17.812829017639" />
<trkpt lat="47.242455482483" lon="17.812829017639" />
<trkpt lat="47.242455482483" lon="17.812829017639" />
<trkpt lat="47.242455482483" lon="17.812829017639" />
<trkpt lat="47.242455482483" lon="17.812829017639" />
<trkpt lat="47.242455482483" lon="17.812829017639" />
<trkpt lat="47.24232673645" lon="17.812914848328" />
<trkpt lat="47.241983413696" lon="17.812871932983" />
<trkpt lat="47.241168022156" lon="17.813258171082" />
<trkpt lat="47.240738868713" lon="17.815232276917" />
<trkpt lat="47.240671897307" lon="17.816460812464" />
<trkpt lat="47.240653038025" lon="17.817077636719" />
<trkpt lat="47.240653038025" lon="17.817978858948" />
<trkpt lat="47.240395545959" lon="17.820296287537" />
<trkpt lat="47.240395545959" lon="17.821025848389" />
<trkpt lat="47.240695953369" lon="17.822012901306" />
<trkpt lat="47.241382598877" lon="17.823514938354" />
<trkpt lat="47.241768836975" lon="17.824115753174" />
<trkpt lat="47.242369651794" lon="17.828879356384" />
<trkpt lat="47.242584228516" lon="17.829351425171" />
<trkpt lat="47.242712974548" lon="17.829995155334" />
<trkpt lat="47.242584228516" lon="17.830510139465" />
<trkpt lat="47.242455482483" lon="17.831325531006" />
<trkpt lat="47.24232673645" lon="17.831883430481" />
<trkpt lat="47.242283821106" lon="17.832527160645" />
<trkpt lat="47.241983413696" lon="17.833557128906" />
<trkpt lat="47.241725921631" lon="17.83420085907" />
<trkpt lat="47.24151134491" lon="17.834415435791" />
<trkpt lat="47.24262714386" lon="17.837119102478" />
<trkpt lat="47.243185043335" lon="17.837634086609" />
<trkpt lat="47.243158975616" lon="17.837894931436" />
<trkpt lat="47.243356704712" lon="17.838492393494" />
<trkpt lat="47.244558334351" lon="17.84038066864" />
<trkpt lat="47.24545955658" lon="17.841625213623" />
<trkpt lat="47.245888710022" lon="17.842268943787" />
<trkpt lat="47.246661186218" lon="17.84351348877" />
<trkpt lat="47.247476577759" lon="17.844285964966" />
<trkpt lat="47.248592376709" lon="17.845959663391" />
<trkpt lat="47.249708175659" lon="17.847847938538" />
<trkpt lat="47.250566482544" lon="17.849178314209" />
<trkpt lat="47.252669334412" lon="17.850337028503" />
<trkpt lat="47.253098487854" lon="17.851066589355" />
<trkpt lat="47.253355979919" lon="17.851839065552" />
<trkpt lat="47.25387096405" lon="17.852053642273" />
<trkpt lat="47.254085540771" lon="17.851753234863" />
<trkpt lat="47.254815101624" lon="17.852740287781" />
<trkpt lat="47.255845069885" lon="17.854285240173" />
<trkpt lat="47.256102561951" lon="17.853984832764" />
<trkpt lat="47.256875038147" lon="17.853684425354" />
<trkpt lat="47.257347106934" lon="17.853899002075" />
<trkpt lat="47.258248329163" lon="17.853770256042" />
<trkpt lat="47.258377075195" lon="17.854199409485" />
<trkpt lat="47.258548736572" lon="17.85445690155" />
<trkpt lat="47.258291244507" lon="17.856216430664" />
<trkpt lat="47.258205413818" lon="17.856774330139" />
<trkpt lat="47.257733345032" lon="17.857203483582" />
<trkpt lat="47.257390022278" lon="17.857718467712" />
<trkpt lat="47.257647514343" lon="17.857675552368" />
<trkpt lat="47.258806228638" lon="17.857847213745" />
<trkpt lat="47.259192466736" lon="17.857975959778" />
<trkpt lat="47.259492874146" lon="17.858233451843" />
<trkpt lat="47.260866165161" lon="17.858619689941" />
<trkpt lat="47.261295318604" lon="17.859649658203" />
<trkpt lat="47.261295318604" lon="17.859907150269" />
<trkpt lat="47.261209487915" lon="17.861280441284" />
<trkpt lat="47.261381149292" lon="17.862696647644" />
<trkpt lat="47.261381149292" lon="17.865271568298" />
<trkpt lat="47.261166572571" lon="17.865700721741" />
<trkpt lat="47.261166572571" lon="17.866344451904" />
<trkpt lat="47.261080741882" lon="17.867074012756" />
<trkpt lat="47.261037826538" lon="17.86801815033" />
<trkpt lat="47.261209487915" lon="17.869176864624" />
<trkpt lat="47.261509895325" lon="17.870850563049" />
<trkpt lat="47.26176738739" lon="17.871108055115" />
<trkpt lat="47.2620677948" lon="17.871108055115" />
<trkpt lat="47.262754440308" lon="17.871108055115" />
<trkpt lat="47.263312339783" lon="17.871408462524" />
<trkpt lat="47.263655662537" lon="17.872138023376" />
<trkpt lat="47.263612747192" lon="17.87248134613" />
<trkpt lat="47.264042068273" lon="17.874366017058" />
<trkpt lat="47.264170646667" lon="17.875099182129" />
<trkpt lat="47.26459980011" lon="17.877416610718" />
<trkpt lat="47.264728546143" lon="17.877974510193" />
<trkpt lat="47.264986038208" lon="17.878232002258" />
<trkpt lat="47.264986038208" lon="17.878232002258" />
<trkpt lat="47.264986038208" lon="17.878232002258" />
<trkpt lat="47.264986038208" lon="17.878232002258" />
<trkpt lat="47.264986038208" lon="17.878232002258" />
<trkpt lat="47.264986038208" lon="17.878232002258" />
<trkpt lat="47.264986038208" lon="17.878232002258" />
<trkpt lat="47.264986038208" lon="17.878232002258" />
<trkpt lat="47.270693778992" lon="17.896943092346" />
<trkpt lat="47.270865440369" lon="17.897801399231" />
<trkpt lat="47.271294593811" lon="17.898573875427" />
<trkpt lat="47.272391365841" lon="17.89937610738" />
<trkpt lat="47.273783683777" lon="17.900333404541" />
<trkpt lat="47.274470329285" lon="17.901363372803" />
<trkpt lat="47.275328636169" lon="17.903423309326" />
<trkpt lat="47.27644443512" lon="17.905054092407" />
<trkpt lat="47.276830673218" lon="17.905311584473" />
<trkpt lat="47.278933525085" lon="17.904839515686" />
<trkpt lat="47.278933525085" lon="17.904839515686" />
<trkpt lat="47.278933525085" lon="17.904839515686" />
<trkpt lat="47.278933525085" lon="17.904839515686" />
<trkpt lat="47.278933525085" lon="17.904839515686" />
<trkpt lat="47.270629405975" lon="17.896814346313" />
<trkpt lat="47.270693778992" lon="17.896921634674" />
<trkpt lat="47.27077960968" lon="17.897500991821" />
<trkpt lat="47.270994186401" lon="17.898101806641" />
<trkpt lat="47.271208763123" lon="17.898445129395" />
<trkpt lat="47.271444797516" lon="17.898681163788" />
<trkpt lat="47.273075580597" lon="17.899839878082" />
<trkpt lat="47.274148464203" lon="17.900698184967" />
<trkpt lat="47.274641990662" lon="17.901749610901" />
<trkpt lat="47.275414466858" lon="17.903594970703" />
<trkpt lat="47.27644443512" lon="17.905054092407" />
<trkpt lat="47.276680469513" lon="17.905268669128" />
<trkpt lat="47.277023792267" lon="17.905268669128" />
<trkpt lat="47.277710437775" lon="17.904989719391" />
<trkpt lat="47.279019188136" lon="17.904813615605" />
<trkpt lat="47.278933525085" lon="17.904839515686" />
<trkpt lat="47.281336784363" lon="17.904367446899" />
<trkpt lat="47.283182144165" lon="17.90406703949" />
<trkpt lat="47.284169197083" lon="17.903122901917" />
<trkpt lat="47.285284996033" lon="17.901577949524" />
<trkpt lat="47.286829948425" lon="17.90011882782" />
<trkpt lat="47.287430763245" lon="17.901449203491" />
<trkpt lat="47.287812810391" lon="17.901947423816" />
<trkpt lat="47.289258772507" lon="17.903450047597" />
<trkpt lat="47.289490699768" lon="17.903380393982" />
<trkpt lat="47.291184263304" lon="17.902122605592" />
<trkpt lat="47.292923927307" lon="17.900676727295" />
<trkpt lat="47.293095588684" lon="17.900805473328" />
<trkpt lat="47.293996810913" lon="17.902865409851" />
<trkpt lat="47.29588508606" lon="17.901492118835" />
<trkpt lat="47.296872138977" lon="17.900848388672" />
<trkpt lat="47.30034828186" lon="17.898101806641" />
<trkpt lat="47.301120758057" lon="17.897758483887" />
<trkpt lat="47.301592826843" lon="17.897372245789" />
<trkpt lat="47.303695678711" lon="17.895011901855" />
<trkpt lat="47.305970191956" lon="17.893595695496" />
<trkpt lat="47.306914329529" lon="17.896814346313" />
<trkpt lat="47.308630943298" lon="17.901749610901" />
<trkpt lat="47.308974266052" lon="17.901835441589" />
<trkpt lat="47.309274673462" lon="17.902050018311" />
<trkpt lat="47.309403419495" lon="17.902436256409" />
<trkpt lat="47.309403419495" lon="17.902436256409" />
<trkpt lat="47.309403419495" lon="17.902436256409" />
<trkpt lat="47.309403419495" lon="17.902436256409" />
<trkpt lat="47.309403419495" lon="17.902436256409" />
<trkpt lat="47.309403419495" lon="17.902436256409" />
<trkpt lat="47.309403419495" lon="17.902436256409" />
<trkpt lat="47.309403419495" lon="17.902436256409" />
<trkpt lat="47.309403419495" lon="17.902436256409" />
<trkpt lat="47.309617996216" lon="17.902436256409" />
<trkpt lat="47.310090065002" lon="17.902479171753" />
<trkpt lat="47.310562133789" lon="17.902436256409" />
<trkpt lat="47.311592102051" lon="17.902221679688" />
<trkpt lat="47.311978340149" lon="17.90235042572" />
<trkpt lat="47.312707901001" lon="17.902779579163" />
<trkpt lat="47.314424514771" lon="17.904410362244" />
<trkpt lat="47.314939498901" lon="17.904710769653" />
<trkpt lat="47.316269874573" lon="17.904710769653" />
<trkpt lat="47.316699028015" lon="17.904839515686" />
<trkpt lat="47.317042350769" lon="17.906084060669" />
<trkpt lat="47.317728996277" lon="17.905740737915" />
<trkpt lat="47.318716049194" lon="17.905783653259" />
<trkpt lat="47.319402694702" lon="17.905268669128" />
<trkpt lat="47.319617271423" lon="17.904839515686" />
<trkpt lat="47.320690155029" lon="17.902994155884" />
<trkpt lat="47.320861816406" lon="17.902393341064" />
<trkpt lat="47.321162223816" lon="17.901921272278" />
<trkpt lat="47.322149276733" lon="17.901062965393" />
<trkpt lat="47.322750091553" lon="17.900590896606" />
<trkpt lat="47.323050498962" lon="17.900462150574" />
<trkpt lat="47.32403755188" lon="17.900462150574" />
<trkpt lat="47.324423789978" lon="17.90011882782" />
<trkpt lat="47.324466705322" lon="17.899346351624" />
<trkpt lat="47.324767112732" lon="17.897715568542" />
<trkpt lat="47.324981689453" lon="17.897243499756" />
<trkpt lat="47.32515335083" lon="17.896127700806" />
<trkpt lat="47.325325012207" lon="17.895097732544" />
<trkpt lat="47.325282096863" lon="17.894797325134" />
<trkpt lat="47.325067520142" lon="17.894496917725" />
<trkpt lat="47.324595451355" lon="17.89445400238" />
<trkpt lat="47.323865890503" lon="17.894282341003" />
<trkpt lat="47.32292175293" lon="17.894024848938" />
<trkpt lat="47.322406768799" lon="17.893509864807" />
<trkpt lat="47.321805953979" lon="17.892823219299" />
<trkpt lat="47.321667484939" lon="17.892509400845" />
<trkpt lat="47.321720123291" lon="17.890334129333" />
<trkpt lat="47.322020530701" lon="17.889561653137" />
<trkpt lat="47.322235107422" lon="17.888531684875" />
<trkpt lat="47.322347508743" lon="17.888321382925" />
<trkpt lat="47.322793006897" lon="17.888102531433" />
<trkpt lat="47.323522567749" lon="17.888145446777" />
<trkpt lat="47.32403755188" lon="17.887887954712" />
<trkpt lat="47.32485294342" lon="17.887759208679" />
<trkpt lat="47.325282096863" lon="17.887501716614" />
<trkpt lat="47.325539588928" lon="17.887330055237" />
<trkpt lat="47.326440811157" lon="17.887287139893" />
<trkpt lat="47.326912879944" lon="17.887716293335" />
<trkpt lat="47.327599525452" lon="17.888660430908" />
<trkpt lat="47.328243255615" lon="17.888789176941" />
<trkpt lat="47.328629493713" lon="17.889175415039" />
<trkpt lat="47.328886985779" lon="17.889261245728" />
<trkpt lat="47.329916954041" lon="17.88938999176" />
<trkpt lat="47.330131530762" lon="17.890205383301" />
<trkpt lat="47.330774674192" lon="17.890624227002" />
<trkpt lat="47.332706451416" lon="17.891063690186" />
<trkpt lat="47.333607673645" lon="17.891063690186" />
<trkpt lat="47.335195541382" lon="17.892308235168" />
<trkpt lat="47.335967095569" lon="17.892668405548" />
<trkpt lat="47.336397171021" lon="17.892608642578" />
<trkpt lat="47.33699798584" lon="17.892007827759" />
<trkpt lat="47.337641716003" lon="17.891192436218" />
<trkpt lat="47.339444160461" lon="17.890763282776" />
<trkpt lat="47.340002059937" lon="17.890977859497" />
<trkpt lat="47.340388298035" lon="17.891621589661" />
<trkpt lat="47.341200504452" lon="17.891184976324" />
<trkpt lat="47.341504096985" lon="17.890763282776" />
<trkpt lat="47.342147827148" lon="17.890033721924" />
<trkpt lat="47.342834472656" lon="17.890162467957" />
<trkpt lat="47.343521118164" lon="17.89050579071" />
<trkpt lat="47.344508171082" lon="17.890205383301" />
<trkpt lat="47.344658123329" lon="17.889984101057" />
<trkpt lat="47.345023155212" lon="17.889819145203" />
<trkpt lat="47.346053123474" lon="17.889218330383" />
<trkpt lat="47.348198890686" lon="17.88857460022" />
<trkpt lat="47.349486351013" lon="17.887930870056" />
<trkpt lat="47.349872589111" lon="17.887415885925" />
<trkpt lat="47.350430488586" lon="17.886085510254" />
<trkpt lat="47.350945472717" lon="17.885355949402" />
<trkpt lat="47.351460456848" lon="17.884454727173" />
<trkpt lat="47.351975440979" lon="17.883338928223" />
<trkpt lat="47.352232933044" lon="17.882695198059" />
<trkpt lat="47.352876663208" lon="17.882609367371" />
<trkpt lat="47.353262901306" lon="17.882008552551" />
<trkpt lat="47.353649139404" lon="17.881579399109" />
<trkpt lat="47.354378700256" lon="17.881364822388" />
<trkpt lat="47.355327866971" lon="17.881576046348" />
<trkpt lat="47.355408668518" lon="17.881622314453" />
<trkpt lat="47.355408668518" lon="17.881622314453" />
<trkpt lat="47.355408668518" lon="17.881622314453" />
<trkpt lat="47.355408668518" lon="17.881622314453" />
<trkpt lat="47.355408668518" lon="17.881622314453" />
<trkpt lat="47.355408668518" lon="17.881622314453" />
<trkpt lat="47.355408668518" lon="17.881622314453" />
<trkpt lat="47.355408668518" lon="17.881622314453" />
<trkpt lat="47.355408668518" lon="17.881622314453" />
<trkpt lat="47.355494499207" lon="17.880420684814" />
<trkpt lat="47.355408668518" lon="17.879691123962" />
<trkpt lat="47.355194091797" lon="17.878704071045" />
<trkpt lat="47.355042966083" lon="17.878321353346" />
<trkpt lat="47.354335784912" lon="17.877373695374" />
<trkpt lat="47.353820800781" lon="17.876515388489" />
<trkpt lat="47.354035377502" lon="17.876043319702" />
<trkpt lat="47.354207038879" lon="17.875185012817" />
<trkpt lat="47.354084579274" lon="17.874020431191" />
<trkpt lat="47.353820800781" lon="17.873468399048" />
<trkpt lat="47.353692054749" lon="17.873125076294" />
<trkpt lat="47.354121208191" lon="17.872180938721" />
<trkpt lat="47.354078292847" lon="17.871451377869" />
<trkpt lat="47.353820800781" lon="17.870807647705" />
<trkpt lat="47.353692054749" lon="17.869906425476" />
<trkpt lat="47.353820800781" lon="17.869262695312" />
<trkpt lat="47.353692054749" lon="17.867932319641" />
<trkpt lat="47.353219985962" lon="17.866644859314" />
<trkpt lat="47.35330581665" lon="17.86630153656" />
<trkpt lat="47.353863716125" lon="17.864756584167" />
<trkpt lat="47.354035377502" lon="17.863898277283" />
<trkpt lat="47.354249954224" lon="17.863726615906" />
<trkpt lat="47.354636192322" lon="17.862911224365" />
<trkpt lat="47.354893684387" lon="17.861666679382" />
<trkpt lat="47.355089318007" lon="17.861203495413" />
<trkpt lat="47.354979515076" lon="17.860422134399" />
<trkpt lat="47.354593276978" lon="17.859477996826" />
<trkpt lat="47.354464530945" lon="17.85870552063" />
<trkpt lat="47.354807853699" lon="17.858319282532" />
<trkpt lat="47.355065345764" lon="17.85728931427" />
<trkpt lat="47.355279922485" lon="17.856645584106" />
<trkpt lat="47.355666160583" lon="17.853684425354" />
<trkpt lat="47.356052398682" lon="17.852697372437" />
<trkpt lat="47.355880737305" lon="17.851195335388" />
<trkpt lat="47.355365753174" lon="17.849950790405" />
<trkpt lat="47.355108261108" lon="17.84939289093" />
<trkpt lat="47.35472202301" lon="17.849049568176" />
<trkpt lat="47.354207038879" lon="17.84797668457" />
<trkpt lat="47.353692054749" lon="17.846817970276" />
<trkpt lat="47.353348731995" lon="17.846002578735" />
<trkpt lat="47.352662086487" lon="17.845144271851" />
<trkpt lat="47.352662086487" lon="17.845144271851" />
<trkpt lat="47.352662086487" lon="17.845144271851" />
<trkpt lat="47.352662086487" lon="17.845144271851" />
<trkpt lat="47.352662086487" lon="17.845144271851" />
<trkpt lat="47.352662086487" lon="17.845144271851" />
<trkpt lat="47.352662086487" lon="17.845144271851" />
<trkpt lat="47.352662086487" lon="17.845144271851" />
<trkpt lat="47.352662086487" lon="17.845144271851" />
<trkpt lat="47.352662086487" lon="17.845144271851" />
<trkpt lat="47.352662086487" lon="17.845144271851" />
<trkpt lat="47.352662086487" lon="17.845144271851" />
<trkpt lat="47.352662086487" lon="17.845144271851" />
<trkpt lat="47.352662086487" lon="17.845144271851" />
<trkpt lat="47.354421615601" lon="17.842226028442" />
<trkpt lat="47.354764938354" lon="17.841711044312" />
<trkpt lat="47.354764938354" lon="17.841324806213" />
<trkpt lat="47.354550361633" lon="17.840809822083" />
<trkpt lat="47.354035377502" lon="17.84068107605" />
<trkpt lat="47.353692054749" lon="17.840509414673" />
<trkpt lat="47.353391647339" lon="17.8395652771" />
<trkpt lat="47.352705001831" lon="17.838277816772" />
<trkpt lat="47.352705001831" lon="17.83784866333" />
<trkpt lat="47.353820800781" lon="17.837076187134" />
<trkpt lat="47.354292869568" lon="17.836990356445" />
<trkpt lat="47.354636192322" lon="17.836775779724" />
<trkpt lat="47.354850769043" lon="17.836561203003" />
<trkpt lat="47.355537414551" lon="17.83643245697" />
<trkpt lat="47.355623245239" lon="17.836046218872" />
<trkpt lat="47.356867790222" lon="17.836346626282" />
<trkpt lat="47.357382774353" lon="17.836990356445" />
<trkpt lat="47.358369827271" lon="17.83673286438" />
<trkpt lat="47.358713150024" lon="17.837119102478" />
<trkpt lat="47.359700202942" lon="17.836303710938" />
<trkpt lat="47.360343933105" lon="17.835831642151" />
<trkpt lat="47.360172271729" lon="17.835574150085" />
<trkpt lat="47.360043525696" lon="17.835059165955" />
<trkpt lat="47.360343933105" lon="17.834157943726" />
<trkpt lat="47.360558509827" lon="17.832999229431" />
<trkpt lat="47.360644340515" lon="17.832655906677" />
<trkpt lat="47.360858917236" lon="17.832312583923" />
<trkpt lat="47.361631393433" lon="17.830810546875" />
<trkpt lat="47.361845970154" lon="17.830080986023" />
<trkpt lat="47.361974716187" lon="17.829737663269" />
<trkpt lat="47.362017631531" lon="17.829179763794" />
<trkpt lat="47.361974716187" lon="17.828793525696" />
<trkpt lat="47.362275123596" lon="17.82853603363" />
<trkpt lat="47.36231803894" lon="17.828321456909" />
<trkpt lat="47.362275123596" lon="17.82772064209" />
<trkpt lat="47.362103462219" lon="17.827248573303" />
<trkpt lat="47.361845970154" lon="17.826733589172" />
<trkpt lat="47.361330986023" lon="17.826561927795" />
<trkpt lat="47.360901832581" lon="17.826519012451" />
<trkpt lat="47.361030578613" lon="17.825145721436" />
<trkpt lat="47.36038684845" lon="17.823686599731" />
<trkpt lat="47.360172271729" lon="17.822871208191" />
<trkpt lat="47.360301017761" lon="17.822399139404" />
<trkpt lat="47.360301017761" lon="17.822399139404" />
<trkpt lat="47.360301017761" lon="17.822399139404" />
<trkpt lat="47.360301017761" lon="17.822399139404" />
<trkpt lat="47.360301017761" lon="17.822399139404" />
<trkpt lat="47.360301017761" lon="17.822399139404" />
<trkpt lat="47.360301017761" lon="17.822399139404" />
<trkpt lat="47.360301017761" lon="17.822399139404" />
<trkpt lat="47.360301017761" lon="17.822399139404" />
<trkpt lat="47.360301017761" lon="17.822399139404" />
<trkpt lat="47.360301017761" lon="17.822399139404" />
<trkpt lat="47.360301017761" lon="17.822399139404" />
<trkpt lat="47.360301017761" lon="17.822399139404" />
<trkpt lat="47.360301017761" lon="17.822399139404" />
<trkpt lat="47.360258102417" lon="17.821798324585" />
<trkpt lat="47.36008644104" lon="17.820467948914" />
<trkpt lat="47.359957695007" lon="17.819910049438" />
<trkpt lat="47.35978603363" lon="17.819437980652" />
<trkpt lat="47.359614372253" lon="17.818665504456" />
<trkpt lat="47.359142303467" lon="17.816004753113" />
<trkpt lat="47.359056472778" lon="17.81476020813" />
<trkpt lat="47.359228134155" lon="17.813901901245" />
<trkpt lat="47.359700202942" lon="17.812399864197" />
<trkpt lat="47.359657287598" lon="17.810897827148" />
<trkpt lat="47.35978603363" lon="17.808408737183" />
<trkpt lat="47.359657287598" lon="17.807207107544" />
<trkpt lat="47.359185218811" lon="17.805876731873" />
<trkpt lat="47.358841896057" lon="17.805533409119" />
<trkpt lat="47.357597351074" lon="17.804803848267" />
<trkpt lat="47.356567382812" lon="17.804460525513" />
<trkpt lat="47.355923652649" lon="17.80433177948" />
<trkpt lat="47.355709075928" lon="17.804160118103" />
<trkpt lat="47.355408668518" lon="17.803473472595" />
<trkpt lat="47.355065345764" lon="17.803087234497" />
<trkpt lat="47.354464530945" lon="17.80321598053" />
<trkpt lat="47.353863716125" lon="17.803258895874" />
<trkpt lat="47.353520393372" lon="17.802872657776" />
<trkpt lat="47.353177070618" lon="17.802143096924" />
<trkpt lat="47.3521900177" lon="17.80149936676" />
<trkpt lat="47.351717948914" lon="17.801198959351" />
<trkpt lat="47.350816726685" lon="17.801070213318" />
<trkpt lat="47.350387573242" lon="17.801027297974" />
<trkpt lat="47.350387573242" lon="17.801027297974" />
<trkpt lat="47.350387573242" lon="17.801027297974" />
<trkpt lat="47.350387573242" lon="17.801027297974" />
<trkpt lat="47.350387573242" lon="17.801027297974" />
<trkpt lat="47.350387573242" lon="17.801027297974" />
<trkpt lat="47.350387573242" lon="17.801027297974" />
<trkpt lat="47.350387573242" lon="17.801027297974" />
<trkpt lat="47.350387573242" lon="17.801027297974" />
<trkpt lat="47.350387573242" lon="17.801027297974" />
<trkpt lat="47.350387573242" lon="17.801027297974" />
<trkpt lat="47.350387573242" lon="17.801027297974" />
<trkpt lat="47.350387573242" lon="17.801027297974" />
<trkpt lat="47.350387573242" lon="17.801027297974" />
<trkpt lat="47.349700927734" lon="17.80149936676" />
<trkpt lat="47.348113059998" lon="17.802271842957" />
<trkpt lat="47.347469329834" lon="17.802872657776" />
<trkpt lat="47.346739768982" lon="17.803301811218" />
<trkpt lat="47.346181869507" lon="17.803001403809" />
<trkpt lat="47.345795631409" lon="17.802357673645" />
<trkpt lat="47.345323562622" lon="17.802014350891" />
<trkpt lat="47.344680838287" lon="17.801710758358" />
<trkpt lat="47.344379425049" lon="17.801413536072" />
<trkpt lat="47.343392372131" lon="17.800941467285" />
<trkpt lat="47.342748641968" lon="17.80038356781" />
<trkpt lat="47.342534065247" lon="17.799954414368" />
<trkpt lat="47.342448234558" lon="17.799010276794" />
<trkpt lat="47.342405319214" lon="17.79815196991" />
<trkpt lat="47.342534065247" lon="17.797894477844" />
<trkpt lat="47.342575220391" lon="17.796828635037" />
<trkpt lat="47.343006134033" lon="17.795534133911" />
<trkpt lat="47.343220710754" lon="17.793731689453" />
<trkpt lat="47.343649864197" lon="17.792015075684" />
<trkpt lat="47.343778610229" lon="17.791328430176" />
<trkpt lat="47.343821525574" lon="17.790298461914" />
<trkpt lat="47.343809036538" lon="17.789677362889" />
<trkpt lat="47.343778610229" lon="17.789225578308" />
<trkpt lat="47.343864440918" lon="17.788667678833" />
<trkpt lat="47.343864440918" lon="17.788066864014" />
<trkpt lat="47.344036102295" lon="17.787380218506" />
<trkpt lat="47.344551086426" lon="17.786908149719" />
<trkpt lat="47.344980239868" lon="17.786564826965" />
<trkpt lat="47.345666885376" lon="17.786693572998" />
<trkpt lat="47.346065277234" lon="17.786634815857" />
<trkpt lat="47.346065277234" lon="17.786634815857" />
<trkpt lat="47.346954345703" lon="17.785835266113" />
<trkpt lat="47.347383499146" lon="17.785620689392" />
<trkpt lat="47.348628044128" lon="17.78459072113" />
<trkpt lat="47.350258827209" lon="17.782917022705" />
<trkpt lat="47.349314689636" lon="17.781414985657" />
<trkpt lat="47.348713874817" lon="17.780299186707" />
<trkpt lat="47.349014282227" lon="17.779655456543" />
<trkpt lat="47.349743843079" lon="17.778882980347" />
<trkpt lat="47.350687980652" lon="17.777552604675" />
<trkpt lat="47.350902557373" lon="17.776522636414" />
<trkpt lat="47.35107421875" lon="17.775835990906" />
<trkpt lat="47.351202964783" lon="17.775278091431" />
<trkpt lat="47.3521900177" lon="17.773218154907" />
<trkpt lat="47.352662086487" lon="17.772789001465" />
<trkpt lat="47.352447509766" lon="17.770385742188" />
<trkpt lat="47.3521900177" lon="17.769570350647" />
<trkpt lat="47.351589202881" lon="17.76828289032" />
<trkpt lat="47.350215911865" lon="17.7654504776" />
<trkpt lat="47.350130081177" lon="17.765021324158" />
<trkpt lat="47.34965801239" lon="17.763905525208" />
<trkpt lat="47.349529266357" lon="17.763519287109" />
<trkpt lat="47.349529266357" lon="17.763519287109" />
<trkpt lat="47.349529266357" lon="17.763519287109" />
<trkpt lat="47.349529266357" lon="17.763519287109" />
<trkpt lat="47.349529266357" lon="17.763519287109" />
<trkpt lat="47.349529266357" lon="17.763519287109" />
<trkpt lat="47.349529266357" lon="17.763519287109" />
<trkpt lat="47.349529266357" lon="17.763519287109" />
<trkpt lat="47.349529266357" lon="17.763519287109" />
<trkpt lat="47.348027229309" lon="17.762703895569" />
<trkpt lat="47.346568107605" lon="17.763690948486" />
<trkpt lat="47.346439361572" lon="17.764077186584" />
<trkpt lat="47.346181869507" lon="17.764806747437" />
<trkpt lat="47.344379425049" lon="17.767338752747" />
<trkpt lat="47.342705726624" lon="17.768669128418" />
<trkpt lat="47.341632843018" lon="17.769227027893" />
<trkpt lat="47.3384141922" lon="17.769441604614" />
<trkpt lat="47.336525917053" lon="17.76909828186" />
<trkpt lat="47.33528137207" lon="17.76969909668" />
<trkpt lat="47.334408899769" lon="17.769120410085" />
<trkpt lat="47.33446598053" lon="17.767596244812" />
<trkpt lat="47.334594726562" lon="17.765965461731" />
<trkpt lat="47.334122657776" lon="17.762789726257" />
<trkpt lat="47.333993911743" lon="17.761416435242" />
<trkpt lat="47.332835197449" lon="17.758283615112" />
<trkpt lat="47.332577705383" lon="17.757124900818" />
<trkpt lat="47.332620620728" lon="17.755751609802" />
<trkpt lat="47.331376075745" lon="17.753691673279" />
<trkpt lat="47.329916954041" lon="17.752962112427" />
<trkpt lat="47.329444885254" lon="17.753047943115" />
<trkpt lat="47.329788208008" lon="17.75279045105" />
<trkpt lat="47.33051776886" lon="17.751803398132" />
<trkpt lat="47.330732345581" lon="17.750644683838" />
<trkpt lat="47.330732345581" lon="17.750644683838" />
<trkpt lat="47.330732345581" lon="17.750644683838" />
<trkpt lat="47.330732345581" lon="17.750644683838" />
<trkpt lat="47.330732345581" lon="17.750644683838" />
<trkpt lat="47.330732345581" lon="17.750644683838" />
<trkpt lat="47.330732345581" lon="17.750644683838" />
<trkpt lat="47.330732345581" lon="17.750644683838" />
<trkpt lat="47.330732345581" lon="17.750644683838" />
<trkpt lat="47.330732345581" lon="17.750644683838" />
<trkpt lat="47.330732345581" lon="17.750644683838" />
<trkpt lat="47.330732345581" lon="17.750644683838" />
<trkpt lat="47.330732345581" lon="17.750644683838" />
<trkpt lat="47.330732345581" lon="17.750644683838" />
<trkpt lat="47.330684987828" lon="17.750620879233" />
<trkpt lat="47.330431938171" lon="17.750644683838" />
<trkpt lat="47.330045700073" lon="17.750558853149" />
<trkpt lat="47.329702377319" lon="17.74995803833" />
<trkpt lat="47.329530715942" lon="17.749485969543" />
<trkpt lat="47.329444885254" lon="17.749056816101" />
<trkpt lat="47.329144477844" lon="17.747983932495" />
<trkpt lat="47.328972816467" lon="17.74742603302" />
<trkpt lat="47.328200340271" lon="17.745752334595" />
<trkpt lat="47.327942848206" lon="17.745623588562" />
<trkpt lat="47.327857017517" lon="17.745323181152" />
<trkpt lat="47.327728271484" lon="17.745065689087" />
<trkpt lat="47.32768535614" lon="17.744851112366" />
<trkpt lat="47.327556610107" lon="17.744421958923" />
<trkpt lat="47.327470779419" lon="17.743735313416" />
<trkpt lat="47.327470779419" lon="17.743306159973" />
<trkpt lat="47.32738494873" lon="17.743091583252" />
<trkpt lat="47.327127456665" lon="17.742490768433" />
<trkpt lat="47.326440811157" lon="17.741417884827" />
<trkpt lat="47.326011657715" lon="17.740988731384" />
<trkpt lat="47.326011657715" lon="17.739872932434" />
<trkpt lat="47.326140403748" lon="17.739572525024" />
<trkpt lat="47.326011657715" lon="17.739229202271" />
<trkpt lat="47.326278286055" lon="17.73817836307" />
<trkpt lat="47.326278286055" lon="17.73817836307" />
<trkpt lat="47.326312065125" lon="17.735495567322" />
<trkpt lat="47.326440811157" lon="17.733521461487" />
<trkpt lat="47.326655387878" lon="17.731761932373" />
<trkpt lat="47.32768535614" lon="17.729272842407" />
<trkpt lat="47.327556610107" lon="17.727942466736" />
<trkpt lat="47.327942848206" lon="17.726054191589" />
<trkpt lat="47.329058647156" lon="17.723779678345" />
<trkpt lat="47.328886985779" lon="17.721934318542" />
<trkpt lat="47.32798576355" lon="17.721118927002" />
<trkpt lat="47.327427864075" lon="17.720561027527" />
<trkpt lat="47.327342033386" lon="17.719316482544" />
<trkpt lat="47.327342033386" lon="17.717728614807" />
<trkpt lat="47.32656955719" lon="17.715754508972" />
<trkpt lat="47.326768795028" lon="17.714185081422" />
<trkpt lat="47.326698303223" lon="17.713222503662" />
<trkpt lat="47.325882911682" lon="17.711935043335" />
<trkpt lat="47.32545375824" lon="17.711205482483" />
<trkpt lat="47.323865890503" lon="17.709918022156" />
<trkpt lat="47.322492599487" lon="17.708201408386" />
<trkpt lat="47.321162223816" lon="17.707343101501" />
<trkpt lat="47.320690155029" lon="17.706956863403" />
<trkpt lat="47.320132255554" lon="17.706570625305" />
<trkpt lat="47.319273948669" lon="17.706055641174" />
<trkpt lat="47.318630218506" lon="17.704510688782" />
<trkpt lat="47.319016456604" lon="17.704553604126" />
<trkpt lat="47.319231033325" lon="17.704167366028" />
<trkpt lat="47.32008934021" lon="17.703137397766" />
<trkpt lat="47.320561408997" lon="17.702836990356" />
<trkpt lat="47.320861816406" lon="17.702322006226" />
<trkpt lat="47.320861816406" lon="17.702107429504" />
<trkpt lat="47.320861816406" lon="17.701807022095" />
<trkpt lat="47.321677207947" lon="17.70094871521" />
<trkpt lat="47.321805953979" lon="17.700433731079" />
<trkpt lat="47.329313121736" lon="17.692271266133" />
<trkpt lat="47.328028678894" lon="17.689790725708" />
<trkpt lat="47.329359054565" lon="17.688159942627" />
<trkpt lat="47.329916954041" lon="17.686872398481" />
<trkpt lat="47.329874038696" lon="17.686486244202" />
<trkpt lat="47.330346107483" lon="17.686100006104" />
<trkpt lat="47.330560684204" lon="17.685971260071" />
<trkpt lat="47.330560684204" lon="17.685971260071" />
<trkpt lat="47.330560684204" lon="17.685971260071" />
<trkpt lat="47.330560684204" lon="17.685971260071" />
<trkpt lat="47.330560684204" lon="17.685971260071" />
</trkseg>
</trk>
</gpx>
