<?xml version="1.0" encoding="UTF-8"?>
<gpx xmlns:xsi="http://www.w3.org/2001/XMLSchema-instance" xmlns="http://www.topografix.com/GPX/1/0" xsi:schemaLocation="http://www.topografix.com/GPX/1/0 http://www.topografix.com/GPX/1/0/gpx.xsd" version="1.0" creator="gpx.py -- https://github.com/tkrajina/gpxpy">
<trk>
<trkseg>
<trkpt lat="47.78654" lon="18.967061">
<ele>101.0</ele></trkpt>
<trkpt lat="47.786639" lon="18.967189">
<ele>101.214045757</ele></trkpt>
<trkpt lat="47.786513" lon="18.967189">
<ele>101.419703815</ele></trkpt>
<trkpt lat="47.786328" lon="18.967026">
<ele>101.770607286</ele></trkpt>
<trkpt lat="47.786311" lon="18.967096">
<ele>101.852235367</ele></trkpt>
<trkpt lat="47.786277" lon="18.967201">
<ele>101.980061258</ele></trkpt>
<trkpt lat="47.786239" lon="18.9673">
<ele>102.105099782</ele></trkpt>
<trkpt lat="47.786216" lon="18.967476">
<ele>102.577384797</ele></trkpt>
<trkpt lat="47.7861384363" lon="18.9675755009">
<ele>102.978826717</ele></trkpt>
<trkpt lat="47.786117" lon="18.967603">
<ele>103.089773533</ele></trkpt>
<trkpt lat="47.786087" lon="18.967876">
<ele>103.818432582</ele></trkpt>
<trkpt lat="47.786042" lon="18.967864">
<ele>103.893051554</ele></trkpt>
<trkpt lat="47.786023" lon="18.968074">
<ele>104.125433309</ele></trkpt>
<trkpt lat="47.786007" lon="18.968254">
<ele>104.347256387</ele></trkpt>
<trkpt lat="47.7859616775" lon="18.9688090417">
<ele>105.030343827</ele></trkpt>
<trkpt lat="47.785918" lon="18.969344">
<ele>105.688714165</ele></trkpt>
<trkpt lat="47.7858560505" lon="18.9701391523">
<ele>108.0</ele></trkpt>
<trkpt lat="47.785845" lon="18.970281">
<ele>108.272635353</ele></trkpt>
<trkpt lat="47.785556" lon="18.970938">
<ele>110.105246878</ele></trkpt>
<trkpt lat="47.7853744003" lon="18.9712480282">
<ele>110.89051839</ele></trkpt>
<trkpt lat="47.785334" lon="18.971317">
<ele>111.065217249</ele></trkpt>
<trkpt lat="47.785288" lon="18.971425">
<ele>111.622525354</ele></trkpt>
<trkpt lat="47.785112" lon="18.972062">
<ele>114.624365779</ele></trkpt>
<trkpt lat="47.7850798654" lon="18.9724905759">
<ele>115.324740267</ele></trkpt>
<trkpt lat="47.7849801276" lon="18.9738216774">
<ele>118.657446011</ele></trkpt>
<trkpt lat="47.784938" lon="18.974384">
<ele>119.639623172</ele></trkpt>
<trkpt lat="47.784898" lon="18.975133">
<ele>120.834587579</ele></trkpt>
<trkpt lat="47.784895718" lon="18.9751549172">
<ele>120.860021274</ele></trkpt>
<trkpt lat="47.784865" lon="18.97545">
<ele>121.202447347</ele></trkpt>
<trkpt lat="47.784729" lon="18.976044">
<ele>123.65163704</ele></trkpt>
<trkpt lat="47.7845997352" lon="18.9764096996">
<ele>124.876086106</ele></trkpt>
<trkpt lat="47.7841807828" lon="18.9775950509">
<ele>133.178189013</ele></trkpt>
<trkpt lat="47.784155" lon="18.977668">
<ele>129.146709067</ele></trkpt>
<trkpt lat="47.783963" lon="18.978122">
<ele>128.94183144</ele></trkpt>
<trkpt lat="47.7836379465" lon="18.9786559066">
<ele>131.0</ele></trkpt>
<trkpt lat="47.7830337018" lon="18.9796484214">
<ele>129.283031731</ele></trkpt>
<trkpt lat="47.783023" lon="18.979666">
<ele>129.270333407</ele></trkpt>
<trkpt lat="47.782765" lon="18.979994">
<ele>129.0</ele></trkpt>
<trkpt lat="47.7823183208" lon="18.9804578659">
<ele>129.043709548</ele></trkpt>
<trkpt lat="47.7815803138" lon="18.9812242829">
<ele>131.0</ele></trkpt>
<trkpt lat="47.781414" lon="18.981397">
<ele>131.244458037</ele></trkpt>
<trkpt lat="47.7808705375" lon="18.9820467602">
<ele>132.751430138</ele></trkpt>
<trkpt lat="47.780642" lon="18.98232">
<ele>132.771464529</ele></trkpt>
<trkpt lat="47.7800798029" lon="18.9826597015">
<ele>135.49440063</ele></trkpt>
<trkpt lat="47.77951" lon="18.983004">
<ele>136.666666667</ele></trkpt>
<trkpt lat="47.7792794523" lon="18.98325321">
<ele>136.582586953</ele></trkpt>
<trkpt lat="47.778596" lon="18.983992">
<ele>136.0</ele></trkpt>
<trkpt lat="47.7785438429" lon="18.9840188661">
<ele>136.256610512</ele></trkpt>
<trkpt lat="47.777967" lon="18.984316">
<ele>142.427990662</ele></trkpt>
<trkpt lat="47.7777166626" lon="18.9845323819">
<ele>143.773985536</ele></trkpt>
<trkpt lat="47.777591" lon="18.984641">
<ele>144.44963911</ele></trkpt>
<trkpt lat="47.777517" lon="18.984748">
<ele>144.929359438</ele></trkpt>
<trkpt lat="47.777469" lon="18.985021">
<ele>146.14436064</ele></trkpt>
<trkpt lat="47.777499" lon="18.985121">
<ele>146.472989838</ele></trkpt>
<trkpt lat="47.7771389247" lon="18.9853368542">
<ele>148.206465704</ele></trkpt>
<trkpt lat="47.777122" lon="18.985347">
<ele>148.287944512</ele></trkpt>
<trkpt lat="47.776939" lon="18.985397">
<ele>149.118786022</ele></trkpt>
<trkpt lat="47.776599" lon="18.985761">
<ele>152.322489001</ele></trkpt>
<trkpt lat="47.7763359903" lon="18.985889265">
<ele>155.621975276</ele></trkpt>
<trkpt lat="47.7754808182" lon="18.9863063198">
<ele>157.064824165</ele></trkpt>
<trkpt lat="47.775178" lon="18.986454">
<ele>157.693774387</ele></trkpt>
<trkpt lat="47.775126" lon="18.986477">
<ele>157.961117367</ele></trkpt>
<trkpt lat="47.775126" lon="18.986477">
<ele>157.961117367</ele></trkpt>
<trkpt lat="47.774988" lon="18.986537">
<ele>161.669632379</ele></trkpt>
<trkpt lat="47.7746060498" lon="18.9864902194">
<ele>163.558287789</ele></trkpt>
<trkpt lat="47.774294" lon="18.986452">
<ele>166.492354736</ele></trkpt>
<trkpt lat="47.774229" lon="18.986358">
<ele>167.341741952</ele></trkpt>
<trkpt lat="47.773923" lon="18.986016">
<ele>171.594697522</ele></trkpt>
<trkpt lat="47.7738095453" lon="18.9860127115">
<ele>173.697555118</ele></trkpt>
<trkpt lat="47.773785" lon="18.986012">
<ele>174.152496959</ele></trkpt>
<trkpt lat="47.773744" lon="18.985518">
<ele>185.35156949</ele></trkpt>
<trkpt lat="47.773685" lon="18.985379">
<ele>187.399054519</ele></trkpt>
<trkpt lat="47.77361" lon="18.984898">
<ele>200.548617742</ele></trkpt>
<trkpt lat="47.7736259039" lon="18.9847533246">
<ele>202.374371215</ele></trkpt>
<trkpt lat="47.773641" lon="18.984616">
<ele>203.064886713</ele></trkpt>
<trkpt lat="47.773565" lon="18.984369">
<ele>202.981411713</ele></trkpt>
<trkpt lat="47.773384" lon="18.984055">
<ele>209.854295838</ele></trkpt>
<trkpt lat="47.773189" lon="18.983983">
<ele>203.762433499</ele></trkpt>
<trkpt lat="47.773076" lon="18.984069">
<ele>203.70440125</ele></trkpt>
<trkpt lat="47.7730580999" lon="18.9840716155">
<ele>203.696177542</ele></trkpt>
<trkpt lat="47.772857" lon="18.984101">
<ele>203.603787985</ele></trkpt>
<trkpt lat="47.772554" lon="18.983874">
<ele>203.44867966</ele></trkpt>
<trkpt lat="47.772266" lon="18.983754">
<ele>200.153866411</ele></trkpt>
<trkpt lat="47.7722070955" lon="18.9837669302">
<ele>199.89608913</ele></trkpt>
<trkpt lat="47.77202" lon="18.983808">
<ele>199.077322774</ele></trkpt>
<trkpt lat="47.77176" lon="18.983827">
<ele>197.950339407</ele></trkpt>
<trkpt lat="47.7713977787" lon="18.9834284724">
<ele>194.0</ele></trkpt>
<trkpt lat="47.771331" lon="18.983355">
<ele>194.113911602</ele></trkpt>
<trkpt lat="47.7705539998" lon="18.9829798966">
<ele>197.900968365</ele></trkpt>
<trkpt lat="47.770316" lon="18.982865">
<ele>198.244150431</ele></trkpt>
<trkpt lat="47.769752" lon="18.98252">
<ele>193.070990642</ele></trkpt>
<trkpt lat="47.7697142539" lon="18.9825007196">
<ele>193.132175577</ele></trkpt>
<trkpt lat="47.769613" lon="18.982449">
<ele>197.962970807</ele></trkpt>
<trkpt lat="47.769448" lon="18.982365">
<ele>198.230335642</ele></trkpt>
<trkpt lat="47.768858167" lon="18.9820881795">
<ele>198.178548484</ele></trkpt>
<trkpt lat="47.768845" lon="18.982082">
<ele>198.212918307</ele></trkpt>
<trkpt lat="47.768015" lon="18.982156">
<ele>200.949485884</ele></trkpt>
<trkpt lat="47.7679606258" lon="18.9821481028">
<ele>201.085487826</ele></trkpt>
<trkpt lat="47.767595" lon="18.982095">
<ele>202.0</ele></trkpt>
<trkpt lat="47.7670909379" lon="18.9818392628">
<ele>202.57621152</ele></trkpt>
<trkpt lat="47.766779" lon="18.981681">
<ele>203.139082088</ele></trkpt>
<trkpt lat="47.7662382656" lon="18.9814111109">
<ele>206.446495383</ele></trkpt>
<trkpt lat="47.765647" lon="18.981116">
<ele>204.383545424</ele></trkpt>
<trkpt lat="47.765566" lon="18.981091">
<ele>204.2867651</ele></trkpt>
<trkpt lat="47.7653754013" lon="18.9811411032">
<ele>204.472632224</ele></trkpt>
<trkpt lat="47.765197" lon="18.981188">
<ele>205.551748965</ele></trkpt>
<trkpt lat="47.7645400753" lon="18.9816219309">
<ele>212.49978721</ele></trkpt>
<trkpt lat="47.763889" lon="18.982052">
<ele>219.74304313</ele></trkpt>
<trkpt lat="47.7637076375" lon="18.9821231351">
<ele>221.29336033</ele></trkpt>
<trkpt lat="47.763606" lon="18.982163">
<ele>222.162174327</ele></trkpt>
<trkpt lat="47.763388" lon="18.9821">
<ele>223.997783301</ele></trkpt>
<trkpt lat="47.7629202139" lon="18.9816083694">
<ele>234.390865414</ele></trkpt>
<trkpt lat="47.762721" lon="18.981399">
<ele>234.247550764</ele></trkpt>
<trkpt lat="47.762431" lon="18.981229">
<ele>230.06440508</ele></trkpt>
<trkpt lat="47.7620868153" lon="18.9812150412">
<ele>229.862099206</ele></trkpt>
<trkpt lat="47.7611872216" lon="18.9811785571">
<ele>230.0</ele></trkpt>
<trkpt lat="47.760705" lon="18.981159">
<ele>232.268021757</ele></trkpt>
<trkpt lat="47.7602913138" lon="18.9810749386">
<ele>232.50000015</ele></trkpt>
<trkpt lat="47.759399666" lon="18.9808937547">
<ele>233.0</ele></trkpt>
<trkpt lat="47.759268" lon="18.980867">
<ele>233.839531701</ele></trkpt>
<trkpt lat="47.758911" lon="18.980952">
<ele>237.123604629</ele></trkpt>
<trkpt lat="47.7585893135" lon="18.9813192265">
<ele>239.685346611</ele></trkpt>
<trkpt lat="47.758579" lon="18.981331">
<ele>239.767477591</ele></trkpt>
<trkpt lat="47.758138" lon="18.982447">
<ele>248.265356764</ele></trkpt>
<trkpt lat="47.7581297576" lon="18.9824685841">
<ele>248.46078965</ele></trkpt>
<trkpt lat="47.7576857517" lon="18.9836329729">
<ele>266.0</ele></trkpt>
<trkpt lat="47.757505" lon="18.984107">
<ele>265.844466135</ele></trkpt>
<trkpt lat="47.757414" lon="18.984271">
<ele>262.4504433</ele></trkpt>
<trkpt lat="47.757094535" lon="18.9846053237">
<ele>262.284618594</ele></trkpt>
<trkpt lat="47.757027" lon="18.984676">
<ele>262.249563153</ele></trkpt>
<trkpt lat="47.756717" lon="18.985209">
<ele>266.381747948</ele></trkpt>
<trkpt lat="47.756666" lon="18.985324">
<ele>263.074541171</ele></trkpt>
<trkpt lat="47.7564789089" lon="18.985572733">
<ele>262.242234529</ele></trkpt>
<trkpt lat="47.756059" lon="18.986131">
<ele>263.046399616</ele></trkpt>
<trkpt lat="47.7558401059" lon="18.9865116195">
<ele>265.215050844</ele></trkpt>
<trkpt lat="47.755768" lon="18.986637">
<ele>266.26276236</ele></trkpt>
<trkpt lat="47.755569" lon="18.987134">
<ele>268.767349961</ele></trkpt>
<trkpt lat="47.755346" lon="18.987489">
<ele>270.870931405</ele></trkpt>
<trkpt lat="47.7552891059" lon="18.9875581524">
<ele>276.677445706</ele></trkpt>
<trkpt lat="47.754599" lon="18.988397">
<ele>275.605441353</ele></trkpt>
<trkpt lat="47.7545937638" lon="18.9884073324">
<ele>275.5968507</ele></trkpt>
<trkpt lat="47.754293" lon="18.989001">
<ele>275.103312379</ele></trkpt>
<trkpt lat="47.7540095437" lon="18.9894211389">
<ele>275.635781902</ele></trkpt>
<trkpt lat="47.753984" lon="18.989459">
<ele>275.653727144</ele></trkpt>
<trkpt lat="47.753737" lon="18.989718">
<ele>275.804116019</ele></trkpt>
<trkpt lat="47.753362" lon="18.989896">
<ele>276.0</ele></trkpt>
<trkpt lat="47.7532283924" lon="18.9900475536">
<ele>279.707687651</ele></trkpt>
<trkpt lat="47.752826" lon="18.990504">
<ele>283.846924334</ele></trkpt>
<trkpt lat="47.752625" lon="18.990661">
<ele>285.703889255</ele></trkpt>
<trkpt lat="47.75249" lon="18.990646">
<ele>293.144510484</ele></trkpt>
<trkpt lat="47.7524648238" lon="18.9906740664">
<ele>293.401857283</ele></trkpt>
<trkpt lat="47.75222" lon="18.990947">
<ele>291.904416623</ele></trkpt>
<trkpt lat="47.752179" lon="18.991075">
<ele>292.469599708</ele></trkpt>
<trkpt lat="47.751929" lon="18.991314">
<ele>294.231601231</ele></trkpt>
<trkpt lat="47.7517371238" lon="18.9914052809">
<ele>295.425990797</ele></trkpt>
<trkpt lat="47.75162" lon="18.991461">
<ele>301.488395714</ele></trkpt>
<trkpt lat="47.751334" lon="18.991861">
<ele>298.394949387</ele></trkpt>
<trkpt lat="47.751112" lon="18.992253">
<ele>298.898101981</ele></trkpt>
<trkpt lat="47.7510790778" lon="18.992286196">
<ele>298.952915813</ele></trkpt>
<trkpt lat="47.750752" lon="18.992616">
<ele>300.497489016</ele></trkpt>
<trkpt lat="47.750294014" lon="18.9929316488">
<ele>301.193116501</ele></trkpt>
<trkpt lat="47.750131" lon="18.993044">
<ele>301.349343873</ele></trkpt>
<trkpt lat="47.749867" lon="18.993103">
<ele>304.914813256</ele></trkpt>
<trkpt lat="47.7494639516" lon="18.9934115415">
<ele>303.164691932</ele></trkpt>
<trkpt lat="47.7486637976" lon="18.9940240827">
<ele>302.332343886</ele></trkpt>
<trkpt lat="47.748434" lon="18.9942">
<ele>306.332628049</ele></trkpt>
<trkpt lat="47.7479092587" lon="18.9947487433">
<ele>303.0</ele></trkpt>
<trkpt lat="47.7478" lon="18.994863">
<ele>303.382214333</ele></trkpt>
<trkpt lat="47.747396" lon="18.995042">
<ele>306.255195375</ele></trkpt>
<trkpt lat="47.747052499" lon="18.995086735">
<ele>307.241930591</ele></trkpt>
<trkpt lat="47.746966" lon="18.995098">
<ele>307.4904061</ele></trkpt>
<trkpt lat="47.746332" lon="18.995572">
<ele>311.521034661</ele></trkpt>
<trkpt lat="47.7462571067" lon="18.9956782259">
<ele>311.290923773</ele></trkpt>
<trkpt lat="47.746136" lon="18.99585">
<ele>309.585487016</ele></trkpt>
<trkpt lat="47.745743" lon="18.99604">
<ele>308.0</ele></trkpt>
<trkpt lat="47.7454877674" lon="18.9963253949">
<ele>310.226077557</ele></trkpt>
<trkpt lat="47.745083" lon="18.996778">
<ele>314.423049268</ele></trkpt>
<trkpt lat="47.744915" lon="18.997052">
<ele>319.49455652</ele></trkpt>
<trkpt lat="47.7448065359" lon="18.9971932507">
<ele>320.499601708</ele></trkpt>
<trkpt lat="47.744141" lon="18.99806">
<ele>330.0</ele></trkpt>
<trkpt lat="47.7441258225" lon="18.9980575865">
<ele>330.0176212</ele></trkpt>
<trkpt lat="47.7432309959" lon="18.9979152899">
<ele>331.723187031</ele></trkpt>
<trkpt lat="47.74316" lon="18.997904">
<ele>332.3922968</ele></trkpt>
<trkpt lat="47.742898" lon="18.997634">
<ele>335.379481034</ele></trkpt>
<trkpt lat="47.7427" lon="18.997603">
<ele>337.245233425</ele></trkpt>
<trkpt lat="47.742475" lon="18.997387">
<ele>347.421614824</ele></trkpt>
<trkpt lat="47.7424357355" lon="18.9974125551">
<ele>347.395910741</ele></trkpt>
<trkpt lat="47.741948" lon="18.99773">
<ele>339.743284979</ele></trkpt>
<trkpt lat="47.741829" lon="18.997702">
<ele>339.823531576</ele></trkpt>
<trkpt lat="47.7416073831" lon="18.9975396721">
<ele>341.65474248</ele></trkpt>
<trkpt lat="47.741287" lon="18.997305">
<ele>346.225952072</ele></trkpt>
<trkpt lat="47.741091" lon="18.99699">
<ele>346.247432394</ele></trkpt>
<trkpt lat="47.7408489373" lon="18.996874642">
<ele>346.266351732</ele></trkpt>
<trkpt lat="47.740835" lon="18.996868">
<ele>346.267441054</ele></trkpt>
<trkpt lat="47.740814" lon="18.99678">
<ele>344.272114829</ele></trkpt>
<trkpt lat="47.740517" lon="18.996794">
<ele>344.294231628</ele></trkpt>
<trkpt lat="47.7399956989" lon="18.9966972087">
<ele>344.0</ele></trkpt>
<trkpt lat="47.739833" lon="18.996667">
<ele>346.085347501</ele></trkpt>
<trkpt lat="47.739475" lon="18.996107">
<ele>356.027293432</ele></trkpt>
<trkpt lat="47.7393558273" lon="18.9958384792">
<ele>358.779061148</ele></trkpt>
<trkpt lat="47.739242" lon="18.995582">
<ele>369.074087617</ele></trkpt>
<trkpt lat="47.739215" lon="18.995296">
<ele>369.565057863</ele></trkpt>
<trkpt lat="47.7389414714" lon="18.9946753116">
<ele>364.826602118</ele></trkpt>
<trkpt lat="47.738591" lon="18.99388">
<ele>368.95470236</ele></trkpt>
<trkpt lat="47.7383866803" lon="18.9936397699">
<ele>368.093837214</ele></trkpt>
<trkpt lat="47.738261" lon="18.993492">
<ele>358.564303891</ele></trkpt>
<trkpt lat="47.7376045888" lon="18.9929849359">
<ele>363.786264206</ele></trkpt>
<trkpt lat="47.737527" lon="18.992925">
<ele>362.752774169</ele></trkpt>
<trkpt lat="47.737374" lon="18.992885">
<ele>351.916548297</ele></trkpt>
<trkpt lat="47.737254" lon="18.992917">
<ele>350.475498943</ele></trkpt>
<trkpt lat="47.737084" lon="18.992896">
<ele>348.51035892</ele></trkpt>
<trkpt lat="47.736833" lon="18.992623">
<ele>344.927838109</ele></trkpt>
<trkpt lat="47.7368080212" lon="18.9925523777">
<ele>344.309631439</ele></trkpt>
<trkpt lat="47.736665" lon="18.992148">
<ele>338.103188653</ele></trkpt>
<trkpt lat="47.736556" lon="18.992041">
<ele>337.714960596</ele></trkpt>
<trkpt lat="47.736327" lon="18.992299">
<ele>336.860957825</ele></trkpt>
<trkpt lat="47.7361633745" lon="18.9922078577">
<ele>336.341593896</ele></trkpt>
<trkpt lat="47.736099" lon="18.992172">
<ele>336.137262563</ele></trkpt>
<trkpt lat="47.735676" lon="18.991889">
<ele>333.091864187</ele></trkpt>
<trkpt lat="47.7353325791" lon="18.9916951428">
<ele>332.0</ele></trkpt>
<trkpt lat="47.735079" lon="18.991552">
<ele>334.838589296</ele></trkpt>
<trkpt lat="47.734687" lon="18.991355">
<ele>335.784557626</ele></trkpt>
<trkpt lat="47.7344745151" lon="18.9913071975">
<ele>336.448974106</ele></trkpt>
<trkpt lat="47.733878" lon="18.991173">
<ele>339.314209904</ele></trkpt>
<trkpt lat="47.7336135241" lon="18.9909733118">
<ele>339.610530159</ele></trkpt>
<trkpt lat="47.73358" lon="18.990948">
<ele>339.648090723</ele></trkpt>
<trkpt lat="47.733399" lon="18.990883">
<ele>339.834105044</ele></trkpt>
<trkpt lat="47.732877" lon="18.99097">
<ele>339.807796191</ele></trkpt>
<trkpt lat="47.7327262699" lon="18.9909608821">
<ele>340.326897172</ele></trkpt>
<trkpt lat="47.732348" lon="18.990938">
<ele>342.629625281</ele></trkpt>
<trkpt lat="47.7318372018" lon="18.9907828721">
<ele>346.090276173</ele></trkpt>
<trkpt lat="47.731212" lon="18.990593">
<ele>346.487986158</ele></trkpt>
<trkpt lat="47.7309513767" lon="18.9906301166">
<ele>346.509109226</ele></trkpt>
<trkpt lat="47.730889" lon="18.990639">
<ele>346.514164752</ele></trkpt>
<trkpt lat="47.730827" lon="18.990629">
<ele>347.185862864</ele></trkpt>
<trkpt lat="47.730759" lon="18.990505">
<ele>347.194544866</ele></trkpt>
<trkpt lat="47.730803" lon="18.99015">
<ele>347.214133639</ele></trkpt>
<trkpt lat="47.73067" lon="18.989806">
<ele>347.302809179</ele></trkpt>
<trkpt lat="47.7305348826" lon="18.9896853595">
<ele>347.158322794</ele></trkpt>
<trkpt lat="47.730502" lon="18.989656">
<ele>347.123160054</ele></trkpt>
<trkpt lat="47.730215" lon="18.989543">
<ele>346.850989097</ele></trkpt>
<trkpt lat="47.729925" lon="18.989512">
<ele>345.251118284</ele></trkpt>
<trkpt lat="47.729651362" lon="18.9895307611">
<ele>345.0</ele></trkpt>
<trkpt lat="47.729327" lon="18.989553">
<ele>345.530400207</ele></trkpt>
<trkpt lat="47.7287926176" lon="18.9898694833">
<ele>347.136680165</ele></trkpt>
<trkpt lat="47.72827" lon="18.990179">
<ele>349.055607993</ele></trkpt>
<trkpt lat="47.7279413644" lon="18.9902923766">
<ele>349.131334178</ele></trkpt>
<trkpt lat="47.727641" lon="18.990396">
<ele>349.200545964</ele></trkpt>
<trkpt lat="47.7270494696" lon="18.9904076258">
<ele>349.0</ele></trkpt>
<trkpt lat="47.7261496202" lon="18.9904253112">
<ele>351.831166058</ele></trkpt>
<trkpt lat="47.725504" lon="18.990438">
<ele>354.717475462</ele></trkpt>
<trkpt lat="47.7252542698" lon="18.9903670355">
<ele>355.27085709</ele></trkpt>
<trkpt lat="47.724582" lon="18.990176">
<ele>357.113754777</ele></trkpt>
<trkpt lat="47.7243671975" lon="18.9902014958">
<ele>357.020775824</ele></trkpt>
<trkpt lat="47.724245" lon="18.990216">
<ele>356.967881687</ele></trkpt>
<trkpt lat="47.7234827726" lon="18.9899892373">
<ele>355.965804147</ele></trkpt>
<trkpt lat="47.723445" lon="18.989978">
<ele>355.999610133</ele></trkpt>
<trkpt lat="47.723399" lon="18.989739">
<ele>356.14636769</ele></trkpt>
<trkpt lat="47.723367" lon="18.989611">
<ele>356.391831355</ele></trkpt>
<trkpt lat="47.723406" lon="18.989241">
<ele>357.065045818</ele></trkpt>
<trkpt lat="47.723251" lon="18.988777">
<ele>358.996293788</ele></trkpt>
<trkpt lat="47.7232501135" lon="18.9887745468">
<ele>359.001299478</ele></trkpt>
<trkpt lat="47.723208" lon="18.988658">
<ele>359.239111273</ele></trkpt>
<trkpt lat="47.722821" lon="18.988428">
<ele>360.35280994</ele></trkpt>
<trkpt lat="47.722661" lon="18.988325">
<ele>361.936741793</ele></trkpt>
<trkpt lat="47.7225000467" lon="18.9881025089">
<ele>363.093018293</ele></trkpt>
<trkpt lat="47.722049" lon="18.987479">
<ele>369.0</ele></trkpt>
<trkpt lat="47.722052" lon="18.987168">
<ele>369.758639724</ele></trkpt>
<trkpt lat="47.7220972052" lon="18.9870795103">
<ele>370.029653111</ele></trkpt>
<trkpt lat="47.722381" lon="18.986524">
<ele>374.064340552</ele></trkpt>
<trkpt lat="47.722337" lon="18.986236">
<ele>374.78468624</ele></trkpt>
<trkpt lat="47.72214" lon="18.986143">
<ele>375.534102429</ele></trkpt>
<trkpt lat="47.7221178418" lon="18.9861611624">
<ele>375.625845743</ele></trkpt>
<trkpt lat="47.721957" lon="18.986293">
<ele>376.29179154</ele></trkpt>
<trkpt lat="47.721527" lon="18.986919">
<ele>380.965263662</ele></trkpt>
<trkpt lat="47.721476" lon="18.986834">
<ele>381.348044292</ele></trkpt>
<trkpt lat="47.7214494196" lon="18.9867941297">
<ele>381.53669196</ele></trkpt>
<trkpt lat="47.721312" lon="18.986588">
<ele>385.137253783</ele></trkpt>
<trkpt lat="47.72128" lon="18.986372">
<ele>385.594973083</ele></trkpt>
<trkpt lat="47.720938" lon="18.985922">
<ele>387.0</ele></trkpt>
<trkpt lat="47.7208652228" lon="18.9860221331">
<ele>387.0</ele></trkpt>
<trkpt lat="47.720797" lon="18.986116">
<ele>390.666666667</ele></trkpt>
<trkpt lat="47.720741" lon="18.986045">
<ele>390.666666667</ele></trkpt>
<trkpt lat="47.720741" lon="18.986045">
<ele>390.666666667</ele></trkpt>
<trkpt lat="47.720797" lon="18.986116">
<ele>390.666666667</ele></trkpt>
<trkpt lat="47.720938" lon="18.985922">
<ele>389.580965202</ele></trkpt>
<trkpt lat="47.72128" lon="18.986372">
<ele>387.0</ele></trkpt>
<trkpt lat="47.7212823411" lon="18.9863878035">
<ele>386.959974216</ele></trkpt>
<trkpt lat="47.721312" lon="18.986588">
<ele>385.337471208</ele></trkpt>
<trkpt lat="47.721476" lon="18.986834">
<ele>382.596300574</ele></trkpt>
<trkpt lat="47.721527" lon="18.986919">
<ele>381.897728683</ele></trkpt>
<trkpt lat="47.7218502174" lon="18.9864484549">
<ele>377.773027703</ele></trkpt>
<trkpt lat="47.721957" lon="18.986293">
<ele>376.881212354</ele></trkpt>
<trkpt lat="47.72214" lon="18.986143">
<ele>375.634287822</ele></trkpt>
<trkpt lat="47.722337" lon="18.986236">
<ele>374.635145459</ele></trkpt>
<trkpt lat="47.722381" lon="18.986524">
<ele>373.674761129</ele></trkpt>
<trkpt lat="47.7222986794" lon="18.9866851355">
<ele>370.683466379</ele></trkpt>
<trkpt lat="47.722052" lon="18.987168">
<ele>368.711804754</ele></trkpt>
<trkpt lat="47.722049" lon="18.987479">
<ele>367.133367786</ele></trkpt>
<trkpt lat="47.7222560926" lon="18.9877652779">
<ele>365.0</ele></trkpt>
<trkpt lat="47.722661" lon="18.988325">
<ele>361.908087919</ele></trkpt>
<trkpt lat="47.722821" lon="18.988428">
<ele>360.686875042</ele></trkpt>
<trkpt lat="47.7229813014" lon="18.9885232697">
<ele>360.137801621</ele></trkpt>
<trkpt lat="47.723208" lon="18.988658">
<ele>359.361301418</ele></trkpt>
<trkpt lat="47.723251" lon="18.988777">
<ele>359.024326408</ele></trkpt>
<trkpt lat="47.723406" lon="18.989241">
<ele>357.731968068</ele></trkpt>
<trkpt lat="47.7233725003" lon="18.9895588172">
<ele>357.421998758</ele></trkpt>
<trkpt lat="47.723367" lon="18.989611">
<ele>357.371104506</ele></trkpt>
<trkpt lat="47.723399" lon="18.989739">
<ele>357.239528622</ele></trkpt>
<trkpt lat="47.723445" lon="18.989978">
<ele>357.0</ele></trkpt>
<trkpt lat="47.7240385363" lon="18.9901545771">
<ele>360.303252449</ele></trkpt>
<trkpt lat="47.724245" lon="18.990216">
<ele>361.402472118</ele></trkpt>
<trkpt lat="47.724617" lon="18.99106">
<ele>369.020572706</ele></trkpt>
<trkpt lat="47.7246150708" lon="18.99107549">
<ele>369.093319515</ele></trkpt>
<trkpt lat="47.724557" lon="18.991542">
<ele>371.284189644</ele></trkpt>
<trkpt lat="47.724418" lon="18.9919">
<ele>377.526346992</ele></trkpt>
<trkpt lat="47.7246918742" lon="18.9920917126">
<ele>379.444055403</ele></trkpt>
<trkpt lat="47.725248" lon="18.992481">
<ele>383.671457841</ele></trkpt>
<trkpt lat="47.7255313018" lon="18.9924317677">
<ele>386.626495807</ele></trkpt>
<trkpt lat="47.725576" lon="18.992424">
<ele>387.092729431</ele></trkpt>
<trkpt lat="47.726242" lon="18.992767">
<ele>401.728261576</ele></trkpt>
<trkpt lat="47.726376905" lon="18.9928647966">
<ele>403.296218595</ele></trkpt>
<trkpt lat="47.726591" lon="18.99302">
<ele>405.784572282</ele></trkpt>
<trkpt lat="47.72678" lon="18.993307">
<ele>406.787151643</ele></trkpt>
<trkpt lat="47.726947" lon="18.993811">
<ele>416.187659274</ele></trkpt>
<trkpt lat="47.7269486976" lon="18.9938311212">
<ele>416.322429768</ele></trkpt>
<trkpt lat="47.72698" lon="18.994202">
<ele>424.139898696</ele></trkpt>
<trkpt lat="47.727166" lon="18.994487">
<ele>425.761987314</ele></trkpt>
<trkpt lat="47.7274876433" lon="18.9947916651">
<ele>428.078017687</ele></trkpt>
<trkpt lat="47.727507" lon="18.99481">
<ele>427.858624831</ele></trkpt>
<trkpt lat="47.727591" lon="18.995133">
<ele>425.631981123</ele></trkpt>
<trkpt lat="47.727558" lon="18.995353">
<ele>428.898131946</ele></trkpt>
<trkpt lat="47.727233" lon="18.995772">
<ele>440.315494093</ele></trkpt>
<trkpt lat="47.7271962359" lon="18.9958466419">
<ele>444.785154805</ele></trkpt>
<trkpt lat="47.727101" lon="18.99604">
<ele>446.86528889</ele></trkpt>
<trkpt lat="47.727042" lon="18.996327">
<ele>449.470151145</ele></trkpt>
<trkpt lat="47.727011" lon="18.996898">
<ele>455.775811972</ele></trkpt>
<trkpt lat="47.7270343763" lon="18.9971205491">
<ele>457.730920427</ele></trkpt>
<trkpt lat="47.727117" lon="18.997907">
<ele>462.659195189</ele></trkpt>
<trkpt lat="47.7272434086" lon="18.9984152297">
<ele>468.000001763</ele></trkpt>
<trkpt lat="47.7275555497" lon="18.9996700368">
<ele>464.628820874</ele></trkpt>
<trkpt lat="47.727614" lon="18.999905">
<ele>466.244567927</ele></trkpt>
<trkpt lat="47.7277011439" lon="19.0009846099">
<ele>480.590980517</ele></trkpt>
<trkpt lat="47.727735" lon="19.001404">
<ele>482.433230024</ele></trkpt>
<trkpt lat="47.7279407316" lon="19.0022668741">
<ele>493.284873179</ele></trkpt>
<trkpt lat="47.727941" lon="19.002268">
<ele>493.294248295</ele></trkpt>
<trkpt lat="47.728032" lon="19.003079">
<ele>503.413869527</ele></trkpt>
<trkpt lat="47.7281500031" lon="19.0035626475">
<ele>510.44646218</ele></trkpt>
<trkpt lat="47.728174" lon="19.003661">
<ele>511.402084874</ele></trkpt>
<trkpt lat="47.7287322047" lon="19.0045732859">
<ele>529.0</ele></trkpt>
<trkpt lat="47.728885" lon="19.004823">
<ele>529.865854281</ele></trkpt>
<trkpt lat="47.729096" lon="19.005612">
<ele>533.043641438</ele></trkpt>
<trkpt lat="47.7291462304" lon="19.0057435362">
<ele>533.431598422</ele></trkpt>
<trkpt lat="47.729311" lon="19.006175">
<ele>537.037511761</ele></trkpt>
<trkpt lat="47.729308" lon="19.00689">
<ele>537.46259243</ele></trkpt>
<trkpt lat="47.7293468467" lon="19.0070028078">
<ele>537.537935475</ele></trkpt>
<trkpt lat="47.7297570588" lon="19.0081936405">
<ele>538.0</ele></trkpt>
<trkpt lat="47.729906" lon="19.008626">
<ele>537.756917488</ele></trkpt>
<trkpt lat="47.7301710323" lon="19.0093815973">
<ele>540.166666675</ele></trkpt>
<trkpt lat="47.730275" lon="19.009678">
<ele>539.952146982</ele></trkpt>
<trkpt lat="47.7305045485" lon="19.0106218449">
<ele>538.641415437</ele></trkpt>
<trkpt lat="47.730696" lon="19.011409">
<ele>538.459761418</ele></trkpt>
<trkpt lat="47.7307984802" lon="19.0118861773">
<ele>540.210276351</ele></trkpt>
<trkpt lat="47.730856" lon="19.012154">
<ele>547.900289837</ele></trkpt>
<trkpt lat="47.7310731564" lon="19.0131602877">
<ele>553.0</ele></trkpt>
<trkpt lat="47.73108" lon="19.013192">
<ele>552.963026505</ele></trkpt>
<trkpt lat="47.731608" lon="19.013995">
<ele>551.049701301</ele></trkpt>
<trkpt lat="47.7317170582" lon="19.0140770021">
<ele>553.514654172</ele></trkpt>
<trkpt lat="47.732132" lon="19.014389">
<ele>550.413847072</ele></trkpt>
<trkpt lat="47.732566784" lon="19.0144063048">
<ele>545.504324534</ele></trkpt>
<trkpt lat="47.733137" lon="19.014429">
<ele>543.0</ele></trkpt>
<trkpt lat="47.7334530136" lon="19.0142902358">
<ele>534.703892192</ele></trkpt>
<trkpt lat="47.73372" lon="19.014173">
<ele>533.045628315</ele></trkpt>
<trkpt lat="47.734026" lon="19.013543">
<ele>532.598957216</ele></trkpt>
<trkpt lat="47.7341028077" lon="19.0134504191">
<ele>532.009977554</ele></trkpt>
<trkpt lat="47.73425" lon="19.013273">
<ele>527.977017656</ele></trkpt>
<trkpt lat="47.7349216817" lon="19.0129288622">
<ele>522.854325065</ele></trkpt>
<trkpt lat="47.735181" lon="19.012796">
<ele>513.533661202</ele></trkpt>
<trkpt lat="47.735518" lon="19.012477">
<ele>512.334723321</ele></trkpt>
<trkpt lat="47.7357412508" lon="19.0124233704">
<ele>510.033443197</ele></trkpt>
<trkpt lat="47.7366296585" lon="19.0122099568">
<ele>495.542364992</ele></trkpt>
<trkpt lat="47.737333" lon="19.012041">
<ele>484.192985833</ele></trkpt>
<trkpt lat="47.7375204643" lon="19.012042399">
<ele>483.001154697</ele></trkpt>
<trkpt lat="47.737601" lon="19.012043">
<ele>482.632339487</ele></trkpt>
<trkpt lat="47.737653" lon="19.01213">
<ele>482.27386912</ele></trkpt>
<trkpt lat="47.737653" lon="19.01213">
<ele>482.27386912</ele></trkpt>
<trkpt lat="47.737949" lon="19.0122">
<ele>482.222400446</ele></trkpt>
<trkpt lat="47.737996" lon="19.012208">
<ele>482.214276786</ele></trkpt>
<trkpt lat="47.738295" lon="19.012236">
<ele>482.162830065</ele></trkpt>
<trkpt lat="47.7383894927" lon="19.012235256">
<ele>482.81326999</ele></trkpt>
<trkpt lat="47.738549" lon="19.012234">
<ele>482.785878631</ele></trkpt>
<trkpt lat="47.738369" lon="19.012465">
<ele>482.745048378</ele></trkpt>
<trkpt lat="47.738682" lon="19.012959">
<ele>482.0</ele></trkpt>
<trkpt lat="47.7387099602" lon="19.0130136979">
<ele>482.371029524</ele></trkpt>
<trkpt lat="47.738842" lon="19.013272">
<ele>484.123163457</ele></trkpt>
<trkpt lat="47.7388614702" lon="19.0142852953">
<ele>494.264156846</ele></trkpt>
<trkpt lat="47.738873" lon="19.014885">
<ele>495.941115646</ele></trkpt>
<trkpt lat="47.738714" lon="19.015558">
<ele>498.9349675</ele></trkpt>
<trkpt lat="47.7387129765" lon="19.0155828444">
<ele>498.948113874</ele></trkpt>
<trkpt lat="47.7387" lon="19.015898">
<ele>499.781544324</ele></trkpt>
<trkpt lat="47.738811" lon="19.016565">
<ele>500.144451852</ele></trkpt>
<trkpt lat="47.7388760524" lon="19.0168860381">
<ele>500.282590472</ele></trkpt>
<trkpt lat="47.738888" lon="19.016945">
<ele>500.246740971</ele></trkpt>
<trkpt lat="47.738987" lon="19.01719">
<ele>500.080345815</ele></trkpt>
<trkpt lat="47.739288" lon="19.017619">
<ele>498.719424436</ele></trkpt>
<trkpt lat="47.7394243495" lon="19.0179294393">
<ele>498.503571824</ele></trkpt>
<trkpt lat="47.739765" lon="19.018705">
<ele>497.845187836</ele></trkpt>
<trkpt lat="47.7398536956" lon="19.0190951637">
<ele>498.33525913</ele></trkpt>
<trkpt lat="47.739938" lon="19.019466">
<ele>499.801054715</ele></trkpt>
<trkpt lat="47.740038" lon="19.020239">
<ele>506.966634178</ele></trkpt>
<trkpt lat="47.7400259514" lon="19.020397558">
<ele>507.270477376</ele></trkpt>
<trkpt lat="47.739931" lon="19.021648">
<ele>506.0</ele></trkpt>
<trkpt lat="47.7399157862" lon="19.0217245296">
<ele>504.863463834</ele></trkpt>
<trkpt lat="47.739898" lon="19.021814">
<ele>504.703840155</ele></trkpt>
<trkpt lat="47.739841" lon="19.02202">
<ele>504.322725468</ele></trkpt>
<trkpt lat="47.739559" lon="19.022853">
<ele>502.393803594</ele></trkpt>
<trkpt lat="47.739535705" lon="19.0229355704">
<ele>502.240604693</ele></trkpt>
<trkpt lat="47.739447" lon="19.02325">
<ele>501.813831951</ele></trkpt>
<trkpt lat="47.7390438411" lon="19.0240468853">
<ele>498.899036959</ele></trkpt>
<trkpt lat="47.738934" lon="19.024264">
<ele>499.22564705</ele></trkpt>
<trkpt lat="47.738767" lon="19.024662">
<ele>498.958220609</ele></trkpt>
<trkpt lat="47.7387746128" lon="19.0252592497">
<ele>498.057304218</ele></trkpt>
<trkpt lat="47.738781" lon="19.02576">
<ele>497.581427223</ele></trkpt>
<trkpt lat="47.7387893297" lon="19.0265972267">
<ele>495.452509995</ele></trkpt>
<trkpt lat="47.7388026858" lon="19.0279352389">
<ele>499.690810254</ele></trkpt>
<trkpt lat="47.738807" lon="19.028367">
<ele>504.821045631</ele></trkpt>
<trkpt lat="47.738923" lon="19.028632">
<ele>506.987644806</ele></trkpt>
<trkpt lat="47.7391467024" lon="19.0291194737">
<ele>511.031450861</ele></trkpt>
<trkpt lat="47.739582" lon="19.030068">
<ele>525.89996695</ele></trkpt>
<trkpt lat="47.739617079" lon="19.0302505306">
<ele>527.021986341</ele></trkpt>
<trkpt lat="47.739641" lon="19.030375">
<ele>527.787102743</ele></trkpt>
<trkpt lat="47.739762" lon="19.030861">
<ele>530.442727545</ele></trkpt>
<trkpt lat="47.740008" lon="19.031366">
<ele>536.16925797</ele></trkpt>
<trkpt lat="47.7400246373" lon="19.0314281873">
<ele>536.426120489</ele></trkpt>
<trkpt lat="47.740149" lon="19.031893">
<ele>539.346031122</ele></trkpt>
<trkpt lat="47.740229" lon="19.03207">
<ele>539.671455103</ele></trkpt>
<trkpt lat="47.7404088329" lon="19.0326345403">
<ele>540.624662621</ele></trkpt>
<trkpt lat="47.7407941032" lon="19.033843907">
<ele>543.0</ele></trkpt>
<trkpt lat="47.740797" lon="19.033853">
<ele>543.043859521</ele></trkpt>
<trkpt lat="47.740838" lon="19.034914">
<ele>551.676443307</ele></trkpt>
<trkpt lat="47.7408666431" lon="19.0351759593">
<ele>552.833332893</ele></trkpt>
<trkpt lat="47.740893" lon="19.035417">
<ele>553.122956487</ele></trkpt>
<trkpt lat="47.741009" lon="19.035955">
<ele>553.459672071</ele></trkpt>
<trkpt lat="47.74101" lon="19.036083">
<ele>553.611487293</ele></trkpt>
<trkpt lat="47.7409751399" lon="19.0364806597">
<ele>554.087092412</ele></trkpt>
<trkpt lat="47.740934" lon="19.03695">
<ele>553.753407717</ele></trkpt>
<trkpt lat="47.74103" lon="19.037773">
<ele>552.146039506</ele></trkpt>
<trkpt lat="47.7410343243" lon="19.0378018995">
<ele>552.112696934</ele></trkpt>
<trkpt lat="47.7412304166" lon="19.0391079591">
<ele>549.938936972</ele></trkpt>
<trkpt lat="47.741307" lon="19.039618">
<ele>548.775235809</ele></trkpt>
<trkpt lat="47.7415110855" lon="19.0403750603">
<ele>544.889973781</ele></trkpt>
<trkpt lat="47.741517" lon="19.040397">
<ele>544.816018492</ele></trkpt>
<trkpt lat="47.741505" lon="19.040595">
<ele>544.194004232</ele></trkpt>
<trkpt lat="47.7414" lon="19.041107">
<ele>539.289018921</ele></trkpt>
<trkpt lat="47.741369" lon="19.041482">
<ele>537.473835391</ele></trkpt>
<trkpt lat="47.7412883176" lon="19.041645367">
<ele>536.500043304</ele></trkpt>
<trkpt lat="47.741007" lon="19.042215">
<ele>530.437959203</ele></trkpt>
<trkpt lat="47.740882" lon="19.042318">
<ele>530.395591756</ele></trkpt>
<trkpt lat="47.7406984401" lon="19.0420001449">
<ele>533.779234834</ele></trkpt>
<trkpt lat="47.74061" lon="19.041847">
<ele>534.445883302</ele></trkpt>
<trkpt lat="47.740534" lon="19.041749">
<ele>534.939888256</ele></trkpt>
<trkpt lat="47.740369" lon="19.041765">
<ele>535.75189731</ele></trkpt>
<trkpt lat="47.740128" lon="19.04203">
<ele>537.223839398</ele></trkpt>
<trkpt lat="47.7399357621" lon="19.0421035519">
<ele>539.865304491</ele></trkpt>
<trkpt lat="47.739783" lon="19.042162">
<ele>540.436990428</ele></trkpt>
<trkpt lat="47.7393218573" lon="19.0430267524">
<ele>544.126910979</ele></trkpt>
<trkpt lat="47.739262" lon="19.043139">
<ele>544.476070166</ele></trkpt>
<trkpt lat="47.738956839" lon="19.0442444111">
<ele>548.179321983</ele></trkpt>
<trkpt lat="47.738825" lon="19.044722">
<ele>548.159030896</ele></trkpt>
<trkpt lat="47.7384802175" lon="19.0453644073">
<ele>547.126729012</ele></trkpt>
<trkpt lat="47.738379" lon="19.045553">
<ele>547.422381489</ele></trkpt>
<trkpt lat="47.738192" lon="19.045994">
<ele>549.727859457</ele></trkpt>
<trkpt lat="47.7378445511" lon="19.0462475882">
<ele>549.435643867</ele></trkpt>
<trkpt lat="47.73777" lon="19.046302">
<ele>549.372943942</ele></trkpt>
<trkpt lat="47.737589" lon="19.046689">
<ele>548.466932598</ele></trkpt>
<trkpt lat="47.737547" lon="19.046876">
<ele>548.229438529</ele></trkpt>
<trkpt lat="47.737358" lon="19.047308">
<ele>547.275283687</ele></trkpt>
<trkpt lat="47.7373470302" lon="19.0473340608">
<ele>547.238248179</ele></trkpt>
<trkpt lat="47.737108" lon="19.047902">
<ele>546.431166329</ele></trkpt>
<trkpt lat="47.736925" lon="19.048252">
<ele>545.897116381</ele></trkpt>
<trkpt lat="47.7367998584" lon="19.048378156">
<ele>542.805925721</ele></trkpt>
<trkpt lat="47.736309" lon="19.048873">
<ele>540.385066569</ele></trkpt>
<trkpt lat="47.7361081943" lon="19.0492180669">
<ele>535.269848466</ele></trkpt>
<trkpt lat="47.735826" lon="19.049703">
<ele>532.485704088</ele></trkpt>
<trkpt lat="47.73554" lon="19.05006">
<ele>527.164488563</ele></trkpt>
<trkpt lat="47.7354948507" lon="19.0501846696">
<ele>526.402520587</ele></trkpt>
<trkpt lat="47.735234" lon="19.050905">
<ele>517.0</ele></trkpt>
<trkpt lat="47.734930198" lon="19.0511625225">
<ele>519.995834999</ele></trkpt>
<trkpt lat="47.734827" lon="19.05125">
<ele>519.767961134</ele></trkpt>
<trkpt lat="47.7341875558" lon="19.0519170745">
<ele>514.602850809</ele></trkpt>
<trkpt lat="47.734179" lon="19.051926">
<ele>514.50627523</ele></trkpt>
<trkpt lat="47.734001" lon="19.052287">
<ele>511.391109301</ele></trkpt>
<trkpt lat="47.73375" lon="19.052971">
<ele>502.882008005</ele></trkpt>
<trkpt lat="47.7336985226" lon="19.0530284379">
<ele>502.465091599</ele></trkpt>
<trkpt lat="47.733655" lon="19.053077">
<ele>502.112601184</ele></trkpt>
<trkpt lat="47.733479" lon="19.053475">
<ele>494.704027523</ele></trkpt>
<trkpt lat="47.733429" lon="19.053942">
<ele>495.344471366</ele></trkpt>
<trkpt lat="47.7333328254" lon="19.0542147048">
<ele>498.094836594</ele></trkpt>
<trkpt lat="47.733277" lon="19.054373">
<ele>498.336908193</ele></trkpt>
<trkpt lat="47.733311" lon="19.054746">
<ele>498.846699195</ele></trkpt>
<trkpt lat="47.7328989128" lon="19.0552333558">
<ele>499.240335108</ele></trkpt>
<trkpt lat="47.7321946274" lon="19.0560662971">
<ele>511.52443578</ele></trkpt>
<trkpt lat="47.732134" lon="19.056138">
<ele>512.070494412</ele></trkpt>
<trkpt lat="47.731866" lon="19.056627">
<ele>512.864174274</ele></trkpt>
<trkpt lat="47.731834" lon="19.056843">
<ele>509.475803916</ele></trkpt>
<trkpt lat="47.7317993067" lon="19.0572102402">
<ele>509.942419187</ele></trkpt>
<trkpt lat="47.731793" lon="19.057277">
<ele>510.027244142</ele></trkpt>
<trkpt lat="47.731695" lon="19.057681">
<ele>503.234293243</ele></trkpt>
<trkpt lat="47.731618" lon="19.058005">
<ele>516.0</ele></trkpt>
<trkpt lat="47.731505" lon="19.058181">
<ele>515.897770211</ele></trkpt>
<trkpt lat="47.731444" lon="19.058252">
<ele>515.849377102</ele></trkpt>
<trkpt lat="47.7314216903" lon="19.0581170469">
<ele>515.790987888</ele></trkpt>
<trkpt lat="47.731383" lon="19.057883">
<ele>515.689724509</ele></trkpt>
<trkpt lat="47.731383" lon="19.057883">
<ele>515.689724509</ele></trkpt>
<trkpt lat="47.731444" lon="19.058252">
<ele>515.530072053</ele></trkpt>
<trkpt lat="47.7310020785" lon="19.0579649993">
<ele>515.228827862</ele></trkpt>
<trkpt lat="47.730999" lon="19.057963">
<ele>515.214348845</ele></trkpt>
<trkpt lat="47.73068" lon="19.057928">
<ele>512.502367522</ele></trkpt>
<trkpt lat="47.730276" lon="19.058045">
<ele>510.728375083</ele></trkpt>
<trkpt lat="47.7301344972" lon="19.0579185125">
<ele>510.016740332</ele></trkpt>
<trkpt lat="47.729588" lon="19.05743">
<ele>500.301916207</ele></trkpt>
<trkpt lat="47.729537" lon="19.05737">
<ele>499.824859369</ele></trkpt>
<trkpt lat="47.729395" lon="19.057385">
<ele>498.780633988</ele></trkpt>
<trkpt lat="47.7293723846" lon="19.0573106923">
<ele>498.378223316</ele></trkpt>
<trkpt lat="47.729353" lon="19.057247">
<ele>498.033299664</ele></trkpt>
<trkpt lat="47.729081" lon="19.05709">
<ele>492.893024849</ele></trkpt>
<trkpt lat="47.7285261765" lon="19.0572146621">
<ele>488.777062263</ele></trkpt>
<trkpt lat="47.72836" lon="19.057252">
<ele>486.6202711</ele></trkpt>
<trkpt lat="47.728087" lon="19.057311">
<ele>479.746655375</ele></trkpt>
<trkpt lat="47.7276344856" lon="19.057394597">
<ele>473.367356145</ele></trkpt>
<trkpt lat="47.727589" lon="19.057403">
<ele>472.726125068</ele></trkpt>
<trkpt lat="47.727447" lon="19.057537">
<ele>464.706479497</ele></trkpt>
<trkpt lat="47.726927" lon="19.057648">
<ele>459.061780859</ele></trkpt>
<trkpt lat="47.726788527" lon="19.0577688619">
<ele>457.336401785</ele></trkpt>
<trkpt lat="47.7260124742" lon="19.0584462387">
<ele>440.0</ele></trkpt>
<trkpt lat="47.725708" lon="19.058712">
<ele>435.273896828</ele></trkpt>
<trkpt lat="47.725497" lon="19.059248">
<ele>426.320657237</ele></trkpt>
<trkpt lat="47.7254076747" lon="19.0591094546">
<ele>430.53540293</ele></trkpt>
<trkpt lat="47.725399" lon="19.059096">
<ele>430.323138665</ele></trkpt>
<trkpt lat="47.725336" lon="19.059373">
<ele>421.659428184</ele></trkpt>
<trkpt lat="47.72533" lon="19.059709">
<ele>417.831160956</ele></trkpt>
<trkpt lat="47.72515" lon="19.059513">
<ele>414.053343046</ele></trkpt>
<trkpt lat="47.725101" lon="19.059399">
<ele>412.512491667</ele></trkpt>
<trkpt lat="47.7250787247" lon="19.0591777842">
<ele>409.964838914</ele></trkpt>
<trkpt lat="47.725072" lon="19.059111">
<ele>414.529046329</ele></trkpt>
<trkpt lat="47.725018" lon="19.059219">
<ele>407.663044167</ele></trkpt>
<trkpt lat="47.724968" lon="19.059681">
<ele>394.0</ele></trkpt>
<trkpt lat="47.724998" lon="19.059782">
<ele>393.636094126</ele></trkpt>
<trkpt lat="47.724946" lon="19.05988">
<ele>393.22469197</ele></trkpt>
<trkpt lat="47.724755" lon="19.059586">
<ele>391.877530306</ele></trkpt>
<trkpt lat="47.7247501406" lon="19.0595633006">
<ele>391.799015241</ele></trkpt>
<trkpt lat="47.724688" lon="19.059273">
<ele>390.794899756</ele></trkpt>
<trkpt lat="47.724711" lon="19.058662">
<ele>390.777873671</ele></trkpt>
<trkpt lat="47.7245394166" lon="19.0589971848">
<ele>389.389582482</ele></trkpt>
<trkpt lat="47.72441" lon="19.05925">
<ele>383.608519161</ele></trkpt>
<trkpt lat="47.724309" lon="19.059545">
<ele>374.726694423</ele></trkpt>
<trkpt lat="47.724056" lon="19.060021">
<ele>358.448718307</ele></trkpt>
<trkpt lat="47.7240350855" lon="19.0600973534">
<ele>357.402991703</ele></trkpt>
<trkpt lat="47.723841" lon="19.060806">
<ele>347.697619021</ele></trkpt>
<trkpt lat="47.723754" lon="19.060928">
<ele>340.825561069</ele></trkpt>
<trkpt lat="47.7236804141" lon="19.0613074037">
<ele>335.927592604</ele></trkpt>
<trkpt lat="47.723645" lon="19.06149">
<ele>332.244518624</ele></trkpt>
<trkpt lat="47.7235665351" lon="19.0626317972">
<ele>310.0</ele></trkpt>
<trkpt lat="47.723504" lon="19.063542">
<ele>302.62725979</ele></trkpt>
<trkpt lat="47.7235797863" lon="19.0639495459">
<ele>300.914530752</ele></trkpt>
<trkpt lat="47.723602" lon="19.064069">
<ele>300.710284467</ele></trkpt>
<trkpt lat="47.723616" lon="19.064191">
<ele>298.839654808</ele></trkpt>
<trkpt lat="47.723333" lon="19.064446">
<ele>299.028928565</ele></trkpt>
<trkpt lat="47.723124" lon="19.064434">
<ele>298.516531596</ele></trkpt>
<trkpt lat="47.7229453381" lon="19.0645433534">
<ele>298.043189016</ele></trkpt>
<trkpt lat="47.722892" lon="19.064576">
<ele>297.901876425</ele></trkpt>
<trkpt lat="47.722656" lon="19.064996">
<ele>297.0</ele></trkpt>
<trkpt lat="47.722698" lon="19.065595">
<ele>292.275104962</ele></trkpt>
<trkpt lat="47.7226799249" lon="19.0656939342">
<ele>291.380674542</ele></trkpt>
<trkpt lat="47.722622" lon="19.066011">
<ele>288.514198241</ele></trkpt>
<trkpt lat="47.722073" lon="19.06652">
<ele>280.431038014</ele></trkpt>
<trkpt lat="47.7220425098" lon="19.0665338173">
<ele>280.155149253</ele></trkpt>
<trkpt lat="47.721742" lon="19.06667">
<ele>275.102667276</ele></trkpt>
<trkpt lat="47.7212741967" lon="19.0671940329">
<ele>267.699434058</ele></trkpt>
<trkpt lat="47.721143" lon="19.067341">
<ele>266.364076581</ele></trkpt>
<trkpt lat="47.721027" lon="19.067605">
<ele>263.160724295</ele></trkpt>
<trkpt lat="47.720964" lon="19.067976">
<ele>260.891490884</ele></trkpt>
<trkpt lat="47.7208444322" lon="19.0683293717">
<ele>258.545665996</ele></trkpt>
<trkpt lat="47.720807" lon="19.06844">
<ele>257.142568525</ele></trkpt>
<trkpt lat="47.720762" lon="19.069425">
<ele>245.956235116</ele></trkpt>
<trkpt lat="47.7207129122" lon="19.0696395279">
<ele>245.12470971</ele></trkpt>
<trkpt lat="47.720627" lon="19.070015">
<ele>243.002689976</ele></trkpt>
<trkpt lat="47.720548" lon="19.070226">
<ele>242.367042779</ele></trkpt>
<trkpt lat="47.7204770261" lon="19.0709176224">
<ele>239.525395033</ele></trkpt>
<trkpt lat="47.72045" lon="19.071181">
<ele>238.643213776</ele></trkpt>
<trkpt lat="47.720379" lon="19.071672">
<ele>234.980282014</ele></trkpt>
<trkpt lat="47.720368" lon="19.071998">
<ele>233.89947357</ele></trkpt>
<trkpt lat="47.7202817611" lon="19.0722040147">
<ele>233.096041018</ele></trkpt>
<trkpt lat="47.720224" lon="19.072342">
<ele>232.557915603</ele></trkpt>
<trkpt lat="47.71966073" lon="19.0731666362">
<ele>226.0</ele></trkpt>
<trkpt lat="47.719265" lon="19.073746">
<ele>218.004884317</ele></trkpt>
<trkpt lat="47.7191547098" lon="19.0742310817">
<ele>211.826910219</ele></trkpt>
<trkpt lat="47.719152" lon="19.074243">
<ele>211.753985002</ele></trkpt>
<trkpt lat="47.719212" lon="19.074819">
<ele>209.708656455</ele></trkpt>
<trkpt lat="47.7191" lon="19.075333">
<ele>202.910119756</ele></trkpt>
<trkpt lat="47.719077" lon="19.07551">
<ele>201.865145084</ele></trkpt>
<trkpt lat="47.7190687581" lon="19.0755278556">
<ele>201.739622586</ele></trkpt>
<trkpt lat="47.718867" lon="19.075965">
<ele>196.0</ele></trkpt>
<trkpt lat="47.718656" lon="19.076579">
<ele>192.473490847</ele></trkpt>
<trkpt lat="47.7186190532" lon="19.0766835162">
<ele>189.202932939</ele></trkpt>
<trkpt lat="47.718387" lon="19.07734">
<ele>185.409831442</ele></trkpt>
<trkpt lat="47.71831" lon="19.077426">
<ele>184.344243952</ele></trkpt>
<trkpt lat="47.718210544" lon="19.0778540915">
<ele>177.721614368</ele></trkpt>
<trkpt lat="47.718172" lon="19.07802">
<ele>175.45633908</ele></trkpt>
<trkpt lat="47.718351" lon="19.078526">
<ele>168.078194761</ele></trkpt>
<trkpt lat="47.7185118987" lon="19.0790658201">
<ele>163.701641956</ele></trkpt>
<trkpt lat="47.71852" lon="19.079093">
<ele>163.481282414</ele></trkpt>
<trkpt lat="47.718458" lon="19.079481">
<ele>158.301698868</ele></trkpt>
<trkpt lat="47.718265" lon="19.08016">
<ele>149.942148086</ele></trkpt>
<trkpt lat="47.7182437268" lon="19.080329071">
<ele>148.950492108</ele></trkpt>
<trkpt lat="47.718188" lon="19.080772">
<ele>146.352574982</ele></trkpt>
<trkpt lat="47.718237" lon="19.081178">
<ele>141.307805182</ele></trkpt>
<trkpt lat="47.7182571965" lon="19.0816515923">
<ele>139.214408874</ele></trkpt>
<trkpt lat="47.718275" lon="19.082069">
<ele>136.264738709</ele></trkpt>
<trkpt lat="47.7182887826" lon="19.0829881584">
<ele>132.111110569</ele></trkpt>
<trkpt lat="47.718299" lon="19.083669">
<ele>129.137289967</ele></trkpt>
<trkpt lat="47.7184033542" lon="19.0843070382">
<ele>127.555557355</ele></trkpt>
<trkpt lat="47.718448" lon="19.08458">
<ele>126.878869066</ele></trkpt>
<trkpt lat="47.7185948956" lon="19.0856139209">
<ele>123.0</ele></trkpt>
<trkpt lat="47.718604" lon="19.085678">
<ele>122.804155092</ele></trkpt>
<trkpt lat="47.7186495181" lon="19.0869483456">
<ele>116.333335197</ele></trkpt>
<trkpt lat="47.7186974128" lon="19.0882840922">
<ele>114.39159293</ele></trkpt>
<trkpt lat="47.718702" lon="19.088412">
<ele>113.525009241</ele></trkpt>
<trkpt lat="47.718709" lon="19.088577">
<ele>113.197965245</ele></trkpt>
<trkpt lat="47.718738" lon="19.089342">
<ele>111.015609876</ele></trkpt>
<trkpt lat="47.718741" lon="19.089413">
<ele>110.874884178</ele></trkpt>
<trkpt lat="47.718746" lon="19.089507">
<ele>110.688357401</ele></trkpt>
<trkpt lat="47.7187460885" lon="19.0896195801">
<ele>110.465656347</ele></trkpt>
<trkpt lat="47.718747" lon="19.090703">
<ele>106.9891497</ele></trkpt>
<trkpt lat="47.7187204442" lon="19.0909541412">
<ele>105.971015334</ele></trkpt>
<trkpt lat="47.718712" lon="19.091034">
<ele>105.859254386</ele></trkpt>
<trkpt lat="47.718662" lon="19.091281">
<ele>105.502651261</ele></trkpt>
<trkpt lat="47.718252" lon="19.091339">
<ele>106.0</ele></trkpt>
<trkpt lat="47.718252" lon="19.091339">
<ele>106.0</ele></trkpt></trkseg></trk></gpx>