<?xml version="1.0" encoding="utf-8"?>
<gpx xmlns="http://www.topografix.com/GPX/1/1" version="1.1" creator="https://mapy.com/">
	<trk>
		<name>Route from Kismaros, Törökmezei elágazás to Park and ride</name>
		<trkseg>
			<trkpt lat="47.841552" lon="18.951758">
				<ele>236.000000</ele>
			</trkpt>
			<trkpt lat="47.841497" lon="18.951848">
				<ele>236.000000</ele>
			</trkpt>
			<trkpt lat="47.841027" lon="18.952575">
				<ele>236.000000</ele>
			</trkpt>
			<trkpt lat="47.840889" lon="18.952827">
				<ele>237.000000</ele>
			</trkpt>
			<trkpt lat="47.840762" lon="18.953087">
				<ele>237.000000</ele>
			</trkpt>
			<trkpt lat="47.840647" lon="18.952961">
				<ele>233.000000</ele>
			</trkpt>
			<trkpt lat="47.840339" lon="18.952754">
				<ele>226.000000</ele>
			</trkpt>
			<trkpt lat="47.839694" lon="18.952001">
				<ele>220.000000</ele>
			</trkpt>
			<trkpt lat="47.839682" lon="18.951982">
				<ele>220.000000</ele>
			</trkpt>
			<trkpt lat="47.839561" lon="18.951829">
				<ele>220.000000</ele>
			</trkpt>
			<trkpt lat="47.839345" lon="18.951901">
				<ele>220.000000</ele>
			</trkpt>
			<trkpt lat="47.837337" lon="18.952557">
				<ele>224.000000</ele>
			</trkpt>
			<trkpt lat="47.837054" lon="18.952647">
				<ele>228.000000</ele>
			</trkpt>
			<trkpt lat="47.836987" lon="18.952278">
				<ele>236.000000</ele>
			</trkpt>
			<trkpt lat="47.836939" lon="18.952188">
				<ele>239.000000</ele>
			</trkpt>
			<trkpt lat="47.836879" lon="18.952135">
				<ele>240.000000</ele>
			</trkpt>
			<trkpt lat="47.836758" lon="18.952135">
				<ele>242.000000</ele>
			</trkpt>
			<trkpt lat="47.836498" lon="18.952341">
				<ele>246.000000</ele>
			</trkpt>
			<trkpt lat="47.836209" lon="18.952449">
				<ele>249.000000</ele>
			</trkpt>
			<trkpt lat="47.835920" lon="18.952449">
				<ele>250.000000</ele>
			</trkpt>
			<trkpt lat="47.835335" lon="18.952567">
				<ele>250.000000</ele>
			</trkpt>
			<trkpt lat="47.835178" lon="18.952638">
				<ele>250.000000</ele>
			</trkpt>
			<trkpt lat="47.834412" lon="18.952898">
				<ele>250.000000</ele>
			</trkpt>
			<trkpt lat="47.834267" lon="18.953007">
				<ele>250.000000</ele>
			</trkpt>
			<trkpt lat="47.834213" lon="18.952988">
				<ele>250.000000</ele>
			</trkpt>
			<trkpt lat="47.834117" lon="18.953150">
				<ele>250.000000</ele>
			</trkpt>
			<trkpt lat="47.834074" lon="18.953123">
				<ele>250.000000</ele>
			</trkpt>
			<trkpt lat="47.833917" lon="18.953051">
				<ele>250.000000</ele>
			</trkpt>
			<trkpt lat="47.833851" lon="18.953070">
				<ele>250.000000</ele>
			</trkpt>
			<trkpt lat="47.833803" lon="18.953123">
				<ele>250.000000</ele>
			</trkpt>
			<trkpt lat="47.833737" lon="18.953150">
				<ele>250.000000</ele>
			</trkpt>
			<trkpt lat="47.833689" lon="18.953159">
				<ele>250.000000</ele>
			</trkpt>
			<trkpt lat="47.833647" lon="18.953141">
				<ele>250.000000</ele>
			</trkpt>
			<trkpt lat="47.833266" lon="18.952844">
				<ele>249.000000</ele>
			</trkpt>
			<trkpt lat="47.833128" lon="18.952701">
				<ele>248.000000</ele>
			</trkpt>
			<trkpt lat="47.832935" lon="18.952567">
				<ele>247.000000</ele>
			</trkpt>
			<trkpt lat="47.832911" lon="18.952485">
				<ele>247.000000</ele>
			</trkpt>
			<trkpt lat="47.832784" lon="18.951856">
				<ele>246.000000</ele>
			</trkpt>
			<trkpt lat="47.832597" lon="18.950599">
				<ele>243.000000</ele>
			</trkpt>
			<trkpt lat="47.832585" lon="18.950509">
				<ele>243.000000</ele>
			</trkpt>
			<trkpt lat="47.832561" lon="18.950320">
				<ele>243.000000</ele>
			</trkpt>
			<trkpt lat="47.832531" lon="18.950078">
				<ele>242.000000</ele>
			</trkpt>
			<trkpt lat="47.832513" lon="18.949952">
				<ele>242.000000</ele>
			</trkpt>
			<trkpt lat="47.832265" lon="18.949062">
				<ele>240.000000</ele>
			</trkpt>
			<trkpt lat="47.832096" lon="18.948470">
				<ele>240.000000</ele>
			</trkpt>
			<trkpt lat="47.832018" lon="18.947867">
				<ele>240.000000</ele>
			</trkpt>
			<trkpt lat="47.831922" lon="18.947024">
				<ele>240.000000</ele>
			</trkpt>
			<trkpt lat="47.831825" lon="18.946718">
				<ele>240.000000</ele>
			</trkpt>
			<trkpt lat="47.831632" lon="18.945783">
				<ele>240.000000</ele>
			</trkpt>
			<trkpt lat="47.831602" lon="18.945424">
				<ele>240.000000</ele>
			</trkpt>
			<trkpt lat="47.831614" lon="18.944967">
				<ele>240.000000</ele>
			</trkpt>
			<trkpt lat="47.831699" lon="18.944625">
				<ele>240.000000</ele>
			</trkpt>
			<trkpt lat="47.831801" lon="18.944158">
				<ele>240.000000</ele>
			</trkpt>
			<trkpt lat="47.831880" lon="18.943898">
				<ele>240.000000</ele>
			</trkpt>
			<trkpt lat="47.831982" lon="18.943565">
				<ele>240.000000</ele>
			</trkpt>
			<trkpt lat="47.831922" lon="18.943457">
				<ele>240.000000</ele>
			</trkpt>
			<trkpt lat="47.831825" lon="18.943349">
				<ele>240.000000</ele>
			</trkpt>
			<trkpt lat="47.831699" lon="18.943259">
				<ele>240.000000</ele>
			</trkpt>
			<trkpt lat="47.831614" lon="18.943215">
				<ele>240.000000</ele>
			</trkpt>
			<trkpt lat="47.831518" lon="18.943206">
				<ele>240.000000</ele>
			</trkpt>
			<trkpt lat="47.831379" lon="18.943223">
				<ele>240.000000</ele>
			</trkpt>
			<trkpt lat="47.831282" lon="18.943242">
				<ele>240.000000</ele>
			</trkpt>
			<trkpt lat="47.831150" lon="18.943322">
				<ele>240.000000</ele>
			</trkpt>
			<trkpt lat="47.831078" lon="18.943340">
				<ele>240.000000</ele>
			</trkpt>
			<trkpt lat="47.831047" lon="18.943349">
				<ele>240.000000</ele>
			</trkpt>
			<trkpt lat="47.830842" lon="18.943422">
				<ele>241.000000</ele>
			</trkpt>
			<trkpt lat="47.830836" lon="18.943359">
				<ele>241.000000</ele>
			</trkpt>
			<trkpt lat="47.830836" lon="18.943359">
				<ele>241.000000</ele>
			</trkpt>
			<trkpt lat="47.830842" lon="18.943422">
				<ele>241.000000</ele>
			</trkpt>
			<trkpt lat="47.830384" lon="18.943682">
				<ele>247.000000</ele>
			</trkpt>
			<trkpt lat="47.830293" lon="18.943718">
				<ele>248.000000</ele>
			</trkpt>
			<trkpt lat="47.830119" lon="18.943816">
				<ele>250.000000</ele>
			</trkpt>
			<trkpt lat="47.829956" lon="18.943969">
				<ele>250.000000</ele>
			</trkpt>
			<trkpt lat="47.829841" lon="18.944212">
				<ele>250.000000</ele>
			</trkpt>
			<trkpt lat="47.829745" lon="18.944481">
				<ele>250.000000</ele>
			</trkpt>
			<trkpt lat="47.829666" lon="18.944823">
				<ele>250.000000</ele>
			</trkpt>
			<trkpt lat="47.829594" lon="18.945146">
				<ele>250.000000</ele>
			</trkpt>
			<trkpt lat="47.829582" lon="18.945271">
				<ele>250.000000</ele>
			</trkpt>
			<trkpt lat="47.829582" lon="18.945307">
				<ele>250.000000</ele>
			</trkpt>
			<trkpt lat="47.829558" lon="18.945496">
				<ele>250.000000</ele>
			</trkpt>
			<trkpt lat="47.829473" lon="18.945479">
				<ele>250.000000</ele>
			</trkpt>
			<trkpt lat="47.829407" lon="18.945470">
				<ele>250.000000</ele>
			</trkpt>
			<trkpt lat="47.829310" lon="18.945479">
				<ele>250.000000</ele>
			</trkpt>
			<trkpt lat="47.829250" lon="18.945479">
				<ele>250.000000</ele>
			</trkpt>
			<trkpt lat="47.829214" lon="18.945487">
				<ele>250.000000</ele>
			</trkpt>
			<trkpt lat="47.828967" lon="18.945541">
				<ele>250.000000</ele>
			</trkpt>
			<trkpt lat="47.827043" lon="18.945982">
				<ele>250.000000</ele>
			</trkpt>
			<trkpt lat="47.827025" lon="18.945990">
				<ele>250.000000</ele>
			</trkpt>
			<trkpt lat="47.827007" lon="18.945909">
				<ele>250.000000</ele>
			</trkpt>
			<trkpt lat="47.826789" lon="18.945766">
				<ele>251.000000</ele>
			</trkpt>
			<trkpt lat="47.826542" lon="18.945703">
				<ele>251.000000</ele>
			</trkpt>
			<trkpt lat="47.826253" lon="18.945667">
				<ele>252.000000</ele>
			</trkpt>
			<trkpt lat="47.825758" lon="18.945569">
				<ele>252.000000</ele>
			</trkpt>
			<trkpt lat="47.825577" lon="18.945559">
				<ele>252.000000</ele>
			</trkpt>
			<trkpt lat="47.825402" lon="18.945586">
				<ele>251.000000</ele>
			</trkpt>
			<trkpt lat="47.825233" lon="18.945596">
				<ele>251.000000</ele>
			</trkpt>
			<trkpt lat="47.825035" lon="18.945533">
				<ele>250.000000</ele>
			</trkpt>
			<trkpt lat="47.824848" lon="18.945424">
				<ele>249.000000</ele>
			</trkpt>
			<trkpt lat="47.824793" lon="18.945361">
				<ele>249.000000</ele>
			</trkpt>
			<trkpt lat="47.824727" lon="18.945110">
				<ele>247.000000</ele>
			</trkpt>
			<trkpt lat="47.824667" lon="18.944967">
				<ele>246.000000</ele>
			</trkpt>
			<trkpt lat="47.824220" lon="18.944139">
				<ele>241.000000</ele>
			</trkpt>
			<trkpt lat="47.824147" lon="18.943969">
				<ele>240.000000</ele>
			</trkpt>
			<trkpt lat="47.824027" lon="18.943772">
				<ele>239.000000</ele>
			</trkpt>
			<trkpt lat="47.823798" lon="18.943116">
				<ele>236.000000</ele>
			</trkpt>
			<trkpt lat="47.823708" lon="18.942883">
				<ele>236.000000</ele>
			</trkpt>
			<trkpt lat="47.823659" lon="18.942470">
				<ele>234.000000</ele>
			</trkpt>
			<trkpt lat="47.823545" lon="18.941975">
				<ele>232.000000</ele>
			</trkpt>
			<trkpt lat="47.823436" lon="18.941544">
				<ele>231.000000</ele>
			</trkpt>
			<trkpt lat="47.823370" lon="18.941032">
				<ele>230.000000</ele>
			</trkpt>
			<trkpt lat="47.823364" lon="18.940672">
				<ele>230.000000</ele>
			</trkpt>
			<trkpt lat="47.823394" lon="18.940439">
				<ele>230.000000</ele>
			</trkpt>
			<trkpt lat="47.823563" lon="18.939864">
				<ele>230.000000</ele>
			</trkpt>
			<trkpt lat="47.823629" lon="18.939613">
				<ele>230.000000</ele>
			</trkpt>
			<trkpt lat="47.823647" lon="18.939550">
				<ele>230.000000</ele>
			</trkpt>
			<trkpt lat="47.823647" lon="18.939441">
				<ele>230.000000</ele>
			</trkpt>
			<trkpt lat="47.823593" lon="18.939388">
				<ele>230.000000</ele>
			</trkpt>
			<trkpt lat="47.823418" lon="18.939280">
				<ele>230.000000</ele>
			</trkpt>
			<trkpt lat="47.823358" lon="18.939164">
				<ele>230.000000</ele>
			</trkpt>
			<trkpt lat="47.823297" lon="18.939038">
				<ele>230.000000</ele>
			</trkpt>
			<trkpt lat="47.823201" lon="18.938921">
				<ele>230.000000</ele>
			</trkpt>
			<trkpt lat="47.823140" lon="18.938722">
				<ele>230.000000</ele>
			</trkpt>
			<trkpt lat="47.823122" lon="18.938606">
				<ele>230.000000</ele>
			</trkpt>
			<trkpt lat="47.823086" lon="18.938516">
				<ele>230.000000</ele>
			</trkpt>
			<trkpt lat="47.823056" lon="18.938481">
				<ele>230.000000</ele>
			</trkpt>
			<trkpt lat="47.823008" lon="18.938472">
				<ele>230.000000</ele>
			</trkpt>
			<trkpt lat="47.822954" lon="18.938489">
				<ele>230.000000</ele>
			</trkpt>
			<trkpt lat="47.822875" lon="18.938598">
				<ele>230.000000</ele>
			</trkpt>
			<trkpt lat="47.822821" lon="18.938625">
				<ele>230.000000</ele>
			</trkpt>
			<trkpt lat="47.822761" lon="18.938588">
				<ele>229.000000</ele>
			</trkpt>
			<trkpt lat="47.822694" lon="18.938588">
				<ele>228.000000</ele>
			</trkpt>
			<trkpt lat="47.822658" lon="18.938625">
				<ele>228.000000</ele>
			</trkpt>
			<trkpt lat="47.822574" lon="18.938795">
				<ele>227.000000</ele>
			</trkpt>
			<trkpt lat="47.822525" lon="18.938839">
				<ele>226.000000</ele>
			</trkpt>
			<trkpt lat="47.822471" lon="18.938858">
				<ele>226.000000</ele>
			</trkpt>
			<trkpt lat="47.822248" lon="18.938642">
				<ele>223.000000</ele>
			</trkpt>
			<trkpt lat="47.822181" lon="18.938625">
				<ele>223.000000</ele>
			</trkpt>
			<trkpt lat="47.822097" lon="18.938579">
				<ele>222.000000</ele>
			</trkpt>
			<trkpt lat="47.822067" lon="18.938543">
				<ele>222.000000</ele>
			</trkpt>
			<trkpt lat="47.822006" lon="18.938498">
				<ele>221.000000</ele>
			</trkpt>
			<trkpt lat="47.821904" lon="18.938472">
				<ele>220.000000</ele>
			</trkpt>
			<trkpt lat="47.821831" lon="18.938426">
				<ele>220.000000</ele>
			</trkpt>
			<trkpt lat="47.821621" lon="18.938229">
				<ele>217.000000</ele>
			</trkpt>
			<trkpt lat="47.821464" lon="18.938193">
				<ele>215.000000</ele>
			</trkpt>
			<trkpt lat="47.821367" lon="18.938103">
				<ele>214.000000</ele>
			</trkpt>
			<trkpt lat="47.821144" lon="18.938005">
				<ele>211.000000</ele>
			</trkpt>
			<trkpt lat="47.820915" lon="18.937825">
				<ele>206.000000</ele>
			</trkpt>
			<trkpt lat="47.820685" lon="18.937717">
				<ele>200.000000</ele>
			</trkpt>
			<trkpt lat="47.820427" lon="18.937663">
				<ele>199.000000</ele>
			</trkpt>
			<trkpt lat="47.820203" lon="18.937646">
				<ele>198.000000</ele>
			</trkpt>
			<trkpt lat="47.820046" lon="18.937600">
				<ele>198.000000</ele>
			</trkpt>
			<trkpt lat="47.819817" lon="18.937456">
				<ele>197.000000</ele>
			</trkpt>
			<trkpt lat="47.819721" lon="18.937456">
				<ele>196.000000</ele>
			</trkpt>
			<trkpt lat="47.819455" lon="18.937537">
				<ele>195.000000</ele>
			</trkpt>
			<trkpt lat="47.819208" lon="18.937546">
				<ele>194.000000</ele>
			</trkpt>
			<trkpt lat="47.819088" lon="18.937529">
				<ele>194.000000</ele>
			</trkpt>
			<trkpt lat="47.818912" lon="18.937376">
				<ele>193.000000</ele>
			</trkpt>
			<trkpt lat="47.818828" lon="18.937286">
				<ele>193.000000</ele>
			</trkpt>
			<trkpt lat="47.818442" lon="18.936818">
				<ele>191.000000</ele>
			</trkpt>
			<trkpt lat="47.817821" lon="18.935983">
				<ele>190.000000</ele>
			</trkpt>
			<trkpt lat="47.817386" lon="18.935705">
				<ele>190.000000</ele>
			</trkpt>
			<trkpt lat="47.817199" lon="18.935561">
				<ele>190.000000</ele>
			</trkpt>
			<trkpt lat="47.817018" lon="18.935372">
				<ele>190.000000</ele>
			</trkpt>
			<trkpt lat="47.816789" lon="18.935246">
				<ele>190.000000</ele>
			</trkpt>
			<trkpt lat="47.816535" lon="18.935130">
				<ele>190.000000</ele>
			</trkpt>
			<trkpt lat="47.816271" lon="18.935093">
				<ele>190.000000</ele>
			</trkpt>
			<trkpt lat="47.816011" lon="18.935013">
				<ele>190.000000</ele>
			</trkpt>
			<trkpt lat="47.815914" lon="18.934967">
				<ele>190.000000</ele>
			</trkpt>
			<trkpt lat="47.815854" lon="18.934914">
				<ele>190.000000</ele>
			</trkpt>
			<trkpt lat="47.815727" lon="18.934996">
				<ele>190.000000</ele>
			</trkpt>
			<trkpt lat="47.815643" lon="18.935067">
				<ele>190.000000</ele>
			</trkpt>
			<trkpt lat="47.815558" lon="18.935139">
				<ele>190.000000</ele>
			</trkpt>
			<trkpt lat="47.815420" lon="18.935283">
				<ele>190.000000</ele>
			</trkpt>
			<trkpt lat="47.815220" lon="18.935506">
				<ele>195.000000</ele>
			</trkpt>
			<trkpt lat="47.814823" lon="18.935965">
				<ele>205.000000</ele>
			</trkpt>
			<trkpt lat="47.814768" lon="18.935983">
				<ele>206.000000</ele>
			</trkpt>
			<trkpt lat="47.814726" lon="18.935795">
				<ele>208.000000</ele>
			</trkpt>
			<trkpt lat="47.814690" lon="18.935561">
				<ele>210.000000</ele>
			</trkpt>
			<trkpt lat="47.814581" lon="18.935319">
				<ele>213.000000</ele>
			</trkpt>
			<trkpt lat="47.814479" lon="18.935085">
				<ele>216.000000</ele>
			</trkpt>
			<trkpt lat="47.814406" lon="18.934860">
				<ele>218.000000</ele>
			</trkpt>
			<trkpt lat="47.814316" lon="18.934644">
				<ele>221.000000</ele>
			</trkpt>
			<trkpt lat="47.814201" lon="18.934591">
				<ele>224.000000</ele>
			</trkpt>
			<trkpt lat="47.814032" lon="18.934671">
				<ele>227.000000</ele>
			</trkpt>
			<trkpt lat="47.813743" lon="18.934833">
				<ele>235.000000</ele>
			</trkpt>
			<trkpt lat="47.813561" lon="18.934996">
				<ele>240.000000</ele>
			</trkpt>
			<trkpt lat="47.812941" lon="18.935686">
				<ele>257.000000</ele>
			</trkpt>
			<trkpt lat="47.812705" lon="18.935759">
				<ele>262.000000</ele>
			</trkpt>
			<trkpt lat="47.812355" lon="18.936046">
				<ele>269.000000</ele>
			</trkpt>
			<trkpt lat="47.811993" lon="18.936504">
				<ele>274.000000</ele>
			</trkpt>
			<trkpt lat="47.811673" lon="18.936900">
				<ele>278.000000</ele>
			</trkpt>
			<trkpt lat="47.811227" lon="18.937430">
				<ele>280.000000</ele>
			</trkpt>
			<trkpt lat="47.811113" lon="18.937573">
				<ele>280.000000</ele>
			</trkpt>
			<trkpt lat="47.810871" lon="18.937879">
				<ele>280.000000</ele>
			</trkpt>
			<trkpt lat="47.810515" lon="18.938382">
				<ele>280.000000</ele>
			</trkpt>
			<trkpt lat="47.810304" lon="18.938688">
				<ele>280.000000</ele>
			</trkpt>
			<trkpt lat="47.810171" lon="18.938894">
				<ele>280.000000</ele>
			</trkpt>
			<trkpt lat="47.810020" lon="18.939028">
				<ele>280.000000</ele>
			</trkpt>
			<trkpt lat="47.809888" lon="18.939244">
				<ele>280.000000</ele>
			</trkpt>
			<trkpt lat="47.809791" lon="18.939424">
				<ele>280.000000</ele>
			</trkpt>
			<trkpt lat="47.809592" lon="18.939604">
				<ele>280.000000</ele>
			</trkpt>
			<trkpt lat="47.809236" lon="18.939909">
				<ele>280.000000</ele>
			</trkpt>
			<trkpt lat="47.808886" lon="18.940143">
				<ele>280.000000</ele>
			</trkpt>
			<trkpt lat="47.808585" lon="18.940277">
				<ele>280.000000</ele>
			</trkpt>
			<trkpt lat="47.808229" lon="18.940447">
				<ele>280.000000</ele>
			</trkpt>
			<trkpt lat="47.807885" lon="18.940583">
				<ele>280.000000</ele>
			</trkpt>
			<trkpt lat="47.807758" lon="18.940672">
				<ele>280.000000</ele>
			</trkpt>
			<trkpt lat="47.807607" lon="18.940870">
				<ele>280.000000</ele>
			</trkpt>
			<trkpt lat="47.807547" lon="18.940969">
				<ele>280.000000</ele>
			</trkpt>
			<trkpt lat="47.807426" lon="18.941193">
				<ele>280.000000</ele>
			</trkpt>
			<trkpt lat="47.807329" lon="18.941338">
				<ele>280.000000</ele>
			</trkpt>
			<trkpt lat="47.807215" lon="18.941445">
				<ele>280.000000</ele>
			</trkpt>
			<trkpt lat="47.807095" lon="18.941508">
				<ele>280.000000</ele>
			</trkpt>
			<trkpt lat="47.806926" lon="18.941562">
				<ele>280.000000</ele>
			</trkpt>
			<trkpt lat="47.806757" lon="18.941571">
				<ele>280.000000</ele>
			</trkpt>
			<trkpt lat="47.806648" lon="18.941607">
				<ele>280.000000</ele>
			</trkpt>
			<trkpt lat="47.806431" lon="18.941741">
				<ele>280.000000</ele>
			</trkpt>
			<trkpt lat="47.806135" lon="18.941841">
				<ele>280.000000</ele>
			</trkpt>
			<trkpt lat="47.805616" lon="18.942101">
				<ele>280.000000</ele>
			</trkpt>
			<trkpt lat="47.805121" lon="18.942397">
				<ele>280.000000</ele>
			</trkpt>
			<trkpt lat="47.804524" lon="18.942577">
				<ele>280.000000</ele>
			</trkpt>
			<trkpt lat="47.804078" lon="18.942703">
				<ele>280.000000</ele>
			</trkpt>
			<trkpt lat="47.803788" lon="18.942783">
				<ele>280.000000</ele>
			</trkpt>
			<trkpt lat="47.803637" lon="18.942793">
				<ele>280.000000</ele>
			</trkpt>
			<trkpt lat="47.803480" lon="18.942793">
				<ele>280.000000</ele>
			</trkpt>
			<trkpt lat="47.803305" lon="18.942766">
				<ele>280.000000</ele>
			</trkpt>
			<trkpt lat="47.803185" lon="18.942720">
				<ele>280.000000</ele>
			</trkpt>
			<trkpt lat="47.802967" lon="18.942657">
				<ele>280.000000</ele>
			</trkpt>
			<trkpt lat="47.802786" lon="18.942640">
				<ele>280.000000</ele>
			</trkpt>
			<trkpt lat="47.802599" lon="18.942649">
				<ele>280.000000</ele>
			</trkpt>
			<trkpt lat="47.802285" lon="18.942730">
				<ele>280.000000</ele>
			</trkpt>
			<trkpt lat="47.802080" lon="18.942837">
				<ele>280.000000</ele>
			</trkpt>
			<trkpt lat="47.801948" lon="18.942873">
				<ele>280.000000</ele>
			</trkpt>
			<trkpt lat="47.801145" lon="18.942739">
				<ele>280.000000</ele>
			</trkpt>
			<trkpt lat="47.801036" lon="18.942747">
				<ele>280.000000</ele>
			</trkpt>
			<trkpt lat="47.800916" lon="18.942810">
				<ele>280.000000</ele>
			</trkpt>
			<trkpt lat="47.800692" lon="18.943053">
				<ele>280.000000</ele>
			</trkpt>
			<trkpt lat="47.800367" lon="18.943269">
				<ele>280.000000</ele>
			</trkpt>
			<trkpt lat="47.800216" lon="18.943313">
				<ele>280.000000</ele>
			</trkpt>
			<trkpt lat="47.799715" lon="18.943332">
				<ele>280.000000</ele>
			</trkpt>
			<trkpt lat="47.799528" lon="18.943376">
				<ele>280.000000</ele>
			</trkpt>
			<trkpt lat="47.798901" lon="18.943762">
				<ele>280.000000</ele>
			</trkpt>
			<trkpt lat="47.798762" lon="18.943852">
				<ele>280.000000</ele>
			</trkpt>
			<trkpt lat="47.798635" lon="18.943925">
				<ele>280.000000</ele>
			</trkpt>
			<trkpt lat="47.798382" lon="18.943988">
				<ele>280.000000</ele>
			</trkpt>
			<trkpt lat="47.798309" lon="18.943951">
				<ele>280.000000</ele>
			</trkpt>
			<trkpt lat="47.798243" lon="18.943699">
				<ele>280.000000</ele>
			</trkpt>
			<trkpt lat="47.798188" lon="18.943609">
				<ele>280.000000</ele>
			</trkpt>
			<trkpt lat="47.798140" lon="18.943529">
				<ele>281.000000</ele>
			</trkpt>
			<trkpt lat="47.798116" lon="18.943609">
				<ele>281.000000</ele>
			</trkpt>
			<trkpt lat="47.798116" lon="18.943609">
				<ele>281.000000</ele>
			</trkpt>
			<trkpt lat="47.798140" lon="18.943529">
				<ele>281.000000</ele>
			</trkpt>
			<trkpt lat="47.798110" lon="18.943512">
				<ele>282.000000</ele>
			</trkpt>
			<trkpt lat="47.797983" lon="18.943412">
				<ele>287.000000</ele>
			</trkpt>
			<trkpt lat="47.797820" lon="18.943340">
				<ele>291.000000</ele>
			</trkpt>
			<trkpt lat="47.796565" lon="18.943089">
				<ele>309.000000</ele>
			</trkpt>
			<trkpt lat="47.795793" lon="18.942856">
				<ele>319.000000</ele>
			</trkpt>
			<trkpt lat="47.795346" lon="18.942774">
				<ele>322.000000</ele>
			</trkpt>
			<trkpt lat="47.795141" lon="18.942766">
				<ele>323.000000</ele>
			</trkpt>
			<trkpt lat="47.794857" lon="18.942837">
				<ele>324.000000</ele>
			</trkpt>
			<trkpt lat="47.794821" lon="18.942774">
				<ele>324.000000</ele>
			</trkpt>
			<trkpt lat="47.794742" lon="18.942730">
				<ele>325.000000</ele>
			</trkpt>
			<trkpt lat="47.794640" lon="18.942684">
				<ele>325.000000</ele>
			</trkpt>
			<trkpt lat="47.794586" lon="18.942693">
				<ele>325.000000</ele>
			</trkpt>
			<trkpt lat="47.794555" lon="18.942747">
				<ele>326.000000</ele>
			</trkpt>
			<trkpt lat="47.794048" lon="18.942380">
				<ele>328.000000</ele>
			</trkpt>
			<trkpt lat="47.793686" lon="18.942397">
				<ele>330.000000</ele>
			</trkpt>
			<trkpt lat="47.793650" lon="18.942380">
				<ele>330.000000</ele>
			</trkpt>
			<trkpt lat="47.793445" lon="18.942235">
				<ele>333.000000</ele>
			</trkpt>
			<trkpt lat="47.793234" lon="18.941831">
				<ele>338.000000</ele>
			</trkpt>
			<trkpt lat="47.792600" lon="18.941013">
				<ele>341.000000</ele>
			</trkpt>
			<trkpt lat="47.792220" lon="18.940583">
				<ele>342.000000</ele>
			</trkpt>
			<trkpt lat="47.791960" lon="18.940206">
				<ele>343.000000</ele>
			</trkpt>
			<trkpt lat="47.791828" lon="18.939999">
				<ele>344.000000</ele>
			</trkpt>
			<trkpt lat="47.791773" lon="18.939944">
				<ele>344.000000</ele>
			</trkpt>
			<trkpt lat="47.791761" lon="18.939774">
				<ele>344.000000</ele>
			</trkpt>
			<trkpt lat="47.791598" lon="18.939468">
				<ele>346.000000</ele>
			</trkpt>
			<trkpt lat="47.791381" lon="18.938849">
				<ele>349.000000</ele>
			</trkpt>
			<trkpt lat="47.791321" lon="18.938722">
				<ele>349.000000</ele>
			</trkpt>
			<trkpt lat="47.791236" lon="18.938615">
				<ele>350.000000</ele>
			</trkpt>
			<trkpt lat="47.790874" lon="18.938391">
				<ele>353.000000</ele>
			</trkpt>
			<trkpt lat="47.790717" lon="18.938256">
				<ele>355.000000</ele>
			</trkpt>
			<trkpt lat="47.790572" lon="18.938067">
				<ele>357.000000</ele>
			</trkpt>
			<trkpt lat="47.790500" lon="18.937860">
				<ele>358.000000</ele>
			</trkpt>
			<trkpt lat="47.790349" lon="18.937439">
				<ele>362.000000</ele>
			</trkpt>
			<trkpt lat="47.790222" lon="18.936837">
				<ele>368.000000</ele>
			</trkpt>
			<trkpt lat="47.790029" lon="18.936298">
				<ele>370.000000</ele>
			</trkpt>
			<trkpt lat="47.789800" lon="18.935929">
				<ele>370.000000</ele>
			</trkpt>
			<trkpt lat="47.789752" lon="18.935866">
				<ele>370.000000</ele>
			</trkpt>
			<trkpt lat="47.789426" lon="18.935623">
				<ele>370.000000</ele>
			</trkpt>
			<trkpt lat="47.789226" lon="18.935435">
				<ele>370.000000</ele>
			</trkpt>
			<trkpt lat="47.789033" lon="18.935237">
				<ele>370.000000</ele>
			</trkpt>
			<trkpt lat="47.788677" lon="18.934851">
				<ele>369.000000</ele>
			</trkpt>
			<trkpt lat="47.788508" lon="18.934680">
				<ele>369.000000</ele>
			</trkpt>
			<trkpt lat="47.788430" lon="18.934591">
				<ele>370.000000</ele>
			</trkpt>
			<trkpt lat="47.788357" lon="18.934501">
				<ele>370.000000</ele>
			</trkpt>
			<trkpt lat="47.788285" lon="18.934464">
				<ele>373.000000</ele>
			</trkpt>
			<trkpt lat="47.788158" lon="18.934357">
				<ele>379.000000</ele>
			</trkpt>
			<trkpt lat="47.787929" lon="18.934393">
				<ele>385.000000</ele>
			</trkpt>
			<trkpt lat="47.787651" lon="18.934321">
				<ele>391.000000</ele>
			</trkpt>
			<trkpt lat="47.787331" lon="18.934204">
				<ele>397.000000</ele>
			</trkpt>
			<trkpt lat="47.786806" lon="18.934133">
				<ele>410.000000</ele>
			</trkpt>
			<trkpt lat="47.786414" lon="18.933899">
				<ele>418.000000</ele>
			</trkpt>
			<trkpt lat="47.786016" lon="18.933890">
				<ele>428.000000</ele>
			</trkpt>
			<trkpt lat="47.785672" lon="18.934043">
				<ele>441.000000</ele>
			</trkpt>
			<trkpt lat="47.785394" lon="18.934141">
				<ele>449.000000</ele>
			</trkpt>
			<trkpt lat="47.784989" lon="18.933962">
				<ele>464.000000</ele>
			</trkpt>
			<trkpt lat="47.784784" lon="18.933864">
				<ele>471.000000</ele>
			</trkpt>
			<trkpt lat="47.784639" lon="18.933925">
				<ele>475.000000</ele>
			</trkpt>
			<trkpt lat="47.784549" lon="18.933899">
				<ele>477.000000</ele>
			</trkpt>
			<trkpt lat="47.784452" lon="18.933782">
				<ele>480.000000</ele>
			</trkpt>
			<trkpt lat="47.784307" lon="18.933711">
				<ele>480.000000</ele>
			</trkpt>
			<trkpt lat="47.784199" lon="18.933701">
				<ele>480.000000</ele>
			</trkpt>
			<trkpt lat="47.784162" lon="18.933701">
				<ele>480.000000</ele>
			</trkpt>
			<trkpt lat="47.784138" lon="18.933692">
				<ele>480.000000</ele>
			</trkpt>
			<trkpt lat="47.784120" lon="18.933638">
				<ele>480.000000</ele>
			</trkpt>
			<trkpt lat="47.784102" lon="18.933602">
				<ele>480.000000</ele>
			</trkpt>
			<trkpt lat="47.784078" lon="18.933531">
				<ele>480.000000</ele>
			</trkpt>
			<trkpt lat="47.784048" lon="18.933459">
				<ele>480.000000</ele>
			</trkpt>
			<trkpt lat="47.784024" lon="18.933405">
				<ele>480.000000</ele>
			</trkpt>
			<trkpt lat="47.783927" lon="18.933252">
				<ele>480.000000</ele>
			</trkpt>
			<trkpt lat="47.783843" lon="18.933109">
				<ele>480.000000</ele>
			</trkpt>
			<trkpt lat="47.783740" lon="18.933001">
				<ele>480.000000</ele>
			</trkpt>
			<trkpt lat="47.783577" lon="18.932856">
				<ele>479.000000</ele>
			</trkpt>
			<trkpt lat="47.783408" lon="18.932749">
				<ele>477.000000</ele>
			</trkpt>
			<trkpt lat="47.783173" lon="18.932669">
				<ele>474.000000</ele>
			</trkpt>
			<trkpt lat="47.782859" lon="18.932606">
				<ele>470.000000</ele>
			</trkpt>
			<trkpt lat="47.782654" lon="18.932443">
				<ele>467.000000</ele>
			</trkpt>
			<trkpt lat="47.782503" lon="18.932336">
				<ele>465.000000</ele>
			</trkpt>
			<trkpt lat="47.782382" lon="18.932282">
				<ele>464.000000</ele>
			</trkpt>
			<trkpt lat="47.782002" lon="18.932201">
				<ele>460.000000</ele>
			</trkpt>
			<trkpt lat="47.781512" lon="18.932040">
				<ele>465.000000</ele>
			</trkpt>
			<trkpt lat="47.781295" lon="18.931725">
				<ele>469.000000</ele>
			</trkpt>
			<trkpt lat="47.781174" lon="18.931491">
				<ele>472.000000</ele>
			</trkpt>
			<trkpt lat="47.781078" lon="18.931312">
				<ele>475.000000</ele>
			</trkpt>
			<trkpt lat="47.780861" lon="18.930998">
				<ele>480.000000</ele>
			</trkpt>
			<trkpt lat="47.780770" lon="18.930791">
				<ele>480.000000</ele>
			</trkpt>
			<trkpt lat="47.780668" lon="18.930674">
				<ele>480.000000</ele>
			</trkpt>
			<trkpt lat="47.780390" lon="18.930602">
				<ele>480.000000</ele>
			</trkpt>
			<trkpt lat="47.780209" lon="18.930503">
				<ele>480.000000</ele>
			</trkpt>
			<trkpt lat="47.780112" lon="18.930468">
				<ele>480.000000</ele>
			</trkpt>
			<trkpt lat="47.779817" lon="18.930548">
				<ele>480.000000</ele>
			</trkpt>
			<trkpt lat="47.779545" lon="18.930593">
				<ele>480.000000</ele>
			</trkpt>
			<trkpt lat="47.779195" lon="18.930558">
				<ele>480.000000</ele>
			</trkpt>
			<trkpt lat="47.778983" lon="18.930459">
				<ele>480.000000</ele>
			</trkpt>
			<trkpt lat="47.778844" lon="18.930405">
				<ele>476.000000</ele>
			</trkpt>
			<trkpt lat="47.778573" lon="18.930216">
				<ele>469.000000</ele>
			</trkpt>
			<trkpt lat="47.778313" lon="18.930046">
				<ele>461.000000</ele>
			</trkpt>
			<trkpt lat="47.778199" lon="18.929992">
				<ele>459.000000</ele>
			</trkpt>
			<trkpt lat="47.777987" lon="18.929893">
				<ele>456.000000</ele>
			</trkpt>
			<trkpt lat="47.777867" lon="18.929812">
				<ele>454.000000</ele>
			</trkpt>
			<trkpt lat="47.777806" lon="18.929722">
				<ele>453.000000</ele>
			</trkpt>
			<trkpt lat="47.777716" lon="18.929533">
				<ele>459.000000</ele>
			</trkpt>
			<trkpt lat="47.777806" lon="18.929309">
				<ele>458.000000</ele>
			</trkpt>
			<trkpt lat="47.777873" lon="18.929067">
				<ele>458.000000</ele>
			</trkpt>
			<trkpt lat="47.777891" lon="18.928923">
				<ele>457.000000</ele>
			</trkpt>
			<trkpt lat="47.777843" lon="18.928734">
				<ele>457.000000</ele>
			</trkpt>
			<trkpt lat="47.777782" lon="18.928572">
				<ele>457.000000</ele>
			</trkpt>
			<trkpt lat="47.777674" lon="18.928357">
				<ele>456.000000</ele>
			</trkpt>
			<trkpt lat="47.777492" lon="18.928122">
				<ele>455.000000</ele>
			</trkpt>
			<trkpt lat="47.777348" lon="18.927736">
				<ele>455.000000</ele>
			</trkpt>
			<trkpt lat="47.777486" lon="18.925885">
				<ele>451.000000</ele>
			</trkpt>
			<trkpt lat="47.777517" lon="18.925275">
				<ele>447.000000</ele>
			</trkpt>
			<trkpt lat="47.777655" lon="18.924727">
				<ele>438.000000</ele>
			</trkpt>
			<trkpt lat="47.777414" lon="18.924503">
				<ele>434.000000</ele>
			</trkpt>
			<trkpt lat="47.777136" lon="18.924224">
				<ele>430.000000</ele>
			</trkpt>
			<trkpt lat="47.776623" lon="18.924350">
				<ele>430.000000</ele>
			</trkpt>
			<trkpt lat="47.776158" lon="18.924395">
				<ele>428.000000</ele>
			</trkpt>
			<trkpt lat="47.776098" lon="18.924216">
				<ele>425.000000</ele>
			</trkpt>
			<trkpt lat="47.776031" lon="18.923883">
				<ele>420.000000</ele>
			</trkpt>
			<trkpt lat="47.775905" lon="18.923560">
				<ele>418.000000</ele>
			</trkpt>
			<trkpt lat="47.775899" lon="18.923388">
				<ele>418.000000</ele>
			</trkpt>
			<trkpt lat="47.775868" lon="18.923298">
				<ele>417.000000</ele>
			</trkpt>
			<trkpt lat="47.775802" lon="18.923201">
				<ele>417.000000</ele>
			</trkpt>
			<trkpt lat="47.775766" lon="18.923065">
				<ele>416.000000</ele>
			</trkpt>
			<trkpt lat="47.775645" lon="18.922948">
				<ele>416.000000</ele>
			</trkpt>
			<trkpt lat="47.775506" lon="18.922661">
				<ele>414.000000</ele>
			</trkpt>
			<trkpt lat="47.775349" lon="18.922455">
				<ele>413.000000</ele>
			</trkpt>
			<trkpt lat="47.775307" lon="18.922319">
				<ele>413.000000</ele>
			</trkpt>
			<trkpt lat="47.775277" lon="18.922032">
				<ele>412.000000</ele>
			</trkpt>
			<trkpt lat="47.775277" lon="18.921816">
				<ele>411.000000</ele>
			</trkpt>
			<trkpt lat="47.775289" lon="18.921601">
				<ele>410.000000</ele>
			</trkpt>
			<trkpt lat="47.775319" lon="18.921476">
				<ele>409.000000</ele>
			</trkpt>
			<trkpt lat="47.775440" lon="18.921170">
				<ele>405.000000</ele>
			</trkpt>
			<trkpt lat="47.775543" lon="18.920874">
				<ele>402.000000</ele>
			</trkpt>
			<trkpt lat="47.775651" lon="18.920524">
				<ele>397.000000</ele>
			</trkpt>
			<trkpt lat="47.775669" lon="18.920344">
				<ele>394.000000</ele>
			</trkpt>
			<trkpt lat="47.775627" lon="18.920182">
				<ele>391.000000</ele>
			</trkpt>
			<trkpt lat="47.775573" lon="18.919903">
				<ele>385.000000</ele>
			</trkpt>
			<trkpt lat="47.775500" lon="18.919625">
				<ele>379.000000</ele>
			</trkpt>
			<trkpt lat="47.775404" lon="18.919463">
				<ele>375.000000</ele>
			</trkpt>
			<trkpt lat="47.775374" lon="18.919688">
				<ele>374.000000</ele>
			</trkpt>
			<trkpt lat="47.775325" lon="18.919849">
				<ele>373.000000</ele>
			</trkpt>
			<trkpt lat="47.775223" lon="18.919948">
				<ele>371.000000</ele>
			</trkpt>
			<trkpt lat="47.774879" lon="18.920164">
				<ele>363.000000</ele>
			</trkpt>
			<trkpt lat="47.774546" lon="18.920379">
				<ele>356.000000</ele>
			</trkpt>
			<trkpt lat="47.774281" lon="18.920675">
				<ele>351.000000</ele>
			</trkpt>
			<trkpt lat="47.773502" lon="18.920891">
				<ele>334.000000</ele>
			</trkpt>
			<trkpt lat="47.773363" lon="18.921241">
				<ele>327.000000</ele>
			</trkpt>
			<trkpt lat="47.773243" lon="18.921430">
				<ele>322.000000</ele>
			</trkpt>
			<trkpt lat="47.773092" lon="18.921413">
				<ele>316.000000</ele>
			</trkpt>
			<trkpt lat="47.772717" lon="18.921493">
				<ele>300.000000</ele>
			</trkpt>
			<trkpt lat="47.772693" lon="18.921574">
				<ele>297.000000</ele>
			</trkpt>
			<trkpt lat="47.772711" lon="18.921627">
				<ele>296.000000</ele>
			</trkpt>
			<trkpt lat="47.772735" lon="18.921673">
				<ele>294.000000</ele>
			</trkpt>
			<trkpt lat="47.772723" lon="18.921717">
				<ele>293.000000</ele>
			</trkpt>
			<trkpt lat="47.772687" lon="18.921763">
				<ele>291.000000</ele>
			</trkpt>
			<trkpt lat="47.772638" lon="18.921753">
				<ele>289.000000</ele>
			</trkpt>
			<trkpt lat="47.772294" lon="18.921610">
				<ele>277.000000</ele>
			</trkpt>
			<trkpt lat="47.772023" lon="18.921260">
				<ele>270.000000</ele>
			</trkpt>
			<trkpt lat="47.771890" lon="18.921008">
				<ele>270.000000</ele>
			</trkpt>
			<trkpt lat="47.771739" lon="18.920891">
				<ele>266.000000</ele>
			</trkpt>
			<trkpt lat="47.771588" lon="18.920820">
				<ele>263.000000</ele>
			</trkpt>
			<trkpt lat="47.771492" lon="18.920774">
				<ele>261.000000</ele>
			</trkpt>
			<trkpt lat="47.771256" lon="18.920801">
				<ele>250.000000</ele>
			</trkpt>
			<trkpt lat="47.771189" lon="18.920801">
				<ele>247.000000</ele>
			</trkpt>
			<trkpt lat="47.771135" lon="18.920774">
				<ele>244.000000</ele>
			</trkpt>
			<trkpt lat="47.771069" lon="18.920748">
				<ele>241.000000</ele>
			</trkpt>
			<trkpt lat="47.771008" lon="18.920738">
				<ele>237.000000</ele>
			</trkpt>
			<trkpt lat="47.770936" lon="18.920622">
				<ele>237.000000</ele>
			</trkpt>
			<trkpt lat="47.770894" lon="18.920524">
				<ele>238.000000</ele>
			</trkpt>
			<trkpt lat="47.770869" lon="18.920335">
				<ele>239.000000</ele>
			</trkpt>
			<trkpt lat="47.770900" lon="18.920227">
				<ele>240.000000</ele>
			</trkpt>
			<trkpt lat="47.770966" lon="18.920155">
				<ele>240.000000</ele>
			</trkpt>
			<trkpt lat="47.770990" lon="18.920048">
				<ele>240.000000</ele>
			</trkpt>
			<trkpt lat="47.770990" lon="18.920048">
				<ele>240.000000</ele>
			</trkpt>
			<trkpt lat="47.770966" lon="18.920155">
				<ele>240.000000</ele>
			</trkpt>
			<trkpt lat="47.770900" lon="18.920227">
				<ele>240.000000</ele>
			</trkpt>
			<trkpt lat="47.770869" lon="18.920335">
				<ele>239.000000</ele>
			</trkpt>
			<trkpt lat="47.770894" lon="18.920524">
				<ele>238.000000</ele>
			</trkpt>
			<trkpt lat="47.770936" lon="18.920622">
				<ele>237.000000</ele>
			</trkpt>
			<trkpt lat="47.771008" lon="18.920738">
				<ele>237.000000</ele>
			</trkpt>
			<trkpt lat="47.771069" lon="18.920748">
				<ele>241.000000</ele>
			</trkpt>
			<trkpt lat="47.771135" lon="18.920774">
				<ele>244.000000</ele>
			</trkpt>
			<trkpt lat="47.771189" lon="18.920801">
				<ele>247.000000</ele>
			</trkpt>
			<trkpt lat="47.771256" lon="18.920801">
				<ele>250.000000</ele>
			</trkpt>
			<trkpt lat="47.771492" lon="18.920774">
				<ele>261.000000</ele>
			</trkpt>
			<trkpt lat="47.771588" lon="18.920820">
				<ele>263.000000</ele>
			</trkpt>
			<trkpt lat="47.771739" lon="18.920891">
				<ele>266.000000</ele>
			</trkpt>
			<trkpt lat="47.771890" lon="18.921008">
				<ele>270.000000</ele>
			</trkpt>
			<trkpt lat="47.772023" lon="18.921260">
				<ele>270.000000</ele>
			</trkpt>
			<trkpt lat="47.772294" lon="18.921610">
				<ele>277.000000</ele>
			</trkpt>
			<trkpt lat="47.772638" lon="18.921753">
				<ele>289.000000</ele>
			</trkpt>
			<trkpt lat="47.772687" lon="18.921763">
				<ele>291.000000</ele>
			</trkpt>
			<trkpt lat="47.772723" lon="18.921717">
				<ele>293.000000</ele>
			</trkpt>
			<trkpt lat="47.772735" lon="18.921673">
				<ele>294.000000</ele>
			</trkpt>
			<trkpt lat="47.772711" lon="18.921627">
				<ele>296.000000</ele>
			</trkpt>
			<trkpt lat="47.772693" lon="18.921574">
				<ele>297.000000</ele>
			</trkpt>
			<trkpt lat="47.772717" lon="18.921493">
				<ele>300.000000</ele>
			</trkpt>
			<trkpt lat="47.773092" lon="18.921413">
				<ele>316.000000</ele>
			</trkpt>
			<trkpt lat="47.773243" lon="18.921430">
				<ele>322.000000</ele>
			</trkpt>
			<trkpt lat="47.773363" lon="18.921241">
				<ele>327.000000</ele>
			</trkpt>
			<trkpt lat="47.773502" lon="18.920891">
				<ele>334.000000</ele>
			</trkpt>
			<trkpt lat="47.774281" lon="18.920675">
				<ele>351.000000</ele>
			</trkpt>
			<trkpt lat="47.774546" lon="18.920379">
				<ele>356.000000</ele>
			</trkpt>
			<trkpt lat="47.774879" lon="18.920164">
				<ele>363.000000</ele>
			</trkpt>
			<trkpt lat="47.775223" lon="18.919948">
				<ele>371.000000</ele>
			</trkpt>
			<trkpt lat="47.775325" lon="18.919849">
				<ele>373.000000</ele>
			</trkpt>
			<trkpt lat="47.775374" lon="18.919688">
				<ele>374.000000</ele>
			</trkpt>
			<trkpt lat="47.775404" lon="18.919463">
				<ele>375.000000</ele>
			</trkpt>
			<trkpt lat="47.775500" lon="18.919625">
				<ele>379.000000</ele>
			</trkpt>
			<trkpt lat="47.775573" lon="18.919903">
				<ele>385.000000</ele>
			</trkpt>
			<trkpt lat="47.775627" lon="18.920182">
				<ele>391.000000</ele>
			</trkpt>
			<trkpt lat="47.775669" lon="18.920344">
				<ele>394.000000</ele>
			</trkpt>
			<trkpt lat="47.775651" lon="18.920524">
				<ele>397.000000</ele>
			</trkpt>
			<trkpt lat="47.775543" lon="18.920874">
				<ele>402.000000</ele>
			</trkpt>
			<trkpt lat="47.775440" lon="18.921170">
				<ele>405.000000</ele>
			</trkpt>
			<trkpt lat="47.775319" lon="18.921476">
				<ele>409.000000</ele>
			</trkpt>
			<trkpt lat="47.775289" lon="18.921601">
				<ele>410.000000</ele>
			</trkpt>
			<trkpt lat="47.775277" lon="18.921816">
				<ele>411.000000</ele>
			</trkpt>
			<trkpt lat="47.775277" lon="18.922032">
				<ele>412.000000</ele>
			</trkpt>
			<trkpt lat="47.775307" lon="18.922319">
				<ele>413.000000</ele>
			</trkpt>
			<trkpt lat="47.775349" lon="18.922455">
				<ele>413.000000</ele>
			</trkpt>
			<trkpt lat="47.775506" lon="18.922661">
				<ele>414.000000</ele>
			</trkpt>
			<trkpt lat="47.775645" lon="18.922948">
				<ele>416.000000</ele>
			</trkpt>
			<trkpt lat="47.775766" lon="18.923065">
				<ele>416.000000</ele>
			</trkpt>
			<trkpt lat="47.775802" lon="18.923201">
				<ele>417.000000</ele>
			</trkpt>
			<trkpt lat="47.775868" lon="18.923298">
				<ele>417.000000</ele>
			</trkpt>
			<trkpt lat="47.775899" lon="18.923388">
				<ele>418.000000</ele>
			</trkpt>
			<trkpt lat="47.775905" lon="18.923560">
				<ele>418.000000</ele>
			</trkpt>
			<trkpt lat="47.776031" lon="18.923883">
				<ele>420.000000</ele>
			</trkpt>
			<trkpt lat="47.776098" lon="18.924216">
				<ele>425.000000</ele>
			</trkpt>
			<trkpt lat="47.776158" lon="18.924395">
				<ele>428.000000</ele>
			</trkpt>
			<trkpt lat="47.776623" lon="18.924350">
				<ele>430.000000</ele>
			</trkpt>
			<trkpt lat="47.777136" lon="18.924224">
				<ele>430.000000</ele>
			</trkpt>
			<trkpt lat="47.777414" lon="18.924503">
				<ele>434.000000</ele>
			</trkpt>
			<trkpt lat="47.777655" lon="18.924727">
				<ele>438.000000</ele>
			</trkpt>
			<trkpt lat="47.777517" lon="18.925275">
				<ele>447.000000</ele>
			</trkpt>
			<trkpt lat="47.777486" lon="18.925885">
				<ele>451.000000</ele>
			</trkpt>
			<trkpt lat="47.777348" lon="18.927736">
				<ele>455.000000</ele>
			</trkpt>
			<trkpt lat="47.777492" lon="18.928122">
				<ele>455.000000</ele>
			</trkpt>
			<trkpt lat="47.777674" lon="18.928357">
				<ele>456.000000</ele>
			</trkpt>
			<trkpt lat="47.777782" lon="18.928572">
				<ele>457.000000</ele>
			</trkpt>
			<trkpt lat="47.777843" lon="18.928734">
				<ele>457.000000</ele>
			</trkpt>
			<trkpt lat="47.777891" lon="18.928923">
				<ele>457.000000</ele>
			</trkpt>
			<trkpt lat="47.777873" lon="18.929067">
				<ele>458.000000</ele>
			</trkpt>
			<trkpt lat="47.777806" lon="18.929309">
				<ele>458.000000</ele>
			</trkpt>
			<trkpt lat="47.777716" lon="18.929533">
				<ele>459.000000</ele>
			</trkpt>
			<trkpt lat="47.777806" lon="18.929722">
				<ele>453.000000</ele>
			</trkpt>
			<trkpt lat="47.777794" lon="18.929847">
				<ele>452.000000</ele>
			</trkpt>
			<trkpt lat="47.777939" lon="18.930351">
				<ele>446.000000</ele>
			</trkpt>
			<trkpt lat="47.778120" lon="18.930772">
				<ele>440.000000</ele>
			</trkpt>
			<trkpt lat="47.778410" lon="18.931312">
				<ele>435.000000</ele>
			</trkpt>
			<trkpt lat="47.778494" lon="18.931671">
				<ele>432.000000</ele>
			</trkpt>
			<trkpt lat="47.778470" lon="18.931977">
				<ele>429.000000</ele>
			</trkpt>
			<trkpt lat="47.778464" lon="18.932686">
				<ele>422.000000</ele>
			</trkpt>
			<trkpt lat="47.778380" lon="18.933422">
				<ele>415.000000</ele>
			</trkpt>
			<trkpt lat="47.778108" lon="18.934231">
				<ele>407.000000</ele>
			</trkpt>
			<trkpt lat="47.777861" lon="18.934609">
				<ele>402.000000</ele>
			</trkpt>
			<trkpt lat="47.777728" lon="18.934933">
				<ele>398.000000</ele>
			</trkpt>
			<trkpt lat="47.777649" lon="18.935273">
				<ele>394.000000</ele>
			</trkpt>
			<trkpt lat="47.777619" lon="18.935669">
				<ele>390.000000</ele>
			</trkpt>
			<trkpt lat="47.777637" lon="18.935938">
				<ele>388.000000</ele>
			</trkpt>
			<trkpt lat="47.777728" lon="18.936154">
				<ele>387.000000</ele>
			</trkpt>
			<trkpt lat="47.777873" lon="18.936288">
				<ele>386.000000</ele>
			</trkpt>
			<trkpt lat="47.778024" lon="18.936351">
				<ele>385.000000</ele>
			</trkpt>
			<trkpt lat="47.778434" lon="18.936342">
				<ele>382.000000</ele>
			</trkpt>
			<trkpt lat="47.778645" lon="18.936648">
				<ele>380.000000</ele>
			</trkpt>
			<trkpt lat="47.778881" lon="18.936818">
				<ele>378.000000</ele>
			</trkpt>
			<trkpt lat="47.779056" lon="18.936810">
				<ele>377.000000</ele>
			</trkpt>
			<trkpt lat="47.779177" lon="18.937034">
				<ele>375.000000</ele>
			</trkpt>
			<trkpt lat="47.779231" lon="18.937141">
				<ele>374.000000</ele>
			</trkpt>
			<trkpt lat="47.779376" lon="18.937357">
				<ele>373.000000</ele>
			</trkpt>
			<trkpt lat="47.779479" lon="18.937699">
				<ele>371.000000</ele>
			</trkpt>
			<trkpt lat="47.779738" lon="18.938220">
				<ele>364.000000</ele>
			</trkpt>
			<trkpt lat="47.779889" lon="18.938238">
				<ele>361.000000</ele>
			</trkpt>
			<trkpt lat="47.779986" lon="18.938372">
				<ele>360.000000</ele>
			</trkpt>
			<trkpt lat="47.780167" lon="18.938426">
				<ele>359.000000</ele>
			</trkpt>
			<trkpt lat="47.780354" lon="18.938273">
				<ele>358.000000</ele>
			</trkpt>
			<trkpt lat="47.780571" lon="18.938148">
				<ele>356.000000</ele>
			</trkpt>
			<trkpt lat="47.780897" lon="18.937950">
				<ele>355.000000</ele>
			</trkpt>
			<trkpt lat="47.781144" lon="18.937789">
				<ele>353.000000</ele>
			</trkpt>
			<trkpt lat="47.781343" lon="18.937726">
				<ele>352.000000</ele>
			</trkpt>
			<trkpt lat="47.781452" lon="18.937726">
				<ele>352.000000</ele>
			</trkpt>
			<trkpt lat="47.781518" lon="18.937816">
				<ele>351.000000</ele>
			</trkpt>
			<trkpt lat="47.781687" lon="18.937923">
				<ele>350.000000</ele>
			</trkpt>
			<trkpt lat="47.782068" lon="18.938157">
				<ele>344.000000</ele>
			</trkpt>
			<trkpt lat="47.782418" lon="18.938372">
				<ele>338.000000</ele>
			</trkpt>
			<trkpt lat="47.782744" lon="18.938741">
				<ele>331.000000</ele>
			</trkpt>
			<trkpt lat="47.783167" lon="18.939172">
				<ele>324.000000</ele>
			</trkpt>
			<trkpt lat="47.783668" lon="18.939585">
				<ele>315.000000</ele>
			</trkpt>
			<trkpt lat="47.784000" lon="18.939693">
				<ele>310.000000</ele>
			</trkpt>
			<trkpt lat="47.784603" lon="18.939881">
				<ele>300.000000</ele>
			</trkpt>
			<trkpt lat="47.785044" lon="18.940124">
				<ele>290.000000</ele>
			</trkpt>
			<trkpt lat="47.785756" lon="18.940565">
				<ele>276.000000</ele>
			</trkpt>
			<trkpt lat="47.786221" lon="18.940942">
				<ele>268.000000</ele>
			</trkpt>
			<trkpt lat="47.786420" lon="18.941221">
				<ele>265.000000</ele>
			</trkpt>
			<trkpt lat="47.786565" lon="18.941445">
				<ele>263.000000</ele>
			</trkpt>
			<trkpt lat="47.786788" lon="18.941904">
				<ele>257.000000</ele>
			</trkpt>
			<trkpt lat="47.786891" lon="18.942343">
				<ele>249.000000</ele>
			</trkpt>
			<trkpt lat="47.787090" lon="18.943053">
				<ele>238.000000</ele>
			</trkpt>
			<trkpt lat="47.787344" lon="18.943762">
				<ele>233.000000</ele>
			</trkpt>
			<trkpt lat="47.787645" lon="18.944221">
				<ele>229.000000</ele>
			</trkpt>
			<trkpt lat="47.787863" lon="18.944678">
				<ele>224.000000</ele>
			</trkpt>
			<trkpt lat="47.788122" lon="18.945003">
				<ele>219.000000</ele>
			</trkpt>
			<trkpt lat="47.788201" lon="18.945056">
				<ele>216.000000</ele>
			</trkpt>
			<trkpt lat="47.788309" lon="18.945093">
				<ele>213.000000</ele>
			</trkpt>
			<trkpt lat="47.788357" lon="18.945146">
				<ele>212.000000</ele>
			</trkpt>
			<trkpt lat="47.788424" lon="18.945227">
				<ele>209.000000</ele>
			</trkpt>
			<trkpt lat="47.788454" lon="18.945317">
				<ele>208.000000</ele>
			</trkpt>
			<trkpt lat="47.788454" lon="18.945550">
				<ele>205.000000</ele>
			</trkpt>
			<trkpt lat="47.788545" lon="18.946386">
				<ele>197.000000</ele>
			</trkpt>
			<trkpt lat="47.788707" lon="18.947141">
				<ele>191.000000</ele>
			</trkpt>
			<trkpt lat="47.788707" lon="18.947212">
				<ele>191.000000</ele>
			</trkpt>
			<trkpt lat="47.788647" lon="18.947733">
				<ele>185.000000</ele>
			</trkpt>
			<trkpt lat="47.788647" lon="18.948003">
				<ele>182.000000</ele>
			</trkpt>
			<trkpt lat="47.788653" lon="18.948209">
				<ele>180.000000</ele>
			</trkpt>
			<trkpt lat="47.788635" lon="18.948407">
				<ele>178.000000</ele>
			</trkpt>
			<trkpt lat="47.788647" lon="18.948659">
				<ele>176.000000</ele>
			</trkpt>
			<trkpt lat="47.788738" lon="18.949116">
				<ele>171.000000</ele>
			</trkpt>
			<trkpt lat="47.788762" lon="18.949512">
				<ele>168.000000</ele>
			</trkpt>
			<trkpt lat="47.788780" lon="18.949728">
				<ele>166.000000</ele>
			</trkpt>
			<trkpt lat="47.788816" lon="18.950041">
				<ele>163.000000</ele>
			</trkpt>
			<trkpt lat="47.788846" lon="18.950365">
				<ele>160.000000</ele>
			</trkpt>
			<trkpt lat="47.788907" lon="18.950743">
				<ele>157.000000</ele>
			</trkpt>
			<trkpt lat="47.788919" lon="18.951093">
				<ele>155.000000</ele>
			</trkpt>
			<trkpt lat="47.788931" lon="18.951246">
				<ele>154.000000</ele>
			</trkpt>
			<trkpt lat="47.788967" lon="18.951389">
				<ele>154.000000</ele>
			</trkpt>
			<trkpt lat="47.789082" lon="18.951659">
				<ele>152.000000</ele>
			</trkpt>
			<trkpt lat="47.789118" lon="18.951793">
				<ele>151.000000</ele>
			</trkpt>
			<trkpt lat="47.789130" lon="18.951919">
				<ele>150.000000</ele>
			</trkpt>
			<trkpt lat="47.789100" lon="18.952341">
				<ele>149.000000</ele>
			</trkpt>
			<trkpt lat="47.789082" lon="18.952791">
				<ele>148.000000</ele>
			</trkpt>
			<trkpt lat="47.789082" lon="18.953617">
				<ele>146.000000</ele>
			</trkpt>
			<trkpt lat="47.789070" lon="18.953886">
				<ele>140.000000</ele>
			</trkpt>
			<trkpt lat="47.789003" lon="18.954138">
				<ele>138.000000</ele>
			</trkpt>
			<trkpt lat="47.788834" lon="18.954785">
				<ele>133.000000</ele>
			</trkpt>
			<trkpt lat="47.788864" lon="18.954974">
				<ele>132.000000</ele>
			</trkpt>
			<trkpt lat="47.788876" lon="18.955117">
				<ele>131.000000</ele>
			</trkpt>
			<trkpt lat="47.788889" lon="18.955395">
				<ele>129.000000</ele>
			</trkpt>
			<trkpt lat="47.788997" lon="18.955683">
				<ele>127.000000</ele>
			</trkpt>
			<trkpt lat="47.789051" lon="18.955881">
				<ele>126.000000</ele>
			</trkpt>
			<trkpt lat="47.789064" lon="18.955934">
				<ele>126.000000</ele>
			</trkpt>
			<trkpt lat="47.789027" lon="18.956123">
				<ele>125.000000</ele>
			</trkpt>
			<trkpt lat="47.789009" lon="18.956231">
				<ele>125.000000</ele>
			</trkpt>
			<trkpt lat="47.789009" lon="18.956330">
				<ele>124.000000</ele>
			</trkpt>
			<trkpt lat="47.789263" lon="18.956770">
				<ele>121.000000</ele>
			</trkpt>
			<trkpt lat="47.789510" lon="18.957211">
				<ele>120.000000</ele>
			</trkpt>
			<trkpt lat="47.789552" lon="18.957291">
				<ele>120.000000</ele>
			</trkpt>
			<trkpt lat="47.790566" lon="18.957704">
				<ele>120.000000</ele>
			</trkpt>
			<trkpt lat="47.790705" lon="18.957749">
				<ele>120.000000</ele>
			</trkpt>
			<trkpt lat="47.790771" lon="18.957767">
				<ele>120.000000</ele>
			</trkpt>
			<trkpt lat="47.790765" lon="18.957794">
				<ele>120.000000</ele>
			</trkpt>
			<trkpt lat="47.790765" lon="18.957794">
				<ele>120.000000</ele>
			</trkpt>
			<trkpt lat="47.790687" lon="18.958091">
				<ele>119.000000</ele>
			</trkpt>
			<trkpt lat="47.790602" lon="18.958378">
				<ele>118.000000</ele>
			</trkpt>
			<trkpt lat="47.790578" lon="18.958468">
				<ele>116.000000</ele>
			</trkpt>
			<trkpt lat="47.790578" lon="18.958576">
				<ele>116.000000</ele>
			</trkpt>
			<trkpt lat="47.790542" lon="18.958693">
				<ele>116.000000</ele>
			</trkpt>
			<trkpt lat="47.790494" lon="18.958764">
				<ele>116.000000</ele>
			</trkpt>
			<trkpt lat="47.790458" lon="18.958873">
				<ele>116.000000</ele>
			</trkpt>
			<trkpt lat="47.790433" lon="18.958926">
				<ele>116.000000</ele>
			</trkpt>
			<trkpt lat="47.790301" lon="18.959393">
				<ele>114.000000</ele>
			</trkpt>
			<trkpt lat="47.790065" lon="18.960318">
				<ele>110.000000</ele>
			</trkpt>
			<trkpt lat="47.790041" lon="18.960399">
				<ele>110.000000</ele>
			</trkpt>
			<trkpt lat="47.790017" lon="18.960489">
				<ele>110.000000</ele>
			</trkpt>
			<trkpt lat="47.789890" lon="18.960993">
				<ele>110.000000</ele>
			</trkpt>
			<trkpt lat="47.789824" lon="18.961244">
				<ele>110.000000</ele>
			</trkpt>
			<trkpt lat="47.789800" lon="18.961289">
				<ele>110.000000</ele>
			</trkpt>
			<trkpt lat="47.789776" lon="18.961297">
				<ele>110.000000</ele>
			</trkpt>
			<trkpt lat="47.789697" lon="18.961253">
				<ele>110.000000</ele>
			</trkpt>
			<trkpt lat="47.789486" lon="18.961136">
				<ele>110.000000</ele>
			</trkpt>
			<trkpt lat="47.789281" lon="18.961028">
				<ele>110.000000</ele>
			</trkpt>
			<trkpt lat="47.789208" lon="18.961351">
				<ele>110.000000</ele>
			</trkpt>
			<trkpt lat="47.789184" lon="18.961433">
				<ele>110.000000</ele>
			</trkpt>
			<trkpt lat="47.789184" lon="18.961433">
				<ele>110.000000</ele>
			</trkpt>
			<trkpt lat="47.789208" lon="18.961351">
				<ele>110.000000</ele>
			</trkpt>
			<trkpt lat="47.789281" lon="18.961028">
				<ele>110.000000</ele>
			</trkpt>
			<trkpt lat="47.789486" lon="18.961136">
				<ele>110.000000</ele>
			</trkpt>
			<trkpt lat="47.789697" lon="18.961253">
				<ele>110.000000</ele>
			</trkpt>
			<trkpt lat="47.789776" lon="18.961297">
				<ele>110.000000</ele>
			</trkpt>
			<trkpt lat="47.789800" lon="18.961289">
				<ele>110.000000</ele>
			</trkpt>
			<trkpt lat="47.789824" lon="18.961244">
				<ele>110.000000</ele>
			</trkpt>
			<trkpt lat="47.789890" lon="18.960993">
				<ele>110.000000</ele>
			</trkpt>
			<trkpt lat="47.790017" lon="18.960489">
				<ele>110.000000</ele>
			</trkpt>
			<trkpt lat="47.790041" lon="18.960399">
				<ele>110.000000</ele>
			</trkpt>
			<trkpt lat="47.790065" lon="18.960318">
				<ele>110.000000</ele>
			</trkpt>
			<trkpt lat="47.790301" lon="18.959393">
				<ele>114.000000</ele>
			</trkpt>
			<trkpt lat="47.790433" lon="18.958926">
				<ele>116.000000</ele>
			</trkpt>
			<trkpt lat="47.790458" lon="18.958873">
				<ele>116.000000</ele>
			</trkpt>
			<trkpt lat="47.790494" lon="18.958764">
				<ele>116.000000</ele>
			</trkpt>
			<trkpt lat="47.790542" lon="18.958693">
				<ele>116.000000</ele>
			</trkpt>
			<trkpt lat="47.790578" lon="18.958576">
				<ele>116.000000</ele>
			</trkpt>
			<trkpt lat="47.790578" lon="18.958468">
				<ele>116.000000</ele>
			</trkpt>
			<trkpt lat="47.790602" lon="18.958378">
				<ele>118.000000</ele>
			</trkpt>
			<trkpt lat="47.790802" lon="18.958477">
				<ele>117.000000</ele>
			</trkpt>
			<trkpt lat="47.790959" lon="18.958557">
				<ele>116.000000</ele>
			</trkpt>
		</trkseg>
	</trk>
</gpx>

