<?xml version="1.0" encoding="utf-8"?>
<gpx xmlns="http://www.topografix.com/GPX/1/1" version="1.1" creator="https://mapy.com/">
	<trk>
		<name>Route from Pilisborosjenő, Kövesbérci utca to Hűvösvölgy P+R</name>
		<trkseg>
			<trkpt lat="47.592281" lon="18.984008">
				<ele>131.000000</ele>
			</trkpt>
			<trkpt lat="47.592281" lon="18.984008">
				<ele>131.000000</ele>
			</trkpt>
			<trkpt lat="47.592257" lon="18.983971">
				<ele>131.000000</ele>
			</trkpt>
			<trkpt lat="47.592239" lon="18.983998">
				<ele>130.000000</ele>
			</trkpt>
			<trkpt lat="47.592202" lon="18.984034">
				<ele>130.000000</ele>
			</trkpt>
			<trkpt lat="47.592172" lon="18.983981">
				<ele>130.000000</ele>
			</trkpt>
			<trkpt lat="47.591536" lon="18.982821">
				<ele>130.000000</ele>
			</trkpt>
			<trkpt lat="47.591499" lon="18.982759">
				<ele>130.000000</ele>
			</trkpt>
			<trkpt lat="47.590797" lon="18.981474">
				<ele>130.000000</ele>
			</trkpt>
			<trkpt lat="47.590700" lon="18.981285">
				<ele>130.000000</ele>
			</trkpt>
			<trkpt lat="47.590688" lon="18.981258">
				<ele>130.000000</ele>
			</trkpt>
			<trkpt lat="47.590676" lon="18.981222">
				<ele>130.000000</ele>
			</trkpt>
			<trkpt lat="47.590657" lon="18.981151">
				<ele>130.000000</ele>
			</trkpt>
			<trkpt lat="47.590645" lon="18.981115">
				<ele>130.000000</ele>
			</trkpt>
			<trkpt lat="47.590633" lon="18.981052">
				<ele>130.000000</ele>
			</trkpt>
			<trkpt lat="47.590597" lon="18.980826">
				<ele>130.000000</ele>
			</trkpt>
			<trkpt lat="47.590591" lon="18.980782">
				<ele>130.000000</ele>
			</trkpt>
			<trkpt lat="47.590573" lon="18.980629">
				<ele>130.000000</ele>
			</trkpt>
			<trkpt lat="47.590549" lon="18.980629">
				<ele>130.000000</ele>
			</trkpt>
			<trkpt lat="47.590500" lon="18.980639">
				<ele>130.000000</ele>
			</trkpt>
			<trkpt lat="47.590500" lon="18.980675">
				<ele>130.000000</ele>
			</trkpt>
			<trkpt lat="47.590488" lon="18.980719">
				<ele>130.000000</ele>
			</trkpt>
			<trkpt lat="47.590488" lon="18.980737">
				<ele>130.000000</ele>
			</trkpt>
			<trkpt lat="47.590481" lon="18.980773">
				<ele>130.000000</ele>
			</trkpt>
			<trkpt lat="47.590463" lon="18.980800">
				<ele>130.000000</ele>
			</trkpt>
			<trkpt lat="47.590136" lon="18.981268">
				<ele>131.000000</ele>
			</trkpt>
			<trkpt lat="47.589743" lon="18.981771">
				<ele>132.000000</ele>
			</trkpt>
			<trkpt lat="47.589379" lon="18.982291">
				<ele>133.000000</ele>
			</trkpt>
			<trkpt lat="47.589016" lon="18.982902">
				<ele>134.000000</ele>
			</trkpt>
			<trkpt lat="47.588985" lon="18.982956">
				<ele>134.000000</ele>
			</trkpt>
			<trkpt lat="47.588658" lon="18.983531">
				<ele>133.000000</ele>
			</trkpt>
			<trkpt lat="47.587949" lon="18.984780">
				<ele>131.000000</ele>
			</trkpt>
			<trkpt lat="47.587640" lon="18.985373">
				<ele>130.000000</ele>
			</trkpt>
			<trkpt lat="47.587216" lon="18.986405">
				<ele>130.000000</ele>
			</trkpt>
			<trkpt lat="47.586986" lon="18.986954">
				<ele>130.000000</ele>
			</trkpt>
			<trkpt lat="47.586840" lon="18.987295">
				<ele>130.000000</ele>
			</trkpt>
			<trkpt lat="47.586762" lon="18.987466">
				<ele>130.000000</ele>
			</trkpt>
			<trkpt lat="47.586077" lon="18.988786">
				<ele>130.000000</ele>
			</trkpt>
			<trkpt lat="47.585998" lon="18.988912">
				<ele>130.000000</ele>
			</trkpt>
			<trkpt lat="47.585950" lon="18.988984">
				<ele>130.000000</ele>
			</trkpt>
			<trkpt lat="47.585756" lon="18.989379">
				<ele>130.000000</ele>
			</trkpt>
			<trkpt lat="47.585441" lon="18.989937">
				<ele>130.000000</ele>
			</trkpt>
			<trkpt lat="47.585435" lon="18.989937">
				<ele>130.000000</ele>
			</trkpt>
			<trkpt lat="47.585435" lon="18.989945">
				<ele>130.000000</ele>
			</trkpt>
			<trkpt lat="47.585423" lon="18.989945">
				<ele>130.000000</ele>
			</trkpt>
			<trkpt lat="47.585411" lon="18.989954">
				<ele>130.000000</ele>
			</trkpt>
			<trkpt lat="47.585399" lon="18.989954">
				<ele>130.000000</ele>
			</trkpt>
			<trkpt lat="47.585387" lon="18.989954">
				<ele>130.000000</ele>
			</trkpt>
			<trkpt lat="47.585301" lon="18.989927">
				<ele>130.000000</ele>
			</trkpt>
			<trkpt lat="47.585198" lon="18.990080">
				<ele>130.000000</ele>
			</trkpt>
			<trkpt lat="47.585004" lon="18.989828">
				<ele>131.000000</ele>
			</trkpt>
			<trkpt lat="47.584878" lon="18.989639">
				<ele>134.000000</ele>
			</trkpt>
			<trkpt lat="47.584823" lon="18.989550">
				<ele>136.000000</ele>
			</trkpt>
			<trkpt lat="47.584744" lon="18.989415">
				<ele>138.000000</ele>
			</trkpt>
			<trkpt lat="47.584308" lon="18.988679">
				<ele>143.000000</ele>
			</trkpt>
			<trkpt lat="47.584284" lon="18.988625">
				<ele>143.000000</ele>
			</trkpt>
			<trkpt lat="47.584272" lon="18.988597">
				<ele>143.000000</ele>
			</trkpt>
			<trkpt lat="47.584259" lon="18.988562">
				<ele>143.000000</ele>
			</trkpt>
			<trkpt lat="47.584253" lon="18.988535">
				<ele>144.000000</ele>
			</trkpt>
			<trkpt lat="47.584253" lon="18.988508">
				<ele>144.000000</ele>
			</trkpt>
			<trkpt lat="47.584253" lon="18.988480">
				<ele>144.000000</ele>
			</trkpt>
			<trkpt lat="47.584259" lon="18.988445">
				<ele>144.000000</ele>
			</trkpt>
			<trkpt lat="47.584265" lon="18.988418">
				<ele>144.000000</ele>
			</trkpt>
			<trkpt lat="47.584278" lon="18.988382">
				<ele>144.000000</ele>
			</trkpt>
			<trkpt lat="47.584314" lon="18.988319">
				<ele>144.000000</ele>
			</trkpt>
			<trkpt lat="47.584332" lon="18.988283">
				<ele>145.000000</ele>
			</trkpt>
			<trkpt lat="47.584350" lon="18.988239">
				<ele>145.000000</ele>
			</trkpt>
			<trkpt lat="47.584362" lon="18.988203">
				<ele>145.000000</ele>
			</trkpt>
			<trkpt lat="47.584369" lon="18.988166">
				<ele>145.000000</ele>
			</trkpt>
			<trkpt lat="47.584369" lon="18.988121">
				<ele>145.000000</ele>
			</trkpt>
			<trkpt lat="47.584369" lon="18.988076">
				<ele>145.000000</ele>
			</trkpt>
			<trkpt lat="47.584362" lon="18.988040">
				<ele>145.000000</ele>
			</trkpt>
			<trkpt lat="47.584338" lon="18.987996">
				<ele>146.000000</ele>
			</trkpt>
			<trkpt lat="47.584326" lon="18.987969">
				<ele>146.000000</ele>
			</trkpt>
			<trkpt lat="47.584296" lon="18.987924">
				<ele>146.000000</ele>
			</trkpt>
			<trkpt lat="47.583823" lon="18.987321">
				<ele>149.000000</ele>
			</trkpt>
			<trkpt lat="47.583326" lon="18.986675">
				<ele>155.000000</ele>
			</trkpt>
			<trkpt lat="47.583030" lon="18.986279">
				<ele>159.000000</ele>
			</trkpt>
			<trkpt lat="47.582981" lon="18.986216">
				<ele>159.000000</ele>
			</trkpt>
			<trkpt lat="47.582896" lon="18.986289">
				<ele>160.000000</ele>
			</trkpt>
			<trkpt lat="47.582787" lon="18.986379">
				<ele>162.000000</ele>
			</trkpt>
			<trkpt lat="47.582678" lon="18.986468">
				<ele>163.000000</ele>
			</trkpt>
			<trkpt lat="47.582587" lon="18.986522">
				<ele>164.000000</ele>
			</trkpt>
			<trkpt lat="47.582502" lon="18.986585">
				<ele>165.000000</ele>
			</trkpt>
			<trkpt lat="47.582436" lon="18.986639">
				<ele>166.000000</ele>
			</trkpt>
			<trkpt lat="47.582369" lon="18.986702">
				<ele>167.000000</ele>
			</trkpt>
			<trkpt lat="47.582344" lon="18.986721">
				<ele>167.000000</ele>
			</trkpt>
			<trkpt lat="47.582302" lon="18.986738">
				<ele>168.000000</ele>
			</trkpt>
			<trkpt lat="47.582242" lon="18.986765">
				<ele>168.000000</ele>
			</trkpt>
			<trkpt lat="47.582145" lon="18.986801">
				<ele>168.000000</ele>
			</trkpt>
			<trkpt lat="47.582108" lon="18.986810">
				<ele>168.000000</ele>
			</trkpt>
			<trkpt lat="47.582078" lon="18.986837">
				<ele>168.000000</ele>
			</trkpt>
			<trkpt lat="47.582011" lon="18.986882">
				<ele>168.000000</ele>
			</trkpt>
			<trkpt lat="47.581951" lon="18.986954">
				<ele>169.000000</ele>
			</trkpt>
			<trkpt lat="47.581823" lon="18.987151">
				<ele>169.000000</ele>
			</trkpt>
			<trkpt lat="47.581733" lon="18.987304">
				<ele>169.000000</ele>
			</trkpt>
			<trkpt lat="47.581696" lon="18.987376">
				<ele>169.000000</ele>
			</trkpt>
			<trkpt lat="47.581526" lon="18.987708">
				<ele>169.000000</ele>
			</trkpt>
			<trkpt lat="47.581400" lon="18.987977">
				<ele>169.000000</ele>
			</trkpt>
			<trkpt lat="47.581314" lon="18.988166">
				<ele>169.000000</ele>
			</trkpt>
			<trkpt lat="47.581224" lon="18.988329">
				<ele>169.000000</ele>
			</trkpt>
			<trkpt lat="47.581054" lon="18.988597">
				<ele>169.000000</ele>
			</trkpt>
			<trkpt lat="47.580836" lon="18.988903">
				<ele>169.000000</ele>
			</trkpt>
			<trkpt lat="47.580769" lon="18.988984">
				<ele>169.000000</ele>
			</trkpt>
			<trkpt lat="47.580733" lon="18.989046">
				<ele>169.000000</ele>
			</trkpt>
			<trkpt lat="47.580690" lon="18.989128">
				<ele>169.000000</ele>
			</trkpt>
			<trkpt lat="47.580654" lon="18.989191">
				<ele>169.000000</ele>
			</trkpt>
			<trkpt lat="47.580624" lon="18.989235">
				<ele>169.000000</ele>
			</trkpt>
			<trkpt lat="47.580600" lon="18.989281">
				<ele>169.000000</ele>
			</trkpt>
			<trkpt lat="47.580539" lon="18.989388">
				<ele>170.000000</ele>
			</trkpt>
			<trkpt lat="47.580508" lon="18.989460">
				<ele>170.000000</ele>
			</trkpt>
			<trkpt lat="47.580466" lon="18.989595">
				<ele>170.000000</ele>
			</trkpt>
			<trkpt lat="47.580448" lon="18.989711">
				<ele>170.000000</ele>
			</trkpt>
			<trkpt lat="47.580442" lon="18.989801">
				<ele>170.000000</ele>
			</trkpt>
			<trkpt lat="47.580448" lon="18.989891">
				<ele>170.000000</ele>
			</trkpt>
			<trkpt lat="47.580466" lon="18.989971">
				<ele>170.000000</ele>
			</trkpt>
			<trkpt lat="47.580490" lon="18.990044">
				<ele>170.000000</ele>
			</trkpt>
			<trkpt lat="47.580533" lon="18.990097">
				<ele>170.000000</ele>
			</trkpt>
			<trkpt lat="47.580594" lon="18.990178">
				<ele>170.000000</ele>
			</trkpt>
			<trkpt lat="47.580696" lon="18.990277">
				<ele>170.000000</ele>
			</trkpt>
			<trkpt lat="47.580842" lon="18.990421">
				<ele>170.000000</ele>
			</trkpt>
			<trkpt lat="47.580897" lon="18.990484">
				<ele>170.000000</ele>
			</trkpt>
			<trkpt lat="47.580951" lon="18.990564">
				<ele>170.000000</ele>
			</trkpt>
			<trkpt lat="47.580993" lon="18.990654">
				<ele>171.000000</ele>
			</trkpt>
			<trkpt lat="47.581017" lon="18.990736">
				<ele>171.000000</ele>
			</trkpt>
			<trkpt lat="47.581036" lon="18.990826">
				<ele>171.000000</ele>
			</trkpt>
			<trkpt lat="47.581048" lon="18.990906">
				<ele>172.000000</ele>
			</trkpt>
			<trkpt lat="47.581054" lon="18.990996">
				<ele>172.000000</ele>
			</trkpt>
			<trkpt lat="47.581054" lon="18.991113">
				<ele>172.000000</ele>
			</trkpt>
			<trkpt lat="47.581042" lon="18.991176">
				<ele>173.000000</ele>
			</trkpt>
			<trkpt lat="47.581029" lon="18.991229">
				<ele>173.000000</ele>
			</trkpt>
			<trkpt lat="47.581011" lon="18.991266">
				<ele>173.000000</ele>
			</trkpt>
			<trkpt lat="47.580999" lon="18.991292">
				<ele>173.000000</ele>
			</trkpt>
			<trkpt lat="47.580975" lon="18.991310">
				<ele>173.000000</ele>
			</trkpt>
			<trkpt lat="47.580957" lon="18.991319">
				<ele>173.000000</ele>
			</trkpt>
			<trkpt lat="47.580921" lon="18.991329">
				<ele>174.000000</ele>
			</trkpt>
			<trkpt lat="47.580885" lon="18.991319">
				<ele>174.000000</ele>
			</trkpt>
			<trkpt lat="47.580848" lon="18.991310">
				<ele>174.000000</ele>
			</trkpt>
			<trkpt lat="47.580733" lon="18.991203">
				<ele>175.000000</ele>
			</trkpt>
			<trkpt lat="47.580369" lon="18.990897">
				<ele>177.000000</ele>
			</trkpt>
			<trkpt lat="47.580248" lon="18.990771">
				<ele>178.000000</ele>
			</trkpt>
			<trkpt lat="47.580163" lon="18.990673">
				<ele>179.000000</ele>
			</trkpt>
			<trkpt lat="47.580073" lon="18.990583">
				<ele>179.000000</ele>
			</trkpt>
			<trkpt lat="47.579969" lon="18.990448">
				<ele>180.000000</ele>
			</trkpt>
			<trkpt lat="47.579872" lon="18.990350">
				<ele>182.000000</ele>
			</trkpt>
			<trkpt lat="47.579830" lon="18.990250">
				<ele>183.000000</ele>
			</trkpt>
			<trkpt lat="47.579769" lon="18.990080">
				<ele>185.000000</ele>
			</trkpt>
			<trkpt lat="47.579721" lon="18.990008">
				<ele>186.000000</ele>
			</trkpt>
			<trkpt lat="47.579666" lon="18.989927">
				<ele>187.000000</ele>
			</trkpt>
			<trkpt lat="47.579527" lon="18.989721">
				<ele>190.000000</ele>
			</trkpt>
			<trkpt lat="47.579527" lon="18.989721">
				<ele>190.000000</ele>
			</trkpt>
			<trkpt lat="47.579478" lon="18.989648">
				<ele>190.000000</ele>
			</trkpt>
			<trkpt lat="47.579394" lon="18.989532">
				<ele>191.000000</ele>
			</trkpt>
			<trkpt lat="47.579357" lon="18.989487">
				<ele>191.000000</ele>
			</trkpt>
			<trkpt lat="47.579315" lon="18.989432">
				<ele>191.000000</ele>
			</trkpt>
			<trkpt lat="47.579205" lon="18.989379">
				<ele>192.000000</ele>
			</trkpt>
			<trkpt lat="47.579127" lon="18.989342">
				<ele>192.000000</ele>
			</trkpt>
			<trkpt lat="47.578896" lon="18.989199">
				<ele>193.000000</ele>
			</trkpt>
			<trkpt lat="47.578866" lon="18.989082">
				<ele>194.000000</ele>
			</trkpt>
			<trkpt lat="47.578854" lon="18.988984">
				<ele>194.000000</ele>
			</trkpt>
			<trkpt lat="47.578860" lon="18.988939">
				<ele>194.000000</ele>
			</trkpt>
			<trkpt lat="47.578854" lon="18.988903">
				<ele>194.000000</ele>
			</trkpt>
			<trkpt lat="47.578854" lon="18.988876">
				<ele>194.000000</ele>
			</trkpt>
			<trkpt lat="47.578860" lon="18.988858">
				<ele>194.000000</ele>
			</trkpt>
			<trkpt lat="47.578909" lon="18.988499">
				<ele>195.000000</ele>
			</trkpt>
			<trkpt lat="47.578957" lon="18.988076">
				<ele>196.000000</ele>
			</trkpt>
			<trkpt lat="47.578975" lon="18.987933">
				<ele>197.000000</ele>
			</trkpt>
			<trkpt lat="47.578982" lon="18.987717">
				<ele>198.000000</ele>
			</trkpt>
			<trkpt lat="47.578975" lon="18.987528">
				<ele>198.000000</ele>
			</trkpt>
			<trkpt lat="47.579012" lon="18.987034">
				<ele>199.000000</ele>
			</trkpt>
			<trkpt lat="47.579024" lon="18.986845">
				<ele>200.000000</ele>
			</trkpt>
			<trkpt lat="47.579030" lon="18.986621">
				<ele>201.000000</ele>
			</trkpt>
			<trkpt lat="47.579030" lon="18.986486">
				<ele>201.000000</ele>
			</trkpt>
			<trkpt lat="47.579006" lon="18.986244">
				<ele>202.000000</ele>
			</trkpt>
			<trkpt lat="47.578982" lon="18.986010">
				<ele>203.000000</ele>
			</trkpt>
			<trkpt lat="47.578969" lon="18.985813">
				<ele>204.000000</ele>
			</trkpt>
			<trkpt lat="47.578957" lon="18.985687">
				<ele>204.000000</ele>
			</trkpt>
			<trkpt lat="47.578957" lon="18.985417">
				<ele>205.000000</ele>
			</trkpt>
			<trkpt lat="47.578957" lon="18.985193">
				<ele>206.000000</ele>
			</trkpt>
			<trkpt lat="47.578969" lon="18.984987">
				<ele>207.000000</ele>
			</trkpt>
			<trkpt lat="47.578988" lon="18.984761">
				<ele>208.000000</ele>
			</trkpt>
			<trkpt lat="47.579000" lon="18.984474">
				<ele>209.000000</ele>
			</trkpt>
			<trkpt lat="47.578994" lon="18.984025">
				<ele>211.000000</ele>
			</trkpt>
			<trkpt lat="47.578975" lon="18.983702">
				<ele>213.000000</ele>
			</trkpt>
			<trkpt lat="47.578945" lon="18.983432">
				<ele>215.000000</ele>
			</trkpt>
			<trkpt lat="47.578927" lon="18.983207">
				<ele>217.000000</ele>
			</trkpt>
			<trkpt lat="47.578903" lon="18.982929">
				<ele>218.000000</ele>
			</trkpt>
			<trkpt lat="47.578872" lon="18.982713">
				<ele>219.000000</ele>
			</trkpt>
			<trkpt lat="47.578836" lon="18.982552">
				<ele>220.000000</ele>
			</trkpt>
			<trkpt lat="47.578533" lon="18.981115">
				<ele>229.000000</ele>
			</trkpt>
			<trkpt lat="47.578521" lon="18.981061">
				<ele>230.000000</ele>
			</trkpt>
			<trkpt lat="47.578497" lon="18.981006">
				<ele>230.000000</ele>
			</trkpt>
			<trkpt lat="47.578460" lon="18.980944">
				<ele>230.000000</ele>
			</trkpt>
			<trkpt lat="47.578418" lon="18.980889">
				<ele>231.000000</ele>
			</trkpt>
			<trkpt lat="47.578393" lon="18.980855">
				<ele>231.000000</ele>
			</trkpt>
			<trkpt lat="47.578375" lon="18.980836">
				<ele>231.000000</ele>
			</trkpt>
			<trkpt lat="47.578327" lon="18.980809">
				<ele>232.000000</ele>
			</trkpt>
			<trkpt lat="47.578303" lon="18.980800">
				<ele>232.000000</ele>
			</trkpt>
			<trkpt lat="47.578273" lon="18.980800">
				<ele>232.000000</ele>
			</trkpt>
			<trkpt lat="47.578218" lon="18.980809">
				<ele>232.000000</ele>
			</trkpt>
			<trkpt lat="47.578066" lon="18.980845">
				<ele>233.000000</ele>
			</trkpt>
			<trkpt lat="47.577915" lon="18.980872">
				<ele>234.000000</ele>
			</trkpt>
			<trkpt lat="47.577866" lon="18.980881">
				<ele>235.000000</ele>
			</trkpt>
			<trkpt lat="47.577824" lon="18.980899">
				<ele>235.000000</ele>
			</trkpt>
			<trkpt lat="47.577563" lon="18.981025">
				<ele>237.000000</ele>
			</trkpt>
			<trkpt lat="47.577515" lon="18.981052">
				<ele>237.000000</ele>
			</trkpt>
			<trkpt lat="47.577485" lon="18.981079">
				<ele>238.000000</ele>
			</trkpt>
			<trkpt lat="47.577449" lon="18.981123">
				<ele>238.000000</ele>
			</trkpt>
			<trkpt lat="47.577400" lon="18.981159">
				<ele>238.000000</ele>
			</trkpt>
			<trkpt lat="47.577327" lon="18.981205">
				<ele>239.000000</ele>
			</trkpt>
			<trkpt lat="47.577236" lon="18.981241">
				<ele>239.000000</ele>
			</trkpt>
			<trkpt lat="47.577200" lon="18.981258">
				<ele>240.000000</ele>
			</trkpt>
			<trkpt lat="47.577146" lon="18.981294">
				<ele>240.000000</ele>
			</trkpt>
			<trkpt lat="47.577103" lon="18.981331">
				<ele>241.000000</ele>
			</trkpt>
			<trkpt lat="47.577060" lon="18.981384">
				<ele>241.000000</ele>
			</trkpt>
			<trkpt lat="47.576976" lon="18.981510">
				<ele>243.000000</ele>
			</trkpt>
			<trkpt lat="47.576836" lon="18.981771">
				<ele>246.000000</ele>
			</trkpt>
			<trkpt lat="47.576763" lon="18.981905">
				<ele>247.000000</ele>
			</trkpt>
			<trkpt lat="47.576733" lon="18.981977">
				<ele>248.000000</ele>
			</trkpt>
			<trkpt lat="47.576727" lon="18.981995">
				<ele>248.000000</ele>
			</trkpt>
			<trkpt lat="47.576721" lon="18.982021">
				<ele>248.000000</ele>
			</trkpt>
			<trkpt lat="47.576715" lon="18.982058">
				<ele>248.000000</ele>
			</trkpt>
			<trkpt lat="47.576715" lon="18.982103">
				<ele>248.000000</ele>
			</trkpt>
			<trkpt lat="47.576715" lon="18.982193">
				<ele>248.000000</ele>
			</trkpt>
			<trkpt lat="47.576739" lon="18.982417">
				<ele>249.000000</ele>
			</trkpt>
			<trkpt lat="47.576745" lon="18.982480">
				<ele>249.000000</ele>
			</trkpt>
			<trkpt lat="47.576745" lon="18.982516">
				<ele>249.000000</ele>
			</trkpt>
			<trkpt lat="47.576745" lon="18.982552">
				<ele>249.000000</ele>
			</trkpt>
			<trkpt lat="47.576733" lon="18.982614">
				<ele>249.000000</ele>
			</trkpt>
			<trkpt lat="47.576721" lon="18.982669">
				<ele>250.000000</ele>
			</trkpt>
			<trkpt lat="47.576679" lon="18.982767">
				<ele>250.000000</ele>
			</trkpt>
			<trkpt lat="47.576594" lon="18.982929">
				<ele>252.000000</ele>
			</trkpt>
			<trkpt lat="47.576454" lon="18.983126">
				<ele>256.000000</ele>
			</trkpt>
			<trkpt lat="47.576418" lon="18.983180">
				<ele>257.000000</ele>
			</trkpt>
			<trkpt lat="47.576400" lon="18.983199">
				<ele>257.000000</ele>
			</trkpt>
			<trkpt lat="47.576382" lon="18.983216">
				<ele>258.000000</ele>
			</trkpt>
			<trkpt lat="47.576309" lon="18.983262">
				<ele>260.000000</ele>
			</trkpt>
			<trkpt lat="47.576206" lon="18.983316">
				<ele>261.000000</ele>
			</trkpt>
			<trkpt lat="47.575976" lon="18.983442">
				<ele>266.000000</ele>
			</trkpt>
			<trkpt lat="47.575933" lon="18.983459">
				<ele>266.000000</ele>
			</trkpt>
			<trkpt lat="47.575915" lon="18.983468">
				<ele>267.000000</ele>
			</trkpt>
			<trkpt lat="47.575885" lon="18.983459">
				<ele>267.000000</ele>
			</trkpt>
			<trkpt lat="47.575855" lon="18.983432">
				<ele>268.000000</ele>
			</trkpt>
			<trkpt lat="47.575788" lon="18.983387">
				<ele>269.000000</ele>
			</trkpt>
			<trkpt lat="47.575751" lon="18.983352">
				<ele>270.000000</ele>
			</trkpt>
			<trkpt lat="47.575715" lon="18.983306">
				<ele>271.000000</ele>
			</trkpt>
			<trkpt lat="47.575673" lon="18.983226">
				<ele>272.000000</ele>
			</trkpt>
			<trkpt lat="47.575558" lon="18.983000">
				<ele>277.000000</ele>
			</trkpt>
			<trkpt lat="47.575528" lon="18.982902">
				<ele>278.000000</ele>
			</trkpt>
			<trkpt lat="47.575497" lon="18.982803">
				<ele>280.000000</ele>
			</trkpt>
			<trkpt lat="47.575473" lon="18.982696">
				<ele>282.000000</ele>
			</trkpt>
			<trkpt lat="47.575448" lon="18.982552">
				<ele>284.000000</ele>
			</trkpt>
			<trkpt lat="47.575430" lon="18.982444">
				<ele>286.000000</ele>
			</trkpt>
			<trkpt lat="47.575376" lon="18.981905">
				<ele>294.000000</ele>
			</trkpt>
			<trkpt lat="47.575334" lon="18.981429">
				<ele>301.000000</ele>
			</trkpt>
			<trkpt lat="47.575321" lon="18.981321">
				<ele>302.000000</ele>
			</trkpt>
			<trkpt lat="47.575328" lon="18.981231">
				<ele>303.000000</ele>
			</trkpt>
			<trkpt lat="47.575340" lon="18.981069">
				<ele>305.000000</ele>
			</trkpt>
			<trkpt lat="47.575358" lon="18.980899">
				<ele>308.000000</ele>
			</trkpt>
			<trkpt lat="47.575370" lon="18.980765">
				<ele>309.000000</ele>
			</trkpt>
			<trkpt lat="47.575388" lon="18.980423">
				<ele>313.000000</ele>
			</trkpt>
			<trkpt lat="47.575394" lon="18.980109">
				<ele>316.000000</ele>
			</trkpt>
			<trkpt lat="47.575406" lon="18.979830">
				<ele>318.000000</ele>
			</trkpt>
			<trkpt lat="47.575460" lon="18.979247">
				<ele>323.000000</ele>
			</trkpt>
			<trkpt lat="47.575460" lon="18.979184">
				<ele>324.000000</ele>
			</trkpt>
			<trkpt lat="47.575454" lon="18.979075">
				<ele>324.000000</ele>
			</trkpt>
			<trkpt lat="47.575454" lon="18.979039">
				<ele>325.000000</ele>
			</trkpt>
			<trkpt lat="47.575442" lon="18.978985">
				<ele>325.000000</ele>
			</trkpt>
			<trkpt lat="47.575412" lon="18.978860">
				<ele>326.000000</ele>
			</trkpt>
			<trkpt lat="47.575394" lon="18.978788">
				<ele>327.000000</ele>
			</trkpt>
			<trkpt lat="47.575376" lon="18.978742">
				<ele>327.000000</ele>
			</trkpt>
			<trkpt lat="47.575346" lon="18.978644">
				<ele>328.000000</ele>
			</trkpt>
			<trkpt lat="47.575328" lon="18.978608">
				<ele>328.000000</ele>
			</trkpt>
			<trkpt lat="47.575321" lon="18.978581">
				<ele>328.000000</ele>
			</trkpt>
			<trkpt lat="47.575309" lon="18.978563">
				<ele>329.000000</ele>
			</trkpt>
			<trkpt lat="47.575291" lon="18.978545">
				<ele>329.000000</ele>
			</trkpt>
			<trkpt lat="47.575279" lon="18.978536">
				<ele>329.000000</ele>
			</trkpt>
			<trkpt lat="47.575267" lon="18.978528">
				<ele>329.000000</ele>
			</trkpt>
			<trkpt lat="47.575261" lon="18.978518">
				<ele>329.000000</ele>
			</trkpt>
			<trkpt lat="47.575249" lon="18.978518">
				<ele>329.000000</ele>
			</trkpt>
			<trkpt lat="47.575031" lon="18.978492">
				<ele>336.000000</ele>
			</trkpt>
			<trkpt lat="47.574927" lon="18.978473">
				<ele>340.000000</ele>
			</trkpt>
			<trkpt lat="47.574915" lon="18.978473">
				<ele>340.000000</ele>
			</trkpt>
			<trkpt lat="47.574897" lon="18.978465">
				<ele>340.000000</ele>
			</trkpt>
			<trkpt lat="47.574861" lon="18.978446">
				<ele>341.000000</ele>
			</trkpt>
			<trkpt lat="47.574679" lon="18.978294">
				<ele>346.000000</ele>
			</trkpt>
			<trkpt lat="47.574479" lon="18.978096">
				<ele>351.000000</ele>
			</trkpt>
			<trkpt lat="47.574333" lon="18.977647">
				<ele>356.000000</ele>
			</trkpt>
			<trkpt lat="47.574188" lon="18.977360">
				<ele>360.000000</ele>
			</trkpt>
			<trkpt lat="47.574061" lon="18.977207">
				<ele>364.000000</ele>
			</trkpt>
			<trkpt lat="47.573909" lon="18.977189">
				<ele>368.000000</ele>
			</trkpt>
			<trkpt lat="47.573358" lon="18.977809">
				<ele>380.000000</ele>
			</trkpt>
			<trkpt lat="47.573473" lon="18.978042">
				<ele>380.000000</ele>
			</trkpt>
			<trkpt lat="47.573746" lon="18.978366">
				<ele>380.000000</ele>
			</trkpt>
			<trkpt lat="47.573952" lon="18.978581">
				<ele>380.000000</ele>
			</trkpt>
			<trkpt lat="47.574115" lon="18.978771">
				<ele>380.000000</ele>
			</trkpt>
			<trkpt lat="47.574237" lon="18.978941">
				<ele>380.000000</ele>
			</trkpt>
			<trkpt lat="47.574309" lon="18.979075">
				<ele>380.000000</ele>
			</trkpt>
			<trkpt lat="47.574357" lon="18.979210">
				<ele>380.000000</ele>
			</trkpt>
			<trkpt lat="47.574376" lon="18.979371">
				<ele>380.000000</ele>
			</trkpt>
			<trkpt lat="47.574351" lon="18.979713">
				<ele>380.000000</ele>
			</trkpt>
			<trkpt lat="47.574291" lon="18.980046">
				<ele>380.000000</ele>
			</trkpt>
			<trkpt lat="47.574145" lon="18.980530">
				<ele>380.000000</ele>
			</trkpt>
			<trkpt lat="47.573703" lon="18.981689">
				<ele>384.000000</ele>
			</trkpt>
			<trkpt lat="47.573394" lon="18.982408">
				<ele>388.000000</ele>
			</trkpt>
			<trkpt lat="47.573291" lon="18.982579">
				<ele>388.000000</ele>
			</trkpt>
			<trkpt lat="47.573291" lon="18.982579">
				<ele>388.000000</ele>
			</trkpt>
			<trkpt lat="47.572934" lon="18.983153">
				<ele>390.000000</ele>
			</trkpt>
			<trkpt lat="47.572588" lon="18.983746">
				<ele>390.000000</ele>
			</trkpt>
			<trkpt lat="47.572364" lon="18.984079">
				<ele>390.000000</ele>
			</trkpt>
			<trkpt lat="47.572164" lon="18.984304">
				<ele>390.000000</ele>
			</trkpt>
			<trkpt lat="47.572055" lon="18.984438">
				<ele>390.000000</ele>
			</trkpt>
			<trkpt lat="47.571970" lon="18.984573">
				<ele>390.000000</ele>
			</trkpt>
			<trkpt lat="47.571897" lon="18.984708">
				<ele>390.000000</ele>
			</trkpt>
			<trkpt lat="47.571812" lon="18.984870">
				<ele>390.000000</ele>
			</trkpt>
			<trkpt lat="47.571715" lon="18.985013">
				<ele>390.000000</ele>
			</trkpt>
			<trkpt lat="47.571588" lon="18.985157">
				<ele>390.000000</ele>
			</trkpt>
			<trkpt lat="47.571333" lon="18.985346">
				<ele>390.000000</ele>
			</trkpt>
			<trkpt lat="47.571133" lon="18.985471">
				<ele>390.000000</ele>
			</trkpt>
			<trkpt lat="47.570934" lon="18.985650">
				<ele>390.000000</ele>
			</trkpt>
			<trkpt lat="47.570746" lon="18.985822">
				<ele>390.000000</ele>
			</trkpt>
			<trkpt lat="47.570509" lon="18.986100">
				<ele>390.000000</ele>
			</trkpt>
			<trkpt lat="47.570048" lon="18.986639">
				<ele>390.000000</ele>
			</trkpt>
			<trkpt lat="47.569897" lon="18.986845">
				<ele>390.000000</ele>
			</trkpt>
			<trkpt lat="47.569727" lon="18.987151">
				<ele>389.000000</ele>
			</trkpt>
			<trkpt lat="47.569582" lon="18.987511">
				<ele>386.000000</ele>
			</trkpt>
			<trkpt lat="47.569382" lon="18.988040">
				<ele>380.000000</ele>
			</trkpt>
			<trkpt lat="47.569182" lon="18.988400">
				<ele>372.000000</ele>
			</trkpt>
			<trkpt lat="47.569097" lon="18.988535">
				<ele>370.000000</ele>
			</trkpt>
			<trkpt lat="47.569018" lon="18.988589">
				<ele>369.000000</ele>
			</trkpt>
			<trkpt lat="47.568951" lon="18.988597">
				<ele>368.000000</ele>
			</trkpt>
			<trkpt lat="47.568891" lon="18.988562">
				<ele>368.000000</ele>
			</trkpt>
			<trkpt lat="47.568824" lon="18.988472">
				<ele>367.000000</ele>
			</trkpt>
			<trkpt lat="47.568770" lon="18.988390">
				<ele>366.000000</ele>
			</trkpt>
			<trkpt lat="47.568703" lon="18.988310">
				<ele>365.000000</ele>
			</trkpt>
			<trkpt lat="47.568600" lon="18.988203">
				<ele>364.000000</ele>
			</trkpt>
			<trkpt lat="47.568503" lon="18.988103">
				<ele>363.000000</ele>
			</trkpt>
			<trkpt lat="47.568424" lon="18.988040">
				<ele>363.000000</ele>
			</trkpt>
			<trkpt lat="47.568327" lon="18.988023">
				<ele>362.000000</ele>
			</trkpt>
			<trkpt lat="47.568212" lon="18.988050">
				<ele>361.000000</ele>
			</trkpt>
			<trkpt lat="47.568145" lon="18.988103">
				<ele>360.000000</ele>
			</trkpt>
			<trkpt lat="47.568109" lon="18.988113">
				<ele>360.000000</ele>
			</trkpt>
			<trkpt lat="47.568079" lon="18.988113">
				<ele>360.000000</ele>
			</trkpt>
			<trkpt lat="47.568036" lon="18.988113">
				<ele>360.000000</ele>
			</trkpt>
			<trkpt lat="47.567982" lon="18.988059">
				<ele>360.000000</ele>
			</trkpt>
			<trkpt lat="47.567927" lon="18.988059">
				<ele>360.000000</ele>
			</trkpt>
			<trkpt lat="47.567794" lon="18.988176">
				<ele>360.000000</ele>
			</trkpt>
			<trkpt lat="47.567563" lon="18.988346">
				<ele>361.000000</ele>
			</trkpt>
			<trkpt lat="47.567315" lon="18.988553">
				<ele>361.000000</ele>
			</trkpt>
			<trkpt lat="47.567266" lon="18.988589">
				<ele>362.000000</ele>
			</trkpt>
			<trkpt lat="47.567242" lon="18.988606">
				<ele>362.000000</ele>
			</trkpt>
			<trkpt lat="47.566843" lon="18.988805">
				<ele>362.000000</ele>
			</trkpt>
			<trkpt lat="47.566509" lon="18.989046">
				<ele>363.000000</ele>
			</trkpt>
			<trkpt lat="47.566169" lon="18.989271">
				<ele>364.000000</ele>
			</trkpt>
			<trkpt lat="47.565909" lon="18.989487">
				<ele>364.000000</ele>
			</trkpt>
			<trkpt lat="47.565654" lon="18.989675">
				<ele>365.000000</ele>
			</trkpt>
			<trkpt lat="47.565630" lon="18.989639">
				<ele>365.000000</ele>
			</trkpt>
			<trkpt lat="47.565527" lon="18.989478">
				<ele>365.000000</ele>
			</trkpt>
			<trkpt lat="47.565515" lon="18.989361">
				<ele>365.000000</ele>
			</trkpt>
			<trkpt lat="47.565503" lon="18.989172">
				<ele>364.000000</ele>
			</trkpt>
			<trkpt lat="47.565515" lon="18.989011">
				<ele>364.000000</ele>
			</trkpt>
			<trkpt lat="47.565399" lon="18.988992">
				<ele>364.000000</ele>
			</trkpt>
			<trkpt lat="47.565303" lon="18.989029">
				<ele>364.000000</ele>
			</trkpt>
			<trkpt lat="47.565224" lon="18.989029">
				<ele>363.000000</ele>
			</trkpt>
			<trkpt lat="47.565072" lon="18.989082">
				<ele>363.000000</ele>
			</trkpt>
			<trkpt lat="47.565012" lon="18.989118">
				<ele>363.000000</ele>
			</trkpt>
			<trkpt lat="47.564891" lon="18.989191">
				<ele>364.000000</ele>
			</trkpt>
			<trkpt lat="47.564781" lon="18.989342">
				<ele>366.000000</ele>
			</trkpt>
			<trkpt lat="47.564733" lon="18.989415">
				<ele>367.000000</ele>
			</trkpt>
			<trkpt lat="47.564442" lon="18.990044">
				<ele>372.000000</ele>
			</trkpt>
			<trkpt lat="47.564308" lon="18.990277">
				<ele>375.000000</ele>
			</trkpt>
			<trkpt lat="47.564181" lon="18.990503">
				<ele>377.000000</ele>
			</trkpt>
			<trkpt lat="47.564005" lon="18.990654">
				<ele>379.000000</ele>
			</trkpt>
			<trkpt lat="47.563915" lon="18.990726">
				<ele>380.000000</ele>
			</trkpt>
			<trkpt lat="47.563830" lon="18.990906">
				<ele>383.000000</ele>
			</trkpt>
			<trkpt lat="47.563763" lon="18.991166">
				<ele>389.000000</ele>
			</trkpt>
			<trkpt lat="47.563606" lon="18.991472">
				<ele>397.000000</ele>
			</trkpt>
			<trkpt lat="47.563351" lon="18.991832">
				<ele>407.000000</ele>
			</trkpt>
			<trkpt lat="47.562988" lon="18.992227">
				<ele>419.000000</ele>
			</trkpt>
			<trkpt lat="47.562502" lon="18.992757">
				<ele>433.000000</ele>
			</trkpt>
			<trkpt lat="47.562157" lon="18.992945">
				<ele>443.000000</ele>
			</trkpt>
			<trkpt lat="47.561763" lon="18.993332">
				<ele>450.000000</ele>
			</trkpt>
			<trkpt lat="47.561502" lon="18.993619">
				<ele>450.000000</ele>
			</trkpt>
			<trkpt lat="47.561441" lon="18.993700">
				<ele>450.000000</ele>
			</trkpt>
			<trkpt lat="47.561102" lon="18.994132">
				<ele>446.000000</ele>
			</trkpt>
			<trkpt lat="47.560829" lon="18.994401">
				<ele>440.000000</ele>
			</trkpt>
			<trkpt lat="47.560387" lon="18.994850">
				<ele>440.000000</ele>
			</trkpt>
			<trkpt lat="47.560314" lon="18.994940">
				<ele>440.000000</ele>
			</trkpt>
			<trkpt lat="47.560077" lon="18.995128">
				<ele>440.000000</ele>
			</trkpt>
			<trkpt lat="47.559799" lon="18.995407">
				<ele>442.000000</ele>
			</trkpt>
			<trkpt lat="47.559617" lon="18.995550">
				<ele>448.000000</ele>
			</trkpt>
			<trkpt lat="47.559326" lon="18.995740">
				<ele>459.000000</ele>
			</trkpt>
			<trkpt lat="47.559078" lon="18.995927">
				<ele>466.000000</ele>
			</trkpt>
			<trkpt lat="47.559078" lon="18.995927">
				<ele>466.000000</ele>
			</trkpt>
			<trkpt lat="47.559023" lon="18.995963">
				<ele>467.000000</ele>
			</trkpt>
			<trkpt lat="47.558799" lon="18.996134">
				<ele>471.000000</ele>
			</trkpt>
			<trkpt lat="47.558659" lon="18.996071">
				<ele>471.000000</ele>
			</trkpt>
			<trkpt lat="47.558532" lon="18.995820">
				<ele>473.000000</ele>
			</trkpt>
			<trkpt lat="47.558477" lon="18.995766">
				<ele>473.000000</ele>
			</trkpt>
			<trkpt lat="47.558453" lon="18.995748">
				<ele>473.000000</ele>
			</trkpt>
			<trkpt lat="47.558410" lon="18.995740">
				<ele>473.000000</ele>
			</trkpt>
			<trkpt lat="47.558416" lon="18.995793">
				<ele>474.000000</ele>
			</trkpt>
			<trkpt lat="47.558392" lon="18.995847">
				<ele>474.000000</ele>
			</trkpt>
			<trkpt lat="47.558350" lon="18.995910">
				<ele>474.000000</ele>
			</trkpt>
			<trkpt lat="47.558168" lon="18.996107">
				<ele>475.000000</ele>
			</trkpt>
			<trkpt lat="47.558041" lon="18.996332">
				<ele>476.000000</ele>
			</trkpt>
			<trkpt lat="47.557816" lon="18.996575">
				<ele>478.000000</ele>
			</trkpt>
			<trkpt lat="47.557732" lon="18.996629">
				<ele>478.000000</ele>
			</trkpt>
			<trkpt lat="47.557647" lon="18.996629">
				<ele>479.000000</ele>
			</trkpt>
			<trkpt lat="47.557495" lon="18.996529">
				<ele>480.000000</ele>
			</trkpt>
			<trkpt lat="47.557441" lon="18.996520">
				<ele>480.000000</ele>
			</trkpt>
			<trkpt lat="47.557374" lon="18.996566">
				<ele>480.000000</ele>
			</trkpt>
			<trkpt lat="47.557271" lon="18.996692">
				<ele>480.000000</ele>
			</trkpt>
			<trkpt lat="47.557180" lon="18.996879">
				<ele>480.000000</ele>
			</trkpt>
			<trkpt lat="47.557168" lon="18.997024">
				<ele>480.000000</ele>
			</trkpt>
			<trkpt lat="47.557010" lon="18.997032">
				<ele>480.000000</ele>
			</trkpt>
			<trkpt lat="47.557083" lon="18.997652">
				<ele>480.000000</ele>
			</trkpt>
			<trkpt lat="47.557089" lon="18.997742">
				<ele>480.000000</ele>
			</trkpt>
			<trkpt lat="47.557058" lon="18.997887">
				<ele>480.000000</ele>
			</trkpt>
			<trkpt lat="47.557016" lon="18.997805">
				<ele>480.000000</ele>
			</trkpt>
			<trkpt lat="47.556913" lon="18.997724">
				<ele>480.000000</ele>
			</trkpt>
			<trkpt lat="47.556822" lon="18.997724">
				<ele>480.000000</ele>
			</trkpt>
			<trkpt lat="47.556628" lon="18.997797">
				<ele>480.000000</ele>
			</trkpt>
			<trkpt lat="47.556343" lon="18.998038">
				<ele>482.000000</ele>
			</trkpt>
			<trkpt lat="47.556065" lon="18.998327">
				<ele>484.000000</ele>
			</trkpt>
			<trkpt lat="47.555998" lon="18.998604">
				<ele>485.000000</ele>
			</trkpt>
			<trkpt lat="47.555864" lon="18.998820">
				<ele>486.000000</ele>
			</trkpt>
			<trkpt lat="47.555762" lon="18.999053">
				<ele>487.000000</ele>
			</trkpt>
			<trkpt lat="47.555707" lon="18.999143">
				<ele>488.000000</ele>
			</trkpt>
			<trkpt lat="47.555609" lon="18.999216">
				<ele>489.000000</ele>
			</trkpt>
			<trkpt lat="47.555519" lon="18.999233">
				<ele>489.000000</ele>
			</trkpt>
			<trkpt lat="47.555477" lon="18.999225">
				<ele>489.000000</ele>
			</trkpt>
			<trkpt lat="47.555446" lon="18.999170">
				<ele>490.000000</ele>
			</trkpt>
			<trkpt lat="47.555379" lon="18.998955">
				<ele>490.000000</ele>
			</trkpt>
			<trkpt lat="47.555379" lon="18.998866">
				<ele>490.000000</ele>
			</trkpt>
			<trkpt lat="47.555385" lon="18.998703">
				<ele>490.000000</ele>
			</trkpt>
			<trkpt lat="47.555343" lon="18.998614">
				<ele>490.000000</ele>
			</trkpt>
			<trkpt lat="47.555294" lon="18.998524">
				<ele>490.000000</ele>
			</trkpt>
			<trkpt lat="47.555216" lon="18.998245">
				<ele>490.000000</ele>
			</trkpt>
			<trkpt lat="47.555131" lon="18.998398">
				<ele>490.000000</ele>
			</trkpt>
			<trkpt lat="47.554937" lon="18.998533">
				<ele>488.000000</ele>
			</trkpt>
			<trkpt lat="47.554858" lon="18.998577">
				<ele>486.000000</ele>
			</trkpt>
			<trkpt lat="47.554670" lon="18.998694">
				<ele>482.000000</ele>
			</trkpt>
			<trkpt lat="47.554604" lon="18.998766">
				<ele>480.000000</ele>
			</trkpt>
			<trkpt lat="47.554440" lon="18.998946">
				<ele>480.000000</ele>
			</trkpt>
			<trkpt lat="47.554349" lon="18.999027">
				<ele>480.000000</ele>
			</trkpt>
			<trkpt lat="47.554331" lon="18.999045">
				<ele>480.000000</ele>
			</trkpt>
			<trkpt lat="47.554288" lon="18.999072">
				<ele>480.000000</ele>
			</trkpt>
			<trkpt lat="47.554252" lon="18.999108">
				<ele>479.000000</ele>
			</trkpt>
			<trkpt lat="47.554227" lon="18.999153">
				<ele>478.000000</ele>
			</trkpt>
			<trkpt lat="47.554209" lon="18.999216">
				<ele>478.000000</ele>
			</trkpt>
			<trkpt lat="47.554185" lon="18.999260">
				<ele>477.000000</ele>
			</trkpt>
			<trkpt lat="47.554155" lon="18.999279">
				<ele>477.000000</ele>
			</trkpt>
			<trkpt lat="47.554124" lon="18.999287">
				<ele>476.000000</ele>
			</trkpt>
			<trkpt lat="47.554100" lon="18.999306">
				<ele>476.000000</ele>
			</trkpt>
			<trkpt lat="47.554088" lon="18.999332">
				<ele>476.000000</ele>
			</trkpt>
			<trkpt lat="47.554082" lon="18.999377">
				<ele>475.000000</ele>
			</trkpt>
			<trkpt lat="47.554076" lon="18.999709">
				<ele>472.000000</ele>
			</trkpt>
			<trkpt lat="47.554094" lon="18.999826">
				<ele>471.000000</ele>
			</trkpt>
			<trkpt lat="47.554100" lon="18.999881">
				<ele>471.000000</ele>
			</trkpt>
			<trkpt lat="47.554094" lon="18.999925">
				<ele>470.000000</ele>
			</trkpt>
			<trkpt lat="47.553954" lon="19.000078">
				<ele>467.000000</ele>
			</trkpt>
			<trkpt lat="47.553767" lon="19.000338">
				<ele>463.000000</ele>
			</trkpt>
			<trkpt lat="47.553433" lon="19.000661">
				<ele>455.000000</ele>
			</trkpt>
			<trkpt lat="47.553106" lon="19.001137">
				<ele>446.000000</ele>
			</trkpt>
			<trkpt lat="47.553094" lon="19.001156">
				<ele>446.000000</ele>
			</trkpt>
			<trkpt lat="47.553087" lon="19.001183">
				<ele>446.000000</ele>
			</trkpt>
			<trkpt lat="47.553045" lon="19.001426">
				<ele>444.000000</ele>
			</trkpt>
			<trkpt lat="47.553015" lon="19.001560">
				<ele>443.000000</ele>
			</trkpt>
			<trkpt lat="47.552742" lon="19.001893">
				<ele>440.000000</ele>
			</trkpt>
			<trkpt lat="47.552499" lon="19.002206">
				<ele>439.000000</ele>
			</trkpt>
			<trkpt lat="47.552391" lon="19.002324">
				<ele>438.000000</ele>
			</trkpt>
			<trkpt lat="47.552220" lon="19.002548">
				<ele>437.000000</ele>
			</trkpt>
			<trkpt lat="47.552118" lon="19.002656">
				<ele>437.000000</ele>
			</trkpt>
			<trkpt lat="47.552009" lon="19.002701">
				<ele>437.000000</ele>
			</trkpt>
			<trkpt lat="47.551941" lon="19.002701">
				<ele>436.000000</ele>
			</trkpt>
			<trkpt lat="47.551899" lon="19.002711">
				<ele>436.000000</ele>
			</trkpt>
			<trkpt lat="47.551778" lon="19.002791">
				<ele>435.000000</ele>
			</trkpt>
			<trkpt lat="47.551554" lon="19.003195">
				<ele>434.000000</ele>
			</trkpt>
			<trkpt lat="47.551281" lon="19.003581">
				<ele>432.000000</ele>
			</trkpt>
			<trkpt lat="47.551056" lon="19.003923">
				<ele>431.000000</ele>
			</trkpt>
			<trkpt lat="47.550832" lon="19.004166">
				<ele>429.000000</ele>
			</trkpt>
			<trkpt lat="47.550645" lon="19.004390">
				<ele>428.000000</ele>
			</trkpt>
			<trkpt lat="47.550553" lon="19.004435">
				<ele>428.000000</ele>
			</trkpt>
			<trkpt lat="47.550505" lon="19.004443">
				<ele>427.000000</ele>
			</trkpt>
			<trkpt lat="47.550402" lon="19.004416">
				<ele>427.000000</ele>
			</trkpt>
			<trkpt lat="47.550250" lon="19.004290">
				<ele>426.000000</ele>
			</trkpt>
			<trkpt lat="47.549990" lon="19.004147">
				<ele>425.000000</ele>
			</trkpt>
			<trkpt lat="47.549856" lon="19.004147">
				<ele>424.000000</ele>
			</trkpt>
			<trkpt lat="47.549426" lon="19.003977">
				<ele>422.000000</ele>
			</trkpt>
			<trkpt lat="47.549244" lon="19.003887">
				<ele>421.000000</ele>
			</trkpt>
			<trkpt lat="47.549171" lon="19.003877">
				<ele>421.000000</ele>
			</trkpt>
			<trkpt lat="47.549049" lon="19.003923">
				<ele>420.000000</ele>
			</trkpt>
			<trkpt lat="47.548801" lon="19.004066">
				<ele>417.000000</ele>
			</trkpt>
			<trkpt lat="47.548601" lon="19.004183">
				<ele>415.000000</ele>
			</trkpt>
			<trkpt lat="47.548546" lon="19.004219">
				<ele>414.000000</ele>
			</trkpt>
			<trkpt lat="47.548255" lon="19.004408">
				<ele>410.000000</ele>
			</trkpt>
			<trkpt lat="47.547897" lon="19.004596">
				<ele>405.000000</ele>
			</trkpt>
			<trkpt lat="47.547273" lon="19.004974">
				<ele>398.000000</ele>
			</trkpt>
			<trkpt lat="47.547055" lon="19.005099">
				<ele>395.000000</ele>
			</trkpt>
			<trkpt lat="47.546861" lon="19.005216">
				<ele>392.000000</ele>
			</trkpt>
			<trkpt lat="47.546776" lon="19.005271">
				<ele>391.000000</ele>
			</trkpt>
			<trkpt lat="47.546540" lon="19.005405">
				<ele>388.000000</ele>
			</trkpt>
			<trkpt lat="47.546454" lon="19.005450">
				<ele>387.000000</ele>
			</trkpt>
			<trkpt lat="47.546267" lon="19.005414">
				<ele>385.000000</ele>
			</trkpt>
			<trkpt lat="47.546121" lon="19.005495">
				<ele>383.000000</ele>
			</trkpt>
			<trkpt lat="47.545806" lon="19.005711">
				<ele>380.000000</ele>
			</trkpt>
			<trkpt lat="47.545593" lon="19.005890">
				<ele>378.000000</ele>
			</trkpt>
			<trkpt lat="47.545460" lon="19.006007">
				<ele>377.000000</ele>
			</trkpt>
			<trkpt lat="47.545284" lon="19.006214">
				<ele>375.000000</ele>
			</trkpt>
			<trkpt lat="47.545199" lon="19.006374">
				<ele>374.000000</ele>
			</trkpt>
			<trkpt lat="47.545139" lon="19.006464">
				<ele>374.000000</ele>
			</trkpt>
			<trkpt lat="47.545023" lon="19.006672">
				<ele>373.000000</ele>
			</trkpt>
			<trkpt lat="47.544812" lon="19.007003">
				<ele>371.000000</ele>
			</trkpt>
			<trkpt lat="47.544672" lon="19.007238">
				<ele>369.000000</ele>
			</trkpt>
			<trkpt lat="47.544527" lon="19.007480">
				<ele>367.000000</ele>
			</trkpt>
			<trkpt lat="47.544453" lon="19.007606">
				<ele>367.000000</ele>
			</trkpt>
			<trkpt lat="47.544375" lon="19.007732">
				<ele>366.000000</ele>
			</trkpt>
			<trkpt lat="47.544229" lon="19.007948">
				<ele>364.000000</ele>
			</trkpt>
			<trkpt lat="47.544065" lon="19.008172">
				<ele>363.000000</ele>
			</trkpt>
			<trkpt lat="47.543944" lon="19.008324">
				<ele>362.000000</ele>
			</trkpt>
			<trkpt lat="47.543920" lon="19.008387">
				<ele>361.000000</ele>
			</trkpt>
			<trkpt lat="47.543865" lon="19.008451">
				<ele>361.000000</ele>
			</trkpt>
			<trkpt lat="47.543811" lon="19.008397">
				<ele>360.000000</ele>
			</trkpt>
			<trkpt lat="47.543786" lon="19.008387">
				<ele>360.000000</ele>
			</trkpt>
			<trkpt lat="47.543738" lon="19.008378">
				<ele>360.000000</ele>
			</trkpt>
			<trkpt lat="47.543660" lon="19.008424">
				<ele>359.000000</ele>
			</trkpt>
			<trkpt lat="47.543592" lon="19.008648">
				<ele>358.000000</ele>
			</trkpt>
			<trkpt lat="47.543550" lon="19.008854">
				<ele>357.000000</ele>
			</trkpt>
			<trkpt lat="47.543489" lon="19.009169">
				<ele>355.000000</ele>
			</trkpt>
			<trkpt lat="47.543465" lon="19.009366">
				<ele>354.000000</ele>
			</trkpt>
			<trkpt lat="47.543387" lon="19.009537">
				<ele>353.000000</ele>
			</trkpt>
			<trkpt lat="47.543277" lon="19.009663">
				<ele>351.000000</ele>
			</trkpt>
			<trkpt lat="47.543114" lon="19.009833">
				<ele>349.000000</ele>
			</trkpt>
			<trkpt lat="47.542931" lon="19.010040">
				<ele>346.000000</ele>
			</trkpt>
			<trkpt lat="47.542744" lon="19.010292">
				<ele>343.000000</ele>
			</trkpt>
			<trkpt lat="47.542646" lon="19.010418">
				<ele>341.000000</ele>
			</trkpt>
			<trkpt lat="47.542610" lon="19.010508">
				<ele>340.000000</ele>
			</trkpt>
			<trkpt lat="47.542489" lon="19.010741">
				<ele>339.000000</ele>
			</trkpt>
			<trkpt lat="47.542398" lon="19.010840">
				<ele>338.000000</ele>
			</trkpt>
			<trkpt lat="47.542398" lon="19.010840">
				<ele>338.000000</ele>
			</trkpt>
			<trkpt lat="47.542319" lon="19.010938">
				<ele>337.000000</ele>
			</trkpt>
			<trkpt lat="47.542210" lon="19.011037">
				<ele>337.000000</ele>
			</trkpt>
			<trkpt lat="47.542155" lon="19.011074">
				<ele>336.000000</ele>
			</trkpt>
			<trkpt lat="47.542010" lon="19.011020">
				<ele>335.000000</ele>
			</trkpt>
			<trkpt lat="47.541877" lon="19.011055">
				<ele>334.000000</ele>
			</trkpt>
			<trkpt lat="47.541834" lon="19.011037">
				<ele>334.000000</ele>
			</trkpt>
			<trkpt lat="47.541773" lon="19.010992">
				<ele>334.000000</ele>
			</trkpt>
			<trkpt lat="47.541737" lon="19.010911">
				<ele>333.000000</ele>
			</trkpt>
			<trkpt lat="47.541707" lon="19.010822">
				<ele>333.000000</ele>
			</trkpt>
			<trkpt lat="47.541676" lon="19.010741">
				<ele>333.000000</ele>
			</trkpt>
			<trkpt lat="47.541658" lon="19.010632">
				<ele>332.000000</ele>
			</trkpt>
			<trkpt lat="47.541634" lon="19.010445">
				<ele>332.000000</ele>
			</trkpt>
			<trkpt lat="47.541616" lon="19.010211">
				<ele>331.000000</ele>
			</trkpt>
			<trkpt lat="47.541707" lon="19.009590">
				<ele>328.000000</ele>
			</trkpt>
			<trkpt lat="47.541749" lon="19.009088">
				<ele>323.000000</ele>
			</trkpt>
			<trkpt lat="47.541755" lon="19.009061">
				<ele>323.000000</ele>
			</trkpt>
			<trkpt lat="47.541828" lon="19.008657">
				<ele>319.000000</ele>
			</trkpt>
			<trkpt lat="47.541791" lon="19.008531">
				<ele>318.000000</ele>
			</trkpt>
			<trkpt lat="47.541761" lon="19.008451">
				<ele>317.000000</ele>
			</trkpt>
			<trkpt lat="47.541719" lon="19.008351">
				<ele>316.000000</ele>
			</trkpt>
			<trkpt lat="47.541585" lon="19.008127">
				<ele>313.000000</ele>
			</trkpt>
			<trkpt lat="47.541494" lon="19.008100">
				<ele>312.000000</ele>
			</trkpt>
			<trkpt lat="47.541185" lon="19.007732">
				<ele>306.000000</ele>
			</trkpt>
			<trkpt lat="47.540997" lon="19.007498">
				<ele>302.000000</ele>
			</trkpt>
			<trkpt lat="47.540948" lon="19.007453">
				<ele>301.000000</ele>
			</trkpt>
			<trkpt lat="47.540761" lon="19.007292">
				<ele>298.000000</ele>
			</trkpt>
			<trkpt lat="47.540651" lon="19.007175">
				<ele>296.000000</ele>
			</trkpt>
			<trkpt lat="47.540615" lon="19.007103">
				<ele>295.000000</ele>
			</trkpt>
			<trkpt lat="47.540609" lon="19.007049">
				<ele>295.000000</ele>
			</trkpt>
			<trkpt lat="47.540603" lon="19.006986">
				<ele>294.000000</ele>
			</trkpt>
			<trkpt lat="47.540603" lon="19.006770">
				<ele>292.000000</ele>
			</trkpt>
			<trkpt lat="47.540597" lon="19.006716">
				<ele>292.000000</ele>
			</trkpt>
			<trkpt lat="47.540554" lon="19.006537">
				<ele>290.000000</ele>
			</trkpt>
			<trkpt lat="47.540494" lon="19.006519">
				<ele>290.000000</ele>
			</trkpt>
			<trkpt lat="47.540452" lon="19.006519">
				<ele>290.000000</ele>
			</trkpt>
			<trkpt lat="47.540409" lon="19.006501">
				<ele>290.000000</ele>
			</trkpt>
			<trkpt lat="47.540203" lon="19.006384">
				<ele>293.000000</ele>
			</trkpt>
			<trkpt lat="47.540142" lon="19.006340">
				<ele>294.000000</ele>
			</trkpt>
			<trkpt lat="47.540106" lon="19.006411">
				<ele>295.000000</ele>
			</trkpt>
			<trkpt lat="47.540051" lon="19.006447">
				<ele>296.000000</ele>
			</trkpt>
			<trkpt lat="47.540027" lon="19.006600">
				<ele>298.000000</ele>
			</trkpt>
			<trkpt lat="47.539948" lon="19.006627">
				<ele>299.000000</ele>
			</trkpt>
			<trkpt lat="47.539875" lon="19.006510">
				<ele>301.000000</ele>
			</trkpt>
			<trkpt lat="47.539827" lon="19.006429">
				<ele>302.000000</ele>
			</trkpt>
			<trkpt lat="47.539760" lon="19.006177">
				<ele>306.000000</ele>
			</trkpt>
			<trkpt lat="47.539572" lon="19.005665">
				<ele>312.000000</ele>
			</trkpt>
			<trkpt lat="47.539336" lon="19.004982">
				<ele>319.000000</ele>
			</trkpt>
			<trkpt lat="47.539317" lon="19.004677">
				<ele>321.000000</ele>
			</trkpt>
			<trkpt lat="47.539329" lon="19.004336">
				<ele>322.000000</ele>
			</trkpt>
			<trkpt lat="47.539299" lon="19.004129">
				<ele>323.000000</ele>
			</trkpt>
			<trkpt lat="47.539263" lon="19.003959">
				<ele>323.000000</ele>
			</trkpt>
			<trkpt lat="47.539245" lon="19.003940">
				<ele>323.000000</ele>
			</trkpt>
			<trkpt lat="47.539220" lon="19.003959">
				<ele>324.000000</ele>
			</trkpt>
			<trkpt lat="47.539184" lon="19.004030">
				<ele>324.000000</ele>
			</trkpt>
			<trkpt lat="47.539069" lon="19.004479">
				<ele>325.000000</ele>
			</trkpt>
			<trkpt lat="47.538978" lon="19.004821">
				<ele>327.000000</ele>
			</trkpt>
			<trkpt lat="47.538820" lon="19.005459">
				<ele>329.000000</ele>
			</trkpt>
			<trkpt lat="47.538693" lon="19.006016">
				<ele>332.000000</ele>
			</trkpt>
			<trkpt lat="47.538620" lon="19.006483">
				<ele>334.000000</ele>
			</trkpt>
			<trkpt lat="47.538589" lon="19.006627">
				<ele>335.000000</ele>
			</trkpt>
			<trkpt lat="47.538547" lon="19.006789">
				<ele>336.000000</ele>
			</trkpt>
			<trkpt lat="47.538498" lon="19.006914">
				<ele>337.000000</ele>
			</trkpt>
			<trkpt lat="47.538456" lon="19.006995">
				<ele>337.000000</ele>
			</trkpt>
			<trkpt lat="47.538402" lon="19.007085">
				<ele>338.000000</ele>
			</trkpt>
			<trkpt lat="47.538329" lon="19.007156">
				<ele>338.000000</ele>
			</trkpt>
			<trkpt lat="47.538256" lon="19.007202">
				<ele>339.000000</ele>
			</trkpt>
			<trkpt lat="47.538177" lon="19.007229">
				<ele>340.000000</ele>
			</trkpt>
			<trkpt lat="47.538099" lon="19.007219">
				<ele>340.000000</ele>
			</trkpt>
			<trkpt lat="47.538032" lon="19.007175">
				<ele>340.000000</ele>
			</trkpt>
			<trkpt lat="47.538001" lon="19.007156">
				<ele>341.000000</ele>
			</trkpt>
			<trkpt lat="47.537922" lon="19.007076">
				<ele>341.000000</ele>
			</trkpt>
			<trkpt lat="47.537838" lon="19.006914">
				<ele>341.000000</ele>
			</trkpt>
			<trkpt lat="47.537686" lon="19.006429">
				<ele>343.000000</ele>
			</trkpt>
			<trkpt lat="47.537625" lon="19.006124">
				<ele>344.000000</ele>
			</trkpt>
			<trkpt lat="47.537601" lon="19.005890">
				<ele>344.000000</ele>
			</trkpt>
			<trkpt lat="47.537613" lon="19.005674">
				<ele>345.000000</ele>
			</trkpt>
			<trkpt lat="47.537686" lon="19.005369">
				<ele>346.000000</ele>
			</trkpt>
			<trkpt lat="47.537826" lon="19.004929">
				<ele>347.000000</ele>
			</trkpt>
			<trkpt lat="47.537910" lon="19.004749">
				<ele>348.000000</ele>
			</trkpt>
			<trkpt lat="47.537910" lon="19.004659">
				<ele>348.000000</ele>
			</trkpt>
			<trkpt lat="47.537892" lon="19.004615">
				<ele>348.000000</ele>
			</trkpt>
			<trkpt lat="47.537862" lon="19.004579">
				<ele>348.000000</ele>
			</trkpt>
			<trkpt lat="47.537838" lon="19.004552">
				<ele>348.000000</ele>
			</trkpt>
			<trkpt lat="47.537795" lon="19.004533">
				<ele>348.000000</ele>
			</trkpt>
			<trkpt lat="47.537346" lon="19.004408">
				<ele>350.000000</ele>
			</trkpt>
			<trkpt lat="47.536988" lon="19.004229">
				<ele>353.000000</ele>
			</trkpt>
			<trkpt lat="47.536819" lon="19.003932">
				<ele>356.000000</ele>
			</trkpt>
			<trkpt lat="47.536800" lon="19.003842">
				<ele>356.000000</ele>
			</trkpt>
			<trkpt lat="47.536800" lon="19.003842">
				<ele>356.000000</ele>
			</trkpt>
			<trkpt lat="47.536782" lon="19.003724">
				<ele>357.000000</ele>
			</trkpt>
			<trkpt lat="47.536855" lon="19.003267">
				<ele>359.000000</ele>
			</trkpt>
			<trkpt lat="47.536916" lon="19.002881">
				<ele>362.000000</ele>
			</trkpt>
			<trkpt lat="47.536916" lon="19.002629">
				<ele>363.000000</ele>
			</trkpt>
			<trkpt lat="47.536819" lon="19.002180">
				<ele>367.000000</ele>
			</trkpt>
			<trkpt lat="47.536752" lon="19.001973">
				<ele>368.000000</ele>
			</trkpt>
			<trkpt lat="47.536691" lon="19.001820">
				<ele>370.000000</ele>
			</trkpt>
			<trkpt lat="47.536613" lon="19.001650">
				<ele>370.000000</ele>
			</trkpt>
			<trkpt lat="47.536442" lon="19.001380">
				<ele>370.000000</ele>
			</trkpt>
			<trkpt lat="47.536412" lon="19.001290">
				<ele>370.000000</ele>
			</trkpt>
			<trkpt lat="47.536382" lon="19.001200">
				<ele>370.000000</ele>
			</trkpt>
			<trkpt lat="47.536346" lon="19.001066">
				<ele>370.000000</ele>
			</trkpt>
			<trkpt lat="47.536328" lon="19.000860">
				<ele>370.000000</ele>
			</trkpt>
			<trkpt lat="47.536352" lon="19.000635">
				<ele>370.000000</ele>
			</trkpt>
			<trkpt lat="47.536352" lon="19.000508">
				<ele>370.000000</ele>
			</trkpt>
			<trkpt lat="47.536352" lon="19.000455">
				<ele>370.000000</ele>
			</trkpt>
			<trkpt lat="47.536273" lon="19.000348">
				<ele>370.000000</ele>
			</trkpt>
			<trkpt lat="47.536224" lon="19.000321">
				<ele>370.000000</ele>
			</trkpt>
			<trkpt lat="47.536127" lon="19.000321">
				<ele>370.000000</ele>
			</trkpt>
			<trkpt lat="47.536018" lon="19.000348">
				<ele>370.000000</ele>
			</trkpt>
			<trkpt lat="47.535933" lon="19.000365">
				<ele>370.000000</ele>
			</trkpt>
			<trkpt lat="47.535739" lon="19.000321">
				<ele>370.000000</ele>
			</trkpt>
			<trkpt lat="47.535575" lon="19.000185">
				<ele>370.000000</ele>
			</trkpt>
			<trkpt lat="47.535394" lon="19.000204">
				<ele>370.000000</ele>
			</trkpt>
			<trkpt lat="47.535357" lon="19.000195">
				<ele>370.000000</ele>
			</trkpt>
			<trkpt lat="47.535321" lon="19.000168">
				<ele>370.000000</ele>
			</trkpt>
			<trkpt lat="47.535302" lon="19.000114">
				<ele>370.000000</ele>
			</trkpt>
			<trkpt lat="47.535260" lon="18.999853">
				<ele>370.000000</ele>
			</trkpt>
			<trkpt lat="47.535242" lon="18.999791">
				<ele>370.000000</ele>
			</trkpt>
			<trkpt lat="47.535193" lon="18.999772">
				<ele>370.000000</ele>
			</trkpt>
			<trkpt lat="47.535193" lon="18.999772">
				<ele>370.000000</ele>
			</trkpt>
			<trkpt lat="47.535242" lon="18.999791">
				<ele>370.000000</ele>
			</trkpt>
			<trkpt lat="47.535230" lon="18.999736">
				<ele>370.000000</ele>
			</trkpt>
			<trkpt lat="47.535266" lon="18.999638">
				<ele>370.000000</ele>
			</trkpt>
			<trkpt lat="47.535302" lon="18.999566">
				<ele>370.000000</ele>
			</trkpt>
			<trkpt lat="47.535327" lon="18.999440">
				<ele>370.000000</ele>
			</trkpt>
			<trkpt lat="47.535406" lon="18.999377">
				<ele>370.000000</ele>
			</trkpt>
			<trkpt lat="47.535460" lon="18.999377">
				<ele>370.000000</ele>
			</trkpt>
			<trkpt lat="47.535545" lon="18.999485">
				<ele>370.000000</ele>
			</trkpt>
			<trkpt lat="47.535642" lon="18.999665">
				<ele>370.000000</ele>
			</trkpt>
			<trkpt lat="47.535703" lon="18.999808">
				<ele>370.000000</ele>
			</trkpt>
			<trkpt lat="47.535751" lon="18.999908">
				<ele>370.000000</ele>
			</trkpt>
			<trkpt lat="47.535800" lon="18.999998">
				<ele>370.000000</ele>
			</trkpt>
			<trkpt lat="47.535872" lon="19.000105">
				<ele>370.000000</ele>
			</trkpt>
			<trkpt lat="47.535921" lon="19.000168">
				<ele>370.000000</ele>
			</trkpt>
			<trkpt lat="47.535939" lon="19.000185">
				<ele>370.000000</ele>
			</trkpt>
			<trkpt lat="47.535958" lon="19.000195">
				<ele>370.000000</ele>
			</trkpt>
			<trkpt lat="47.536000" lon="19.000204">
				<ele>370.000000</ele>
			</trkpt>
			<trkpt lat="47.536224" lon="19.000185">
				<ele>370.000000</ele>
			</trkpt>
			<trkpt lat="47.536310" lon="19.000168">
				<ele>370.000000</ele>
			</trkpt>
			<trkpt lat="47.536352" lon="19.000168">
				<ele>370.000000</ele>
			</trkpt>
			<trkpt lat="47.536424" lon="19.000185">
				<ele>370.000000</ele>
			</trkpt>
			<trkpt lat="47.536461" lon="19.000177">
				<ele>370.000000</ele>
			</trkpt>
			<trkpt lat="47.536497" lon="19.000158">
				<ele>370.000000</ele>
			</trkpt>
			<trkpt lat="47.536534" lon="19.000132">
				<ele>370.000000</ele>
			</trkpt>
			<trkpt lat="47.536589" lon="19.000087">
				<ele>370.000000</ele>
			</trkpt>
			<trkpt lat="47.536655" lon="18.999998">
				<ele>370.000000</ele>
			</trkpt>
			<trkpt lat="47.536746" lon="18.999871">
				<ele>370.000000</ele>
			</trkpt>
			<trkpt lat="47.536837" lon="18.999719">
				<ele>370.000000</ele>
			</trkpt>
			<trkpt lat="47.536880" lon="18.999602">
				<ele>370.000000</ele>
			</trkpt>
			<trkpt lat="47.537037" lon="18.999242">
				<ele>369.000000</ele>
			</trkpt>
			<trkpt lat="47.537128" lon="18.999019">
				<ele>367.000000</ele>
			</trkpt>
			<trkpt lat="47.537261" lon="18.998856">
				<ele>365.000000</ele>
			</trkpt>
			<trkpt lat="47.537334" lon="18.998803">
				<ele>364.000000</ele>
			</trkpt>
			<trkpt lat="47.537419" lon="18.998757">
				<ele>363.000000</ele>
			</trkpt>
			<trkpt lat="47.537492" lon="18.998730">
				<ele>362.000000</ele>
			</trkpt>
			<trkpt lat="47.537613" lon="18.998686">
				<ele>361.000000</ele>
			</trkpt>
			<trkpt lat="47.537728" lon="18.998659">
				<ele>359.000000</ele>
			</trkpt>
			<trkpt lat="47.537844" lon="18.998640">
				<ele>359.000000</ele>
			</trkpt>
			<trkpt lat="47.537922" lon="18.998650">
				<ele>358.000000</ele>
			</trkpt>
			<trkpt lat="47.537977" lon="18.998659">
				<ele>358.000000</ele>
			</trkpt>
			<trkpt lat="47.538026" lon="18.998650">
				<ele>357.000000</ele>
			</trkpt>
			<trkpt lat="47.538074" lon="18.998604">
				<ele>357.000000</ele>
			</trkpt>
			<trkpt lat="47.538105" lon="18.998506">
				<ele>356.000000</ele>
			</trkpt>
			<trkpt lat="47.538147" lon="18.998308">
				<ele>355.000000</ele>
			</trkpt>
			<trkpt lat="47.538183" lon="18.998128">
				<ele>354.000000</ele>
			</trkpt>
			<trkpt lat="47.538213" lon="18.997940">
				<ele>353.000000</ele>
			</trkpt>
			<trkpt lat="47.538256" lon="18.997724">
				<ele>352.000000</ele>
			</trkpt>
			<trkpt lat="47.538280" lon="18.997571">
				<ele>351.000000</ele>
			</trkpt>
			<trkpt lat="47.538359" lon="18.997275">
				<ele>350.000000</ele>
			</trkpt>
			<trkpt lat="47.538426" lon="18.996969">
				<ele>348.000000</ele>
			</trkpt>
			<trkpt lat="47.538486" lon="18.996845">
				<ele>347.000000</ele>
			</trkpt>
			<trkpt lat="47.538589" lon="18.996655">
				<ele>346.000000</ele>
			</trkpt>
			<trkpt lat="47.538657" lon="18.996539">
				<ele>345.000000</ele>
			</trkpt>
			<trkpt lat="47.538735" lon="18.996449">
				<ele>344.000000</ele>
			</trkpt>
			<trkpt lat="47.538777" lon="18.996377">
				<ele>344.000000</ele>
			</trkpt>
			<trkpt lat="47.538838" lon="18.996242">
				<ele>343.000000</ele>
			</trkpt>
			<trkpt lat="47.538929" lon="18.995919">
				<ele>341.000000</ele>
			</trkpt>
			<trkpt lat="47.538960" lon="18.995793">
				<ele>340.000000</ele>
			</trkpt>
			<trkpt lat="47.539032" lon="18.995550">
				<ele>339.000000</ele>
			</trkpt>
			<trkpt lat="47.539190" lon="18.995147">
				<ele>336.000000</ele>
			</trkpt>
			<trkpt lat="47.539208" lon="18.995065">
				<ele>336.000000</ele>
			</trkpt>
			<trkpt lat="47.539214" lon="18.994948">
				<ele>335.000000</ele>
			</trkpt>
			<trkpt lat="47.539214" lon="18.994904">
				<ele>335.000000</ele>
			</trkpt>
			<trkpt lat="47.539196" lon="18.994822">
				<ele>334.000000</ele>
			</trkpt>
			<trkpt lat="47.539147" lon="18.994679">
				<ele>334.000000</ele>
			</trkpt>
			<trkpt lat="47.539081" lon="18.994526">
				<ele>333.000000</ele>
			</trkpt>
			<trkpt lat="47.539050" lon="18.994436">
				<ele>332.000000</ele>
			</trkpt>
			<trkpt lat="47.539044" lon="18.994346">
				<ele>332.000000</ele>
			</trkpt>
			<trkpt lat="47.539044" lon="18.994229">
				<ele>331.000000</ele>
			</trkpt>
			<trkpt lat="47.539069" lon="18.993933">
				<ele>329.000000</ele>
			</trkpt>
			<trkpt lat="47.539111" lon="18.993511">
				<ele>327.000000</ele>
			</trkpt>
			<trkpt lat="47.539123" lon="18.993430">
				<ele>326.000000</ele>
			</trkpt>
			<trkpt lat="47.539172" lon="18.993206">
				<ele>325.000000</ele>
			</trkpt>
			<trkpt lat="47.539208" lon="18.993026">
				<ele>323.000000</ele>
			</trkpt>
			<trkpt lat="47.539275" lon="18.992837">
				<ele>322.000000</ele>
			</trkpt>
			<trkpt lat="47.539354" lon="18.992684">
				<ele>321.000000</ele>
			</trkpt>
			<trkpt lat="47.539499" lon="18.992424">
				<ele>320.000000</ele>
			</trkpt>
			<trkpt lat="47.539651" lon="18.992191">
				<ele>319.000000</ele>
			</trkpt>
			<trkpt lat="47.539918" lon="18.991868">
				<ele>318.000000</ele>
			</trkpt>
			<trkpt lat="47.540215" lon="18.991553">
				<ele>316.000000</ele>
			</trkpt>
			<trkpt lat="47.540433" lon="18.991355">
				<ele>316.000000</ele>
			</trkpt>
			<trkpt lat="47.540488" lon="18.991329">
				<ele>315.000000</ele>
			</trkpt>
			<trkpt lat="47.540548" lon="18.991275">
				<ele>315.000000</ele>
			</trkpt>
			<trkpt lat="47.540615" lon="18.991220">
				<ele>315.000000</ele>
			</trkpt>
			<trkpt lat="47.540633" lon="18.991193">
				<ele>315.000000</ele>
			</trkpt>
			<trkpt lat="47.540755" lon="18.991013">
				<ele>314.000000</ele>
			</trkpt>
			<trkpt lat="47.540942" lon="18.990753">
				<ele>313.000000</ele>
			</trkpt>
			<trkpt lat="47.541009" lon="18.990663">
				<ele>313.000000</ele>
			</trkpt>
			<trkpt lat="47.541112" lon="18.990564">
				<ele>313.000000</ele>
			</trkpt>
			<trkpt lat="47.541252" lon="18.990394">
				<ele>312.000000</ele>
			</trkpt>
			<trkpt lat="47.541343" lon="18.990287">
				<ele>312.000000</ele>
			</trkpt>
			<trkpt lat="47.541422" lon="18.990214">
				<ele>311.000000</ele>
			</trkpt>
			<trkpt lat="47.541561" lon="18.990061">
				<ele>311.000000</ele>
			</trkpt>
			<trkpt lat="47.541579" lon="18.990044">
				<ele>311.000000</ele>
			</trkpt>
			<trkpt lat="47.541949" lon="18.989711">
				<ele>311.000000</ele>
			</trkpt>
			<trkpt lat="47.542046" lon="18.989612">
				<ele>311.000000</ele>
			</trkpt>
			<trkpt lat="47.542143" lon="18.989541">
				<ele>311.000000</ele>
			</trkpt>
			<trkpt lat="47.542186" lon="18.989505">
				<ele>311.000000</ele>
			</trkpt>
			<trkpt lat="47.542246" lon="18.989460">
				<ele>311.000000</ele>
			</trkpt>
			<trkpt lat="47.542289" lon="18.989432">
				<ele>311.000000</ele>
			</trkpt>
			<trkpt lat="47.542343" lon="18.989405">
				<ele>311.000000</ele>
			</trkpt>
			<trkpt lat="47.542416" lon="18.989361">
				<ele>312.000000</ele>
			</trkpt>
			<trkpt lat="47.542677" lon="18.989218">
				<ele>312.000000</ele>
			</trkpt>
			<trkpt lat="47.542786" lon="18.989155">
				<ele>312.000000</ele>
			</trkpt>
			<trkpt lat="47.542859" lon="18.989128">
				<ele>313.000000</ele>
			</trkpt>
			<trkpt lat="47.543186" lon="18.988948">
				<ele>313.000000</ele>
			</trkpt>
			<trkpt lat="47.543501" lon="18.988786">
				<ele>314.000000</ele>
			</trkpt>
			<trkpt lat="47.543586" lon="18.988750">
				<ele>314.000000</ele>
			</trkpt>
			<trkpt lat="47.543678" lon="18.988687">
				<ele>314.000000</ele>
			</trkpt>
			<trkpt lat="47.543883" lon="18.988526">
				<ele>315.000000</ele>
			</trkpt>
			<trkpt lat="47.544084" lon="18.988283">
				<ele>315.000000</ele>
			</trkpt>
			<trkpt lat="47.544266" lon="18.987987">
				<ele>316.000000</ele>
			</trkpt>
			<trkpt lat="47.544654" lon="18.987384">
				<ele>317.000000</ele>
			</trkpt>
			<trkpt lat="47.544812" lon="18.987134">
				<ele>317.000000</ele>
			</trkpt>
			<trkpt lat="47.545042" lon="18.986864">
				<ele>318.000000</ele>
			</trkpt>
			<trkpt lat="47.545175" lon="18.986711">
				<ele>318.000000</ele>
			</trkpt>
			<trkpt lat="47.545442" lon="18.986468">
				<ele>319.000000</ele>
			</trkpt>
			<trkpt lat="47.545660" lon="18.986306">
				<ele>319.000000</ele>
			</trkpt>
			<trkpt lat="47.545878" lon="18.986172">
				<ele>320.000000</ele>
			</trkpt>
			<trkpt lat="47.546024" lon="18.986092">
				<ele>321.000000</ele>
			</trkpt>
			<trkpt lat="47.546133" lon="18.986019">
				<ele>322.000000</ele>
			</trkpt>
			<trkpt lat="47.546327" lon="18.985866">
				<ele>324.000000</ele>
			</trkpt>
			<trkpt lat="47.546346" lon="18.985813">
				<ele>324.000000</ele>
			</trkpt>
			<trkpt lat="47.546358" lon="18.985759">
				<ele>325.000000</ele>
			</trkpt>
			<trkpt lat="47.546333" lon="18.985489">
				<ele>326.000000</ele>
			</trkpt>
			<trkpt lat="47.546291" lon="18.985229">
				<ele>328.000000</ele>
			</trkpt>
			<trkpt lat="47.546169" lon="18.985004">
				<ele>329.000000</ele>
			</trkpt>
			<trkpt lat="47.545927" lon="18.984734">
				<ele>332.000000</ele>
			</trkpt>
			<trkpt lat="47.545776" lon="18.984582">
				<ele>334.000000</ele>
			</trkpt>
			<trkpt lat="47.545642" lon="18.984375">
				<ele>336.000000</ele>
			</trkpt>
			<trkpt lat="47.545611" lon="18.984268">
				<ele>337.000000</ele>
			</trkpt>
			<trkpt lat="47.545605" lon="18.984232">
				<ele>337.000000</ele>
			</trkpt>
			<trkpt lat="47.545636" lon="18.983782">
				<ele>340.000000</ele>
			</trkpt>
			<trkpt lat="47.545751" lon="18.983396">
				<ele>340.000000</ele>
			</trkpt>
			<trkpt lat="47.545921" lon="18.983063">
				<ele>340.000000</ele>
			</trkpt>
			<trkpt lat="47.545988" lon="18.982821">
				<ele>339.000000</ele>
			</trkpt>
			<trkpt lat="47.546012" lon="18.982731">
				<ele>339.000000</ele>
			</trkpt>
			<trkpt lat="47.546042" lon="18.982650">
				<ele>338.000000</ele>
			</trkpt>
			<trkpt lat="47.546109" lon="18.982560">
				<ele>338.000000</ele>
			</trkpt>
			<trkpt lat="47.546321" lon="18.982273">
				<ele>336.000000</ele>
			</trkpt>
			<trkpt lat="47.546588" lon="18.981905">
				<ele>333.000000</ele>
			</trkpt>
			<trkpt lat="47.546812" lon="18.981572">
				<ele>331.000000</ele>
			</trkpt>
			<trkpt lat="47.547012" lon="18.981268">
				<ele>329.000000</ele>
			</trkpt>
			<trkpt lat="47.547522" lon="18.980566">
				<ele>325.000000</ele>
			</trkpt>
			<trkpt lat="47.548043" lon="18.979821">
				<ele>320.000000</ele>
			</trkpt>
			<trkpt lat="47.548341" lon="18.979426">
				<ele>318.000000</ele>
			</trkpt>
			<trkpt lat="47.548583" lon="18.979031">
				<ele>317.000000</ele>
			</trkpt>
			<trkpt lat="47.548983" lon="18.978356">
				<ele>315.000000</ele>
			</trkpt>
			<trkpt lat="47.549359" lon="18.977880">
				<ele>313.000000</ele>
			</trkpt>
			<trkpt lat="47.549990" lon="18.976964">
				<ele>310.000000</ele>
			</trkpt>
			<trkpt lat="47.550584" lon="18.976039">
				<ele>307.000000</ele>
			</trkpt>
			<trkpt lat="47.550608" lon="18.975922">
				<ele>306.000000</ele>
			</trkpt>
			<trkpt lat="47.550608" lon="18.975796">
				<ele>306.000000</ele>
			</trkpt>
			<trkpt lat="47.550572" lon="18.975455">
				<ele>305.000000</ele>
			</trkpt>
			<trkpt lat="47.550541" lon="18.975365">
				<ele>305.000000</ele>
			</trkpt>
			<trkpt lat="47.550499" lon="18.975239">
				<ele>304.000000</ele>
			</trkpt>
			<trkpt lat="47.550299" lon="18.975015">
				<ele>303.000000</ele>
			</trkpt>
			<trkpt lat="47.550099" lon="18.974934">
				<ele>302.000000</ele>
			</trkpt>
			<trkpt lat="47.550008" lon="18.974907">
				<ele>302.000000</ele>
			</trkpt>
			<trkpt lat="47.549868" lon="18.974836">
				<ele>301.000000</ele>
			</trkpt>
			<trkpt lat="47.549826" lon="18.974763">
				<ele>301.000000</ele>
			</trkpt>
			<trkpt lat="47.549790" lon="18.974673">
				<ele>301.000000</ele>
			</trkpt>
			<trkpt lat="47.549784" lon="18.974620">
				<ele>301.000000</ele>
			</trkpt>
			<trkpt lat="47.549784" lon="18.974620">
				<ele>301.000000</ele>
			</trkpt>
			<trkpt lat="47.549771" lon="18.974530">
				<ele>300.000000</ele>
			</trkpt>
			<trkpt lat="47.549759" lon="18.974404">
				<ele>300.000000</ele>
			</trkpt>
			<trkpt lat="47.549753" lon="18.974305">
				<ele>299.000000</ele>
			</trkpt>
			<trkpt lat="47.549699" lon="18.974234">
				<ele>299.000000</ele>
			</trkpt>
			<trkpt lat="47.549322" lon="18.973884">
				<ele>294.000000</ele>
			</trkpt>
			<trkpt lat="47.549232" lon="18.973794">
				<ele>293.000000</ele>
			</trkpt>
			<trkpt lat="47.549165" lon="18.973649">
				<ele>292.000000</ele>
			</trkpt>
			<trkpt lat="47.549122" lon="18.973425">
				<ele>291.000000</ele>
			</trkpt>
			<trkpt lat="47.549098" lon="18.973326">
				<ele>290.000000</ele>
			</trkpt>
			<trkpt lat="47.549013" lon="18.973119">
				<ele>287.000000</ele>
			</trkpt>
			<trkpt lat="47.548880" lon="18.972966">
				<ele>285.000000</ele>
			</trkpt>
			<trkpt lat="47.548431" lon="18.972428">
				<ele>277.000000</ele>
			</trkpt>
			<trkpt lat="47.548334" lon="18.972284">
				<ele>275.000000</ele>
			</trkpt>
			<trkpt lat="47.548122" lon="18.971557">
				<ele>269.000000</ele>
			</trkpt>
			<trkpt lat="47.547873" lon="18.970909">
				<ele>267.000000</ele>
			</trkpt>
			<trkpt lat="47.547837" lon="18.970802">
				<ele>266.000000</ele>
			</trkpt>
			<trkpt lat="47.547764" lon="18.970765">
				<ele>266.000000</ele>
			</trkpt>
			<trkpt lat="47.547673" lon="18.970731">
				<ele>265.000000</ele>
			</trkpt>
			<trkpt lat="47.547588" lon="18.970658">
				<ele>265.000000</ele>
			</trkpt>
			<trkpt lat="47.547449" lon="18.970595">
				<ele>264.000000</ele>
			</trkpt>
			<trkpt lat="47.547364" lon="18.970551">
				<ele>264.000000</ele>
			</trkpt>
			<trkpt lat="47.547012" lon="18.970272">
				<ele>262.000000</ele>
			</trkpt>
			<trkpt lat="47.546831" lon="18.970075">
				<ele>261.000000</ele>
			</trkpt>
			<trkpt lat="47.546552" lon="18.969652">
				<ele>258.000000</ele>
			</trkpt>
			<trkpt lat="47.546346" lon="18.969337">
				<ele>256.000000</ele>
			</trkpt>
			<trkpt lat="47.546230" lon="18.969041">
				<ele>254.000000</ele>
			</trkpt>
			<trkpt lat="47.546218" lon="18.968888">
				<ele>253.000000</ele>
			</trkpt>
			<trkpt lat="47.546206" lon="18.968681">
				<ele>252.000000</ele>
			</trkpt>
			<trkpt lat="47.546163" lon="18.968529">
				<ele>251.000000</ele>
			</trkpt>
			<trkpt lat="47.546097" lon="18.968295">
				<ele>250.000000</ele>
			</trkpt>
			<trkpt lat="47.546067" lon="18.968107">
				<ele>249.000000</ele>
			</trkpt>
			<trkpt lat="47.546024" lon="18.967963">
				<ele>247.000000</ele>
			</trkpt>
			<trkpt lat="47.545503" lon="18.967280">
				<ele>239.000000</ele>
			</trkpt>
			<trkpt lat="47.545042" lon="18.966930">
				<ele>236.000000</ele>
			</trkpt>
			<trkpt lat="47.544726" lon="18.966706">
				<ele>233.000000</ele>
			</trkpt>
			<trkpt lat="47.544533" lon="18.966517">
				<ele>231.000000</ele>
			</trkpt>
			<trkpt lat="47.544399" lon="18.966391">
				<ele>230.000000</ele>
			</trkpt>
			<trkpt lat="47.544266" lon="18.966320">
				<ele>230.000000</ele>
			</trkpt>
			<trkpt lat="47.544114" lon="18.966265">
				<ele>229.000000</ele>
			</trkpt>
			<trkpt lat="47.543908" lon="18.966230">
				<ele>228.000000</ele>
			</trkpt>
			<trkpt lat="47.543714" lon="18.966320">
				<ele>227.000000</ele>
			</trkpt>
			<trkpt lat="47.543465" lon="18.966320">
				<ele>226.000000</ele>
			</trkpt>
			<trkpt lat="47.543307" lon="18.966284">
				<ele>225.000000</ele>
			</trkpt>
			<trkpt lat="47.543144" lon="18.966284">
				<ele>224.000000</ele>
			</trkpt>
			<trkpt lat="47.542883" lon="18.966347">
				<ele>223.000000</ele>
			</trkpt>
			<trkpt lat="47.542677" lon="18.966364">
				<ele>222.000000</ele>
			</trkpt>
			<trkpt lat="47.542640" lon="18.966328">
				<ele>222.000000</ele>
			</trkpt>
			<trkpt lat="47.542592" lon="18.966301">
				<ele>221.000000</ele>
			</trkpt>
			<trkpt lat="47.542507" lon="18.966274">
				<ele>221.000000</ele>
			</trkpt>
			<trkpt lat="47.542295" lon="18.966157">
				<ele>220.000000</ele>
			</trkpt>
			<trkpt lat="47.542313" lon="18.966014">
				<ele>220.000000</ele>
			</trkpt>
			<trkpt lat="47.542301" lon="18.965933">
				<ele>220.000000</ele>
			</trkpt>
			<trkpt lat="47.542319" lon="18.965897">
				<ele>220.000000</ele>
			</trkpt>
			<trkpt lat="47.542343" lon="18.965861">
				<ele>220.000000</ele>
			</trkpt>
			<trkpt lat="47.542373" lon="18.965834">
				<ele>220.000000</ele>
			</trkpt>
			<trkpt lat="47.542277" lon="18.965268">
				<ele>220.000000</ele>
			</trkpt>
			<trkpt lat="47.542271" lon="18.965223">
				<ele>220.000000</ele>
			</trkpt>
			<trkpt lat="47.542259" lon="18.965152">
				<ele>220.000000</ele>
			</trkpt>
			<trkpt lat="47.542192" lon="18.965161">
				<ele>220.000000</ele>
			</trkpt>
			<trkpt lat="47.542186" lon="18.965106">
				<ele>220.000000</ele>
			</trkpt>
			<trkpt lat="47.542174" lon="18.964954">
				<ele>220.000000</ele>
			</trkpt>
			<trkpt lat="47.542168" lon="18.964891">
				<ele>220.000000</ele>
			</trkpt>
			<trkpt lat="47.542155" lon="18.964747">
				<ele>220.000000</ele>
			</trkpt>
			<trkpt lat="47.541925" lon="18.964792">
				<ele>220.000000</ele>
			</trkpt>
			<trkpt lat="47.541901" lon="18.964496">
				<ele>222.000000</ele>
			</trkpt>
			<trkpt lat="47.542016" lon="18.964532">
				<ele>221.000000</ele>
			</trkpt>
			<trkpt lat="47.542076" lon="18.964540">
				<ele>221.000000</ele>
			</trkpt>
			<trkpt lat="47.542180" lon="18.964532">
				<ele>220.000000</ele>
			</trkpt>
			<trkpt lat="47.542228" lon="18.964513">
				<ele>220.000000</ele>
			</trkpt>
			<trkpt lat="47.542259" lon="18.964496">
				<ele>220.000000</ele>
			</trkpt>
			<trkpt lat="47.542283" lon="18.964460">
				<ele>220.000000</ele>
			</trkpt>
			<trkpt lat="47.542289" lon="18.964415">
				<ele>220.000000</ele>
			</trkpt>
			<trkpt lat="47.542355" lon="18.964352">
				<ele>220.000000</ele>
			</trkpt>
			<trkpt lat="47.542416" lon="18.964307">
				<ele>220.000000</ele>
			</trkpt>
			<trkpt lat="47.542428" lon="18.964253">
				<ele>220.000000</ele>
			</trkpt>
			<trkpt lat="47.542446" lon="18.964209">
				<ele>220.000000</ele>
			</trkpt>
			<trkpt lat="47.542471" lon="18.964190">
				<ele>220.000000</ele>
			</trkpt>
			<trkpt lat="47.542550" lon="18.964100">
				<ele>220.000000</ele>
			</trkpt>
			<trkpt lat="47.543004" lon="18.963804">
				<ele>221.000000</ele>
			</trkpt>
			<trkpt lat="47.543041" lon="18.963768">
				<ele>222.000000</ele>
			</trkpt>
		</trkseg>
	</trk>
</gpx>

