<?xml version="1.0" encoding="utf-8"?>
<gpx xmlns="http://www.topografix.com/GPX/1/1" version="1.1" creator="https://mapy.com/">
	<trk>
		<name>Route from Pilisszentkereszt, pilisszántói elágazás to Pilisszentlászló, községháza</name>
		<trkseg>
			<trkpt lat="47.693598" lon="18.902647">
				<ele>344.000000</ele>
			</trkpt>
			<trkpt lat="47.693659" lon="18.902521">
				<ele>344.000000</ele>
			</trkpt>
			<trkpt lat="47.693737" lon="18.902387">
				<ele>345.000000</ele>
			</trkpt>
			<trkpt lat="47.693828" lon="18.902270">
				<ele>345.000000</ele>
			</trkpt>
			<trkpt lat="47.693804" lon="18.902243">
				<ele>345.000000</ele>
			</trkpt>
			<trkpt lat="47.693677" lon="18.902071">
				<ele>345.000000</ele>
			</trkpt>
			<trkpt lat="47.693549" lon="18.901964">
				<ele>345.000000</ele>
			</trkpt>
			<trkpt lat="47.693507" lon="18.901928">
				<ele>345.000000</ele>
			</trkpt>
			<trkpt lat="47.693465" lon="18.901901">
				<ele>345.000000</ele>
			</trkpt>
			<trkpt lat="47.693429" lon="18.901874">
				<ele>345.000000</ele>
			</trkpt>
			<trkpt lat="47.693362" lon="18.901821">
				<ele>344.000000</ele>
			</trkpt>
			<trkpt lat="47.693248" lon="18.901731">
				<ele>344.000000</ele>
			</trkpt>
			<trkpt lat="47.693181" lon="18.901685">
				<ele>344.000000</ele>
			</trkpt>
			<trkpt lat="47.693024" lon="18.901569">
				<ele>344.000000</ele>
			</trkpt>
			<trkpt lat="47.692994" lon="18.901551">
				<ele>344.000000</ele>
			</trkpt>
			<trkpt lat="47.692957" lon="18.901524">
				<ele>344.000000</ele>
			</trkpt>
			<trkpt lat="47.692994" lon="18.901452">
				<ele>344.000000</ele>
			</trkpt>
			<trkpt lat="47.693072" lon="18.901263">
				<ele>345.000000</ele>
			</trkpt>
			<trkpt lat="47.693162" lon="18.901119">
				<ele>346.000000</ele>
			</trkpt>
			<trkpt lat="47.693308" lon="18.900949">
				<ele>347.000000</ele>
			</trkpt>
			<trkpt lat="47.693471" lon="18.900779">
				<ele>348.000000</ele>
			</trkpt>
			<trkpt lat="47.693979" lon="18.900320">
				<ele>351.000000</ele>
			</trkpt>
			<trkpt lat="47.694281" lon="18.900069">
				<ele>354.000000</ele>
			</trkpt>
			<trkpt lat="47.694511" lon="18.899871">
				<ele>356.000000</ele>
			</trkpt>
			<trkpt lat="47.694565" lon="18.899834">
				<ele>356.000000</ele>
			</trkpt>
			<trkpt lat="47.694663" lon="18.899754">
				<ele>357.000000</ele>
			</trkpt>
			<trkpt lat="47.694813" lon="18.899610">
				<ele>358.000000</ele>
			</trkpt>
			<trkpt lat="47.695013" lon="18.899385">
				<ele>360.000000</ele>
			</trkpt>
			<trkpt lat="47.695218" lon="18.899134">
				<ele>363.000000</ele>
			</trkpt>
			<trkpt lat="47.695394" lon="18.898955">
				<ele>365.000000</ele>
			</trkpt>
			<trkpt lat="47.695575" lon="18.898811">
				<ele>368.000000</ele>
			</trkpt>
			<trkpt lat="47.695799" lon="18.898640">
				<ele>370.000000</ele>
			</trkpt>
			<trkpt lat="47.696022" lon="18.898461">
				<ele>373.000000</ele>
			</trkpt>
			<trkpt lat="47.696319" lon="18.898192">
				<ele>377.000000</ele>
			</trkpt>
			<trkpt lat="47.696458" lon="18.898056">
				<ele>379.000000</ele>
			</trkpt>
			<trkpt lat="47.696531" lon="18.897922">
				<ele>380.000000</ele>
			</trkpt>
			<trkpt lat="47.696567" lon="18.897832">
				<ele>381.000000</ele>
			</trkpt>
			<trkpt lat="47.696669" lon="18.897374">
				<ele>385.000000</ele>
			</trkpt>
			<trkpt lat="47.696784" lon="18.897239">
				<ele>387.000000</ele>
			</trkpt>
			<trkpt lat="47.696821" lon="18.897140">
				<ele>388.000000</ele>
			</trkpt>
			<trkpt lat="47.696924" lon="18.896978">
				<ele>390.000000</ele>
			</trkpt>
			<trkpt lat="47.697093" lon="18.896745">
				<ele>394.000000</ele>
			</trkpt>
			<trkpt lat="47.697262" lon="18.896404">
				<ele>399.000000</ele>
			</trkpt>
			<trkpt lat="47.697383" lon="18.896331">
				<ele>401.000000</ele>
			</trkpt>
			<trkpt lat="47.697455" lon="18.896259">
				<ele>403.000000</ele>
			</trkpt>
			<trkpt lat="47.697577" lon="18.896205">
				<ele>405.000000</ele>
			</trkpt>
			<trkpt lat="47.697637" lon="18.896161">
				<ele>406.000000</ele>
			</trkpt>
			<trkpt lat="47.697734" lon="18.896044">
				<ele>408.000000</ele>
			</trkpt>
			<trkpt lat="47.697836" lon="18.895909">
				<ele>411.000000</ele>
			</trkpt>
			<trkpt lat="47.698278" lon="18.895496">
				<ele>421.000000</ele>
			</trkpt>
			<trkpt lat="47.698604" lon="18.895389">
				<ele>425.000000</ele>
			</trkpt>
			<trkpt lat="47.699197" lon="18.894966">
				<ele>430.000000</ele>
			</trkpt>
			<trkpt lat="47.699415" lon="18.894913">
				<ele>430.000000</ele>
			</trkpt>
			<trkpt lat="47.699493" lon="18.894840">
				<ele>430.000000</ele>
			</trkpt>
			<trkpt lat="47.699505" lon="18.894733">
				<ele>431.000000</ele>
			</trkpt>
			<trkpt lat="47.699626" lon="18.894589">
				<ele>433.000000</ele>
			</trkpt>
			<trkpt lat="47.700121" lon="18.894184">
				<ele>442.000000</ele>
			</trkpt>
			<trkpt lat="47.700219" lon="18.893995">
				<ele>445.000000</ele>
			</trkpt>
			<trkpt lat="47.700648" lon="18.893609">
				<ele>450.000000</ele>
			</trkpt>
			<trkpt lat="47.701083" lon="18.893125">
				<ele>453.000000</ele>
			</trkpt>
			<trkpt lat="47.701277" lon="18.892972">
				<ele>457.000000</ele>
			</trkpt>
			<trkpt lat="47.701440" lon="18.892756">
				<ele>460.000000</ele>
			</trkpt>
			<trkpt lat="47.701542" lon="18.892630">
				<ele>461.000000</ele>
			</trkpt>
			<trkpt lat="47.701573" lon="18.892586">
				<ele>462.000000</ele>
			</trkpt>
			<trkpt lat="47.701845" lon="18.892146">
				<ele>465.000000</ele>
			</trkpt>
			<trkpt lat="47.702286" lon="18.891660">
				<ele>470.000000</ele>
			</trkpt>
			<trkpt lat="47.702637" lon="18.891534">
				<ele>475.000000</ele>
			</trkpt>
			<trkpt lat="47.703084" lon="18.891624">
				<ele>482.000000</ele>
			</trkpt>
			<trkpt lat="47.703084" lon="18.891624">
				<ele>482.000000</ele>
			</trkpt>
			<trkpt lat="47.703749" lon="18.891760">
				<ele>493.000000</ele>
			</trkpt>
			<trkpt lat="47.704311" lon="18.891795">
				<ele>502.000000</ele>
			</trkpt>
			<trkpt lat="47.704644" lon="18.891463">
				<ele>507.000000</ele>
			</trkpt>
			<trkpt lat="47.705109" lon="18.891229">
				<ele>516.000000</ele>
			</trkpt>
			<trkpt lat="47.705629" lon="18.891175">
				<ele>528.000000</ele>
			</trkpt>
			<trkpt lat="47.706046" lon="18.891454">
				<ele>543.000000</ele>
			</trkpt>
			<trkpt lat="47.706324" lon="18.891373">
				<ele>550.000000</ele>
			</trkpt>
			<trkpt lat="47.706741" lon="18.890807">
				<ele>557.000000</ele>
			</trkpt>
			<trkpt lat="47.706790" lon="18.890735">
				<ele>558.000000</ele>
			</trkpt>
			<trkpt lat="47.706899" lon="18.890385">
				<ele>561.000000</ele>
			</trkpt>
			<trkpt lat="47.706941" lon="18.889900">
				<ele>566.000000</ele>
			</trkpt>
			<trkpt lat="47.707050" lon="18.889773">
				<ele>568.000000</ele>
			</trkpt>
			<trkpt lat="47.707177" lon="18.889783">
				<ele>570.000000</ele>
			</trkpt>
			<trkpt lat="47.707437" lon="18.890052">
				<ele>573.000000</ele>
			</trkpt>
			<trkpt lat="47.707588" lon="18.890179">
				<ele>576.000000</ele>
			</trkpt>
			<trkpt lat="47.707667" lon="18.890295">
				<ele>577.000000</ele>
			</trkpt>
			<trkpt lat="47.707962" lon="18.890358">
				<ele>581.000000</ele>
			</trkpt>
			<trkpt lat="47.708295" lon="18.890079">
				<ele>586.000000</ele>
			</trkpt>
			<trkpt lat="47.709087" lon="18.889863">
				<ele>597.000000</ele>
			</trkpt>
			<trkpt lat="47.709764" lon="18.889324">
				<ele>606.000000</ele>
			</trkpt>
			<trkpt lat="47.709945" lon="18.889477">
				<ele>609.000000</ele>
			</trkpt>
			<trkpt lat="47.709945" lon="18.889523">
				<ele>609.000000</ele>
			</trkpt>
			<trkpt lat="47.709951" lon="18.889540">
				<ele>609.000000</ele>
			</trkpt>
			<trkpt lat="47.709951" lon="18.889558">
				<ele>609.000000</ele>
			</trkpt>
			<trkpt lat="47.709957" lon="18.889567">
				<ele>609.000000</ele>
			</trkpt>
			<trkpt lat="47.709969" lon="18.889594">
				<ele>610.000000</ele>
			</trkpt>
			<trkpt lat="47.709981" lon="18.889613">
				<ele>610.000000</ele>
			</trkpt>
			<trkpt lat="47.710017" lon="18.889657">
				<ele>610.000000</ele>
			</trkpt>
			<trkpt lat="47.710048" lon="18.889684">
				<ele>611.000000</ele>
			</trkpt>
			<trkpt lat="47.710085" lon="18.889702">
				<ele>612.000000</ele>
			</trkpt>
			<trkpt lat="47.710139" lon="18.889720">
				<ele>613.000000</ele>
			</trkpt>
			<trkpt lat="47.710163" lon="18.889737">
				<ele>613.000000</ele>
			</trkpt>
			<trkpt lat="47.710187" lon="18.889737">
				<ele>614.000000</ele>
			</trkpt>
			<trkpt lat="47.710260" lon="18.889756">
				<ele>615.000000</ele>
			</trkpt>
			<trkpt lat="47.710386" lon="18.889773">
				<ele>618.000000</ele>
			</trkpt>
			<trkpt lat="47.710471" lon="18.889783">
				<ele>619.000000</ele>
			</trkpt>
			<trkpt lat="47.710586" lon="18.890133">
				<ele>620.000000</ele>
			</trkpt>
			<trkpt lat="47.710610" lon="18.890196">
				<ele>620.000000</ele>
			</trkpt>
			<trkpt lat="47.710665" lon="18.890412">
				<ele>620.000000</ele>
			</trkpt>
			<trkpt lat="47.710737" lon="18.890672">
				<ele>620.000000</ele>
			</trkpt>
			<trkpt lat="47.710755" lon="18.890735">
				<ele>620.000000</ele>
			</trkpt>
			<trkpt lat="47.710773" lon="18.890779">
				<ele>620.000000</ele>
			</trkpt>
			<trkpt lat="47.710797" lon="18.890834">
				<ele>620.000000</ele>
			</trkpt>
			<trkpt lat="47.710882" lon="18.890995">
				<ele>620.000000</ele>
			</trkpt>
			<trkpt lat="47.710895" lon="18.891014">
				<ele>620.000000</ele>
			</trkpt>
			<trkpt lat="47.710907" lon="18.891041">
				<ele>620.000000</ele>
			</trkpt>
			<trkpt lat="47.710925" lon="18.891058">
				<ele>620.000000</ele>
			</trkpt>
			<trkpt lat="47.710961" lon="18.891076">
				<ele>620.000000</ele>
			</trkpt>
			<trkpt lat="47.710997" lon="18.891094">
				<ele>620.000000</ele>
			</trkpt>
			<trkpt lat="47.711082" lon="18.891112">
				<ele>620.000000</ele>
			</trkpt>
			<trkpt lat="47.711166" lon="18.891131">
				<ele>620.000000</ele>
			</trkpt>
			<trkpt lat="47.711414" lon="18.891158">
				<ele>620.000000</ele>
			</trkpt>
			<trkpt lat="47.711801" lon="18.891166">
				<ele>620.000000</ele>
			</trkpt>
			<trkpt lat="47.711868" lon="18.891166">
				<ele>620.000000</ele>
			</trkpt>
			<trkpt lat="47.711934" lon="18.891175">
				<ele>620.000000</ele>
			</trkpt>
			<trkpt lat="47.712079" lon="18.891139">
				<ele>620.000000</ele>
			</trkpt>
			<trkpt lat="47.712357" lon="18.891022">
				<ele>620.000000</ele>
			</trkpt>
			<trkpt lat="47.712623" lon="18.890915">
				<ele>620.000000</ele>
			</trkpt>
			<trkpt lat="47.712913" lon="18.890825">
				<ele>622.000000</ele>
			</trkpt>
			<trkpt lat="47.713457" lon="18.890628">
				<ele>627.000000</ele>
			</trkpt>
			<trkpt lat="47.713941" lon="18.890412">
				<ele>632.000000</ele>
			</trkpt>
			<trkpt lat="47.714104" lon="18.890339">
				<ele>634.000000</ele>
			</trkpt>
			<trkpt lat="47.714243" lon="18.890250">
				<ele>637.000000</ele>
			</trkpt>
			<trkpt lat="47.714297" lon="18.890179">
				<ele>638.000000</ele>
			</trkpt>
			<trkpt lat="47.714388" lon="18.890062">
				<ele>640.000000</ele>
			</trkpt>
			<trkpt lat="47.714430" lon="18.890026">
				<ele>640.000000</ele>
			</trkpt>
			<trkpt lat="47.714467" lon="18.890007">
				<ele>640.000000</ele>
			</trkpt>
			<trkpt lat="47.714503" lon="18.889999">
				<ele>640.000000</ele>
			</trkpt>
			<trkpt lat="47.714908" lon="18.889953">
				<ele>640.000000</ele>
			</trkpt>
			<trkpt lat="47.714986" lon="18.889953">
				<ele>640.000000</ele>
			</trkpt>
			<trkpt lat="47.715041" lon="18.889953">
				<ele>640.000000</ele>
			</trkpt>
			<trkpt lat="47.715089" lon="18.889963">
				<ele>640.000000</ele>
			</trkpt>
			<trkpt lat="47.715149" lon="18.889980">
				<ele>640.000000</ele>
			</trkpt>
			<trkpt lat="47.715216" lon="18.890016">
				<ele>640.000000</ele>
			</trkpt>
			<trkpt lat="47.715240" lon="18.890026">
				<ele>640.000000</ele>
			</trkpt>
			<trkpt lat="47.715265" lon="18.890043">
				<ele>640.000000</ele>
			</trkpt>
			<trkpt lat="47.715289" lon="18.890070">
				<ele>640.000000</ele>
			</trkpt>
			<trkpt lat="47.715367" lon="18.890169">
				<ele>640.000000</ele>
			</trkpt>
			<trkpt lat="47.715391" lon="18.890223">
				<ele>640.000000</ele>
			</trkpt>
			<trkpt lat="47.715434" lon="18.890303">
				<ele>640.000000</ele>
			</trkpt>
			<trkpt lat="47.715452" lon="18.890358">
				<ele>640.000000</ele>
			</trkpt>
			<trkpt lat="47.715476" lon="18.890429">
				<ele>640.000000</ele>
			</trkpt>
			<trkpt lat="47.715482" lon="18.890456">
				<ele>640.000000</ele>
			</trkpt>
			<trkpt lat="47.715482" lon="18.890475">
				<ele>640.000000</ele>
			</trkpt>
			<trkpt lat="47.715488" lon="18.890502">
				<ele>640.000000</ele>
			</trkpt>
			<trkpt lat="47.715488" lon="18.890519">
				<ele>640.000000</ele>
			</trkpt>
			<trkpt lat="47.715482" lon="18.890529">
				<ele>640.000000</ele>
			</trkpt>
			<trkpt lat="47.715482" lon="18.890538">
				<ele>640.000000</ele>
			</trkpt>
			<trkpt lat="47.715464" lon="18.890618">
				<ele>641.000000</ele>
			</trkpt>
			<trkpt lat="47.715452" lon="18.890655">
				<ele>641.000000</ele>
			</trkpt>
			<trkpt lat="47.715440" lon="18.890689">
				<ele>641.000000</ele>
			</trkpt>
			<trkpt lat="47.715391" lon="18.890825">
				<ele>641.000000</ele>
			</trkpt>
			<trkpt lat="47.715361" lon="18.890905">
				<ele>642.000000</ele>
			</trkpt>
			<trkpt lat="47.715307" lon="18.890987">
				<ele>642.000000</ele>
			</trkpt>
			<trkpt lat="47.715234" lon="18.891094">
				<ele>643.000000</ele>
			</trkpt>
			<trkpt lat="47.715167" lon="18.891184">
				<ele>643.000000</ele>
			</trkpt>
			<trkpt lat="47.715137" lon="18.891238">
				<ele>644.000000</ele>
			</trkpt>
			<trkpt lat="47.715119" lon="18.891274">
				<ele>644.000000</ele>
			</trkpt>
			<trkpt lat="47.715095" lon="18.891318">
				<ele>644.000000</ele>
			</trkpt>
			<trkpt lat="47.715035" lon="18.891435">
				<ele>645.000000</ele>
			</trkpt>
			<trkpt lat="47.714932" lon="18.891580">
				<ele>645.000000</ele>
			</trkpt>
			<trkpt lat="47.714726" lon="18.891858">
				<ele>647.000000</ele>
			</trkpt>
			<trkpt lat="47.714666" lon="18.891947">
				<ele>647.000000</ele>
			</trkpt>
			<trkpt lat="47.714563" lon="18.892137">
				<ele>648.000000</ele>
			</trkpt>
			<trkpt lat="47.714436" lon="18.892397">
				<ele>650.000000</ele>
			</trkpt>
			<trkpt lat="47.714321" lon="18.892676">
				<ele>651.000000</ele>
			</trkpt>
			<trkpt lat="47.714261" lon="18.892846">
				<ele>652.000000</ele>
			</trkpt>
			<trkpt lat="47.714243" lon="18.892900">
				<ele>652.000000</ele>
			</trkpt>
			<trkpt lat="47.714225" lon="18.892972">
				<ele>653.000000</ele>
			</trkpt>
			<trkpt lat="47.714218" lon="18.893043">
				<ele>653.000000</ele>
			</trkpt>
			<trkpt lat="47.714206" lon="18.893125">
				<ele>654.000000</ele>
			</trkpt>
			<trkpt lat="47.714194" lon="18.893169">
				<ele>654.000000</ele>
			</trkpt>
			<trkpt lat="47.714037" lon="18.893618">
				<ele>656.000000</ele>
			</trkpt>
			<trkpt lat="47.713995" lon="18.893789">
				<ele>657.000000</ele>
			</trkpt>
			<trkpt lat="47.714424" lon="18.894823">
				<ele>668.000000</ele>
			</trkpt>
			<trkpt lat="47.714297" lon="18.895127">
				<ele>668.000000</ele>
			</trkpt>
			<trkpt lat="47.714218" lon="18.895343">
				<ele>669.000000</ele>
			</trkpt>
			<trkpt lat="47.714188" lon="18.895442">
				<ele>669.000000</ele>
			</trkpt>
			<trkpt lat="47.714170" lon="18.895542">
				<ele>669.000000</ele>
			</trkpt>
			<trkpt lat="47.714158" lon="18.895631">
				<ele>669.000000</ele>
			</trkpt>
			<trkpt lat="47.714152" lon="18.895685">
				<ele>670.000000</ele>
			</trkpt>
			<trkpt lat="47.714152" lon="18.895729">
				<ele>670.000000</ele>
			</trkpt>
			<trkpt lat="47.714152" lon="18.895766">
				<ele>670.000000</ele>
			</trkpt>
			<trkpt lat="47.714158" lon="18.895802">
				<ele>670.000000</ele>
			</trkpt>
			<trkpt lat="47.714200" lon="18.895955">
				<ele>670.000000</ele>
			</trkpt>
			<trkpt lat="47.714218" lon="18.896026">
				<ele>670.000000</ele>
			</trkpt>
			<trkpt lat="47.714231" lon="18.896098">
				<ele>670.000000</ele>
			</trkpt>
			<trkpt lat="47.714243" lon="18.896161">
				<ele>671.000000</ele>
			</trkpt>
			<trkpt lat="47.714243" lon="18.896188">
				<ele>671.000000</ele>
			</trkpt>
			<trkpt lat="47.714249" lon="18.896215">
				<ele>671.000000</ele>
			</trkpt>
			<trkpt lat="47.714249" lon="18.896251">
				<ele>671.000000</ele>
			</trkpt>
			<trkpt lat="47.714255" lon="18.896259">
				<ele>671.000000</ele>
			</trkpt>
			<trkpt lat="47.714261" lon="18.896268">
				<ele>671.000000</ele>
			</trkpt>
			<trkpt lat="47.714273" lon="18.896295">
				<ele>671.000000</ele>
			</trkpt>
			<trkpt lat="47.714279" lon="18.896314">
				<ele>671.000000</ele>
			</trkpt>
			<trkpt lat="47.714291" lon="18.896322">
				<ele>671.000000</ele>
			</trkpt>
			<trkpt lat="47.714315" lon="18.896349">
				<ele>671.000000</ele>
			</trkpt>
			<trkpt lat="47.714363" lon="18.896395">
				<ele>672.000000</ele>
			</trkpt>
			<trkpt lat="47.714400" lon="18.896421">
				<ele>672.000000</ele>
			</trkpt>
			<trkpt lat="47.714448" lon="18.896458">
				<ele>672.000000</ele>
			</trkpt>
			<trkpt lat="47.714527" lon="18.896502">
				<ele>673.000000</ele>
			</trkpt>
			<trkpt lat="47.714551" lon="18.896511">
				<ele>673.000000</ele>
			</trkpt>
			<trkpt lat="47.714581" lon="18.896511">
				<ele>673.000000</ele>
			</trkpt>
			<trkpt lat="47.714648" lon="18.896511">
				<ele>673.000000</ele>
			</trkpt>
			<trkpt lat="47.714696" lon="18.896521">
				<ele>673.000000</ele>
			</trkpt>
			<trkpt lat="47.714714" lon="18.896521">
				<ele>674.000000</ele>
			</trkpt>
			<trkpt lat="47.714738" lon="18.896529">
				<ele>674.000000</ele>
			</trkpt>
			<trkpt lat="47.714811" lon="18.896592">
				<ele>674.000000</ele>
			</trkpt>
			<trkpt lat="47.714866" lon="18.896645">
				<ele>675.000000</ele>
			</trkpt>
			<trkpt lat="47.714878" lon="18.896655">
				<ele>675.000000</ele>
			</trkpt>
			<trkpt lat="47.714902" lon="18.896655">
				<ele>675.000000</ele>
			</trkpt>
			<trkpt lat="47.714938" lon="18.896664">
				<ele>675.000000</ele>
			</trkpt>
			<trkpt lat="47.715022" lon="18.896673">
				<ele>675.000000</ele>
			</trkpt>
			<trkpt lat="47.715101" lon="18.896664">
				<ele>676.000000</ele>
			</trkpt>
			<trkpt lat="47.715119" lon="18.896664">
				<ele>676.000000</ele>
			</trkpt>
			<trkpt lat="47.715149" lon="18.896655">
				<ele>676.000000</ele>
			</trkpt>
			<trkpt lat="47.715185" lon="18.896637">
				<ele>676.000000</ele>
			</trkpt>
			<trkpt lat="47.715458" lon="18.896475">
				<ele>678.000000</ele>
			</trkpt>
			<trkpt lat="47.715470" lon="18.896466">
				<ele>678.000000</ele>
			</trkpt>
			<trkpt lat="47.715482" lon="18.896466">
				<ele>678.000000</ele>
			</trkpt>
			<trkpt lat="47.715506" lon="18.896466">
				<ele>678.000000</ele>
			</trkpt>
			<trkpt lat="47.716388" lon="18.896825">
				<ele>683.000000</ele>
			</trkpt>
			<trkpt lat="47.716419" lon="18.896844">
				<ele>683.000000</ele>
			</trkpt>
			<trkpt lat="47.716479" lon="18.896880">
				<ele>683.000000</ele>
			</trkpt>
			<trkpt lat="47.716539" lon="18.896915">
				<ele>684.000000</ele>
			</trkpt>
			<trkpt lat="47.716594" lon="18.896960">
				<ele>684.000000</ele>
			</trkpt>
			<trkpt lat="47.716673" lon="18.897050">
				<ele>685.000000</ele>
			</trkpt>
			<trkpt lat="47.716697" lon="18.897087">
				<ele>685.000000</ele>
			</trkpt>
			<trkpt lat="47.716763" lon="18.897184">
				<ele>685.000000</ele>
			</trkpt>
			<trkpt lat="47.716781" lon="18.897203">
				<ele>685.000000</ele>
			</trkpt>
			<trkpt lat="47.716824" lon="18.897230">
				<ele>686.000000</ele>
			</trkpt>
			<trkpt lat="47.716896" lon="18.897284">
				<ele>686.000000</ele>
			</trkpt>
			<trkpt lat="47.717005" lon="18.897347">
				<ele>686.000000</ele>
			</trkpt>
			<trkpt lat="47.717078" lon="18.897391">
				<ele>687.000000</ele>
			</trkpt>
			<trkpt lat="47.717096" lon="18.897400">
				<ele>687.000000</ele>
			</trkpt>
			<trkpt lat="47.717120" lon="18.897419">
				<ele>687.000000</ele>
			</trkpt>
			<trkpt lat="47.717180" lon="18.897473">
				<ele>687.000000</ele>
			</trkpt>
			<trkpt lat="47.717241" lon="18.897526">
				<ele>688.000000</ele>
			</trkpt>
			<trkpt lat="47.717331" lon="18.897589">
				<ele>688.000000</ele>
			</trkpt>
			<trkpt lat="47.717343" lon="18.897589">
				<ele>688.000000</ele>
			</trkpt>
			<trkpt lat="47.717361" lon="18.897597">
				<ele>688.000000</ele>
			</trkpt>
			<trkpt lat="47.717416" lon="18.897597">
				<ele>689.000000</ele>
			</trkpt>
			<trkpt lat="47.717488" lon="18.897589">
				<ele>689.000000</ele>
			</trkpt>
			<trkpt lat="47.717500" lon="18.897597">
				<ele>689.000000</ele>
			</trkpt>
			<trkpt lat="47.717518" lon="18.897597">
				<ele>689.000000</ele>
			</trkpt>
			<trkpt lat="47.717530" lon="18.897607">
				<ele>689.000000</ele>
			</trkpt>
			<trkpt lat="47.717537" lon="18.897607">
				<ele>689.000000</ele>
			</trkpt>
			<trkpt lat="47.717555" lon="18.897634">
				<ele>689.000000</ele>
			</trkpt>
			<trkpt lat="47.717585" lon="18.897679">
				<ele>690.000000</ele>
			</trkpt>
			<trkpt lat="47.717616" lon="18.897716">
				<ele>690.000000</ele>
			</trkpt>
			<trkpt lat="47.717634" lon="18.897733">
				<ele>690.000000</ele>
			</trkpt>
			<trkpt lat="47.717664" lon="18.897750">
				<ele>690.000000</ele>
			</trkpt>
			<trkpt lat="47.717688" lon="18.897777">
				<ele>690.000000</ele>
			</trkpt>
			<trkpt lat="47.717784" lon="18.897823">
				<ele>691.000000</ele>
			</trkpt>
			<trkpt lat="47.718117" lon="18.897949">
				<ele>693.000000</ele>
			</trkpt>
			<trkpt lat="47.718262" lon="18.898066">
				<ele>693.000000</ele>
			</trkpt>
			<trkpt lat="47.718280" lon="18.898092">
				<ele>693.000000</ele>
			</trkpt>
			<trkpt lat="47.718340" lon="18.898155">
				<ele>694.000000</ele>
			</trkpt>
			<trkpt lat="47.718407" lon="18.898218">
				<ele>694.000000</ele>
			</trkpt>
			<trkpt lat="47.718437" lon="18.898245">
				<ele>694.000000</ele>
			</trkpt>
			<trkpt lat="47.718468" lon="18.898263">
				<ele>695.000000</ele>
			</trkpt>
			<trkpt lat="47.718649" lon="18.898335">
				<ele>696.000000</ele>
			</trkpt>
			<trkpt lat="47.718691" lon="18.898343">
				<ele>696.000000</ele>
			</trkpt>
			<trkpt lat="47.718709" lon="18.898343">
				<ele>696.000000</ele>
			</trkpt>
			<trkpt lat="47.718721" lon="18.898343">
				<ele>696.000000</ele>
			</trkpt>
			<trkpt lat="47.718733" lon="18.898335">
				<ele>696.000000</ele>
			</trkpt>
			<trkpt lat="47.718757" lon="18.898326">
				<ele>696.000000</ele>
			</trkpt>
			<trkpt lat="47.718770" lon="18.898326">
				<ele>696.000000</ele>
			</trkpt>
			<trkpt lat="47.718788" lon="18.898316">
				<ele>696.000000</ele>
			</trkpt>
			<trkpt lat="47.718812" lon="18.898290">
				<ele>696.000000</ele>
			</trkpt>
			<trkpt lat="47.718896" lon="18.898155">
				<ele>697.000000</ele>
			</trkpt>
			<trkpt lat="47.718926" lon="18.898119">
				<ele>697.000000</ele>
			</trkpt>
			<trkpt lat="47.719090" lon="18.898092">
				<ele>698.000000</ele>
			</trkpt>
			<trkpt lat="47.719150" lon="18.898155">
				<ele>698.000000</ele>
			</trkpt>
			<trkpt lat="47.719162" lon="18.898163">
				<ele>698.000000</ele>
			</trkpt>
			<trkpt lat="47.719247" lon="18.898281">
				<ele>699.000000</ele>
			</trkpt>
			<trkpt lat="47.719331" lon="18.898389">
				<ele>700.000000</ele>
			</trkpt>
			<trkpt lat="47.719362" lon="18.898416">
				<ele>700.000000</ele>
			</trkpt>
			<trkpt lat="47.719398" lon="18.898442">
				<ele>700.000000</ele>
			</trkpt>
			<trkpt lat="47.719447" lon="18.898469">
				<ele>700.000000</ele>
			</trkpt>
			<trkpt lat="47.719483" lon="18.898496">
				<ele>700.000000</ele>
			</trkpt>
			<trkpt lat="47.719489" lon="18.898496">
				<ele>700.000000</ele>
			</trkpt>
			<trkpt lat="47.719495" lon="18.898505">
				<ele>700.000000</ele>
			</trkpt>
			<trkpt lat="47.719507" lon="18.898532">
				<ele>700.000000</ele>
			</trkpt>
			<trkpt lat="47.719519" lon="18.898550">
				<ele>700.000000</ele>
			</trkpt>
			<trkpt lat="47.719519" lon="18.898568">
				<ele>700.000000</ele>
			</trkpt>
			<trkpt lat="47.719531" lon="18.898613">
				<ele>700.000000</ele>
			</trkpt>
			<trkpt lat="47.719537" lon="18.898622">
				<ele>700.000000</ele>
			</trkpt>
			<trkpt lat="47.719537" lon="18.898631">
				<ele>700.000000</ele>
			</trkpt>
			<trkpt lat="47.719543" lon="18.898631">
				<ele>700.000000</ele>
			</trkpt>
			<trkpt lat="47.719513" lon="18.898819">
				<ele>699.000000</ele>
			</trkpt>
			<trkpt lat="47.719513" lon="18.898819">
				<ele>699.000000</ele>
			</trkpt>
			<trkpt lat="47.719507" lon="18.898838">
				<ele>699.000000</ele>
			</trkpt>
			<trkpt lat="47.719453" lon="18.899134">
				<ele>698.000000</ele>
			</trkpt>
			<trkpt lat="47.719785" lon="18.899215">
				<ele>700.000000</ele>
			</trkpt>
			<trkpt lat="47.719773" lon="18.899269">
				<ele>700.000000</ele>
			</trkpt>
			<trkpt lat="47.719761" lon="18.899314">
				<ele>700.000000</ele>
			</trkpt>
			<trkpt lat="47.719749" lon="18.899332">
				<ele>700.000000</ele>
			</trkpt>
			<trkpt lat="47.719736" lon="18.899350">
				<ele>700.000000</ele>
			</trkpt>
			<trkpt lat="47.719724" lon="18.899377">
				<ele>700.000000</ele>
			</trkpt>
			<trkpt lat="47.719712" lon="18.899404">
				<ele>700.000000</ele>
			</trkpt>
			<trkpt lat="47.719694" lon="18.899467">
				<ele>700.000000</ele>
			</trkpt>
			<trkpt lat="47.719688" lon="18.899503">
				<ele>700.000000</ele>
			</trkpt>
			<trkpt lat="47.719682" lon="18.899521">
				<ele>700.000000</ele>
			</trkpt>
			<trkpt lat="47.719670" lon="18.899565">
				<ele>700.000000</ele>
			</trkpt>
			<trkpt lat="47.719664" lon="18.899592">
				<ele>700.000000</ele>
			</trkpt>
			<trkpt lat="47.719664" lon="18.899628">
				<ele>700.000000</ele>
			</trkpt>
			<trkpt lat="47.719658" lon="18.899647">
				<ele>700.000000</ele>
			</trkpt>
			<trkpt lat="47.719658" lon="18.899700">
				<ele>700.000000</ele>
			</trkpt>
			<trkpt lat="47.719640" lon="18.900096">
				<ele>700.000000</ele>
			</trkpt>
			<trkpt lat="47.719628" lon="18.900580">
				<ele>700.000000</ele>
			</trkpt>
			<trkpt lat="47.719640" lon="18.900832">
				<ele>700.000000</ele>
			</trkpt>
			<trkpt lat="47.719664" lon="18.900976">
				<ele>700.000000</ele>
			</trkpt>
			<trkpt lat="47.719767" lon="18.901102">
				<ele>700.000000</ele>
			</trkpt>
			<trkpt lat="47.719875" lon="18.901228">
				<ele>700.000000</ele>
			</trkpt>
			<trkpt lat="47.719888" lon="18.901282">
				<ele>700.000000</ele>
			</trkpt>
			<trkpt lat="47.719875" lon="18.901345">
				<ele>700.000000</ele>
			</trkpt>
			<trkpt lat="47.719827" lon="18.901488">
				<ele>700.000000</ele>
			</trkpt>
			<trkpt lat="47.719537" lon="18.902207">
				<ele>699.000000</ele>
			</trkpt>
			<trkpt lat="47.719132" lon="18.902916">
				<ele>694.000000</ele>
			</trkpt>
			<trkpt lat="47.718993" lon="18.903329">
				<ele>691.000000</ele>
			</trkpt>
			<trkpt lat="47.718824" lon="18.903842">
				<ele>689.000000</ele>
			</trkpt>
			<trkpt lat="47.718449" lon="18.904758">
				<ele>687.000000</ele>
			</trkpt>
			<trkpt lat="47.718455" lon="18.904920">
				<ele>687.000000</ele>
			</trkpt>
			<trkpt lat="47.718401" lon="18.905010">
				<ele>687.000000</ele>
			</trkpt>
			<trkpt lat="47.718196" lon="18.905180">
				<ele>686.000000</ele>
			</trkpt>
			<trkpt lat="47.718141" lon="18.905306">
				<ele>686.000000</ele>
			</trkpt>
			<trkpt lat="47.718045" lon="18.905683">
				<ele>685.000000</ele>
			</trkpt>
			<trkpt lat="47.717875" lon="18.905989">
				<ele>685.000000</ele>
			</trkpt>
			<trkpt lat="47.717658" lon="18.906186">
				<ele>684.000000</ele>
			</trkpt>
			<trkpt lat="47.717561" lon="18.905943">
				<ele>683.000000</ele>
			</trkpt>
			<trkpt lat="47.717537" lon="18.905773">
				<ele>683.000000</ele>
			</trkpt>
			<trkpt lat="47.717488" lon="18.905620">
				<ele>683.000000</ele>
			</trkpt>
			<trkpt lat="47.717259" lon="18.905396">
				<ele>682.000000</ele>
			</trkpt>
			<trkpt lat="47.717150" lon="18.905341">
				<ele>682.000000</ele>
			</trkpt>
			<trkpt lat="47.717047" lon="18.905314">
				<ele>682.000000</ele>
			</trkpt>
			<trkpt lat="47.716920" lon="18.905369">
				<ele>681.000000</ele>
			</trkpt>
			<trkpt lat="47.716661" lon="18.905629">
				<ele>680.000000</ele>
			</trkpt>
			<trkpt lat="47.716219" lon="18.906052">
				<ele>679.000000</ele>
			</trkpt>
			<trkpt lat="47.715590" lon="18.907444">
				<ele>677.000000</ele>
			</trkpt>
			<trkpt lat="47.715536" lon="18.907597">
				<ele>677.000000</ele>
			</trkpt>
			<trkpt lat="47.715119" lon="18.908746">
				<ele>675.000000</ele>
			</trkpt>
			<trkpt lat="47.715035" lon="18.909042">
				<ele>675.000000</ele>
			</trkpt>
			<trkpt lat="47.714890" lon="18.909482">
				<ele>674.000000</ele>
			</trkpt>
			<trkpt lat="47.714756" lon="18.909725">
				<ele>674.000000</ele>
			</trkpt>
			<trkpt lat="47.714351" lon="18.910650">
				<ele>673.000000</ele>
			</trkpt>
			<trkpt lat="47.714243" lon="18.911073">
				<ele>672.000000</ele>
			</trkpt>
			<trkpt lat="47.714237" lon="18.911109">
				<ele>672.000000</ele>
			</trkpt>
			<trkpt lat="47.714237" lon="18.911109">
				<ele>672.000000</ele>
			</trkpt>
			<trkpt lat="47.714013" lon="18.912214">
				<ele>671.000000</ele>
			</trkpt>
			<trkpt lat="47.713880" lon="18.912690">
				<ele>670.000000</ele>
			</trkpt>
			<trkpt lat="47.713832" lon="18.913094">
				<ele>669.000000</ele>
			</trkpt>
			<trkpt lat="47.713826" lon="18.913543">
				<ele>669.000000</ele>
			</trkpt>
			<trkpt lat="47.713759" lon="18.913929">
				<ele>668.000000</ele>
			</trkpt>
			<trkpt lat="47.713693" lon="18.914279">
				<ele>668.000000</ele>
			</trkpt>
			<trkpt lat="47.713602" lon="18.914549">
				<ele>668.000000</ele>
			</trkpt>
			<trkpt lat="47.713530" lon="18.914792">
				<ele>667.000000</ele>
			</trkpt>
			<trkpt lat="47.713524" lon="18.915017">
				<ele>667.000000</ele>
			</trkpt>
			<trkpt lat="47.713554" lon="18.915268">
				<ele>667.000000</ele>
			</trkpt>
			<trkpt lat="47.713602" lon="18.915465">
				<ele>666.000000</ele>
			</trkpt>
			<trkpt lat="47.713554" lon="18.915547">
				<ele>666.000000</ele>
			</trkpt>
			<trkpt lat="47.712919" lon="18.916866">
				<ele>664.000000</ele>
			</trkpt>
			<trkpt lat="47.712544" lon="18.917811">
				<ele>663.000000</ele>
			</trkpt>
			<trkpt lat="47.712230" lon="18.918601">
				<ele>662.000000</ele>
			</trkpt>
			<trkpt lat="47.711662" lon="18.919293">
				<ele>660.000000</ele>
			</trkpt>
			<trkpt lat="47.710991" lon="18.919985">
				<ele>650.000000</ele>
			</trkpt>
			<trkpt lat="47.710532" lon="18.920478">
				<ele>642.000000</ele>
			</trkpt>
			<trkpt lat="47.710036" lon="18.920927">
				<ele>632.000000</ele>
			</trkpt>
			<trkpt lat="47.709939" lon="18.921017">
				<ele>630.000000</ele>
			</trkpt>
			<trkpt lat="47.709600" lon="18.921421">
				<ele>624.000000</ele>
			</trkpt>
			<trkpt lat="47.709129" lon="18.922077">
				<ele>617.000000</ele>
			</trkpt>
			<trkpt lat="47.708718" lon="18.922472">
				<ele>611.000000</ele>
			</trkpt>
			<trkpt lat="47.708464" lon="18.922832">
				<ele>608.000000</ele>
			</trkpt>
			<trkpt lat="47.708361" lon="18.922895">
				<ele>607.000000</ele>
			</trkpt>
			<trkpt lat="47.708126" lon="18.923065">
				<ele>605.000000</ele>
			</trkpt>
			<trkpt lat="47.707817" lon="18.923335">
				<ele>602.000000</ele>
			</trkpt>
			<trkpt lat="47.707455" lon="18.923667">
				<ele>598.000000</ele>
			</trkpt>
			<trkpt lat="47.707340" lon="18.923757">
				<ele>597.000000</ele>
			</trkpt>
			<trkpt lat="47.707165" lon="18.923891">
				<ele>595.000000</ele>
			</trkpt>
			<trkpt lat="47.706929" lon="18.924269">
				<ele>591.000000</ele>
			</trkpt>
			<trkpt lat="47.706711" lon="18.924449">
				<ele>587.000000</ele>
			</trkpt>
			<trkpt lat="47.706500" lon="18.924782">
				<ele>580.000000</ele>
			</trkpt>
			<trkpt lat="47.706476" lon="18.924843">
				<ele>579.000000</ele>
			</trkpt>
			<trkpt lat="47.706476" lon="18.924889">
				<ele>579.000000</ele>
			</trkpt>
			<trkpt lat="47.706699" lon="18.925185">
				<ele>575.000000</ele>
			</trkpt>
			<trkpt lat="47.706687" lon="18.925231">
				<ele>574.000000</ele>
			</trkpt>
			<trkpt lat="47.706409" lon="18.925285">
				<ele>570.000000</ele>
			</trkpt>
			<trkpt lat="47.706240" lon="18.925382">
				<ele>565.000000</ele>
			</trkpt>
			<trkpt lat="47.706095" lon="18.925589">
				<ele>559.000000</ele>
			</trkpt>
			<trkpt lat="47.706083" lon="18.925751">
				<ele>557.000000</ele>
			</trkpt>
			<trkpt lat="47.706101" lon="18.926138">
				<ele>551.000000</ele>
			</trkpt>
			<trkpt lat="47.706065" lon="18.926650">
				<ele>541.000000</ele>
			</trkpt>
			<trkpt lat="47.705998" lon="18.927036">
				<ele>534.000000</ele>
			</trkpt>
			<trkpt lat="47.706053" lon="18.927279">
				<ele>530.000000</ele>
			</trkpt>
			<trkpt lat="47.706077" lon="18.927646">
				<ele>525.000000</ele>
			</trkpt>
			<trkpt lat="47.706040" lon="18.927988">
				<ele>520.000000</ele>
			</trkpt>
			<trkpt lat="47.705937" lon="18.928239">
				<ele>516.000000</ele>
			</trkpt>
			<trkpt lat="47.705720" lon="18.928653">
				<ele>509.000000</ele>
			</trkpt>
			<trkpt lat="47.705478" lon="18.929219">
				<ele>497.000000</ele>
			</trkpt>
			<trkpt lat="47.705279" lon="18.929489">
				<ele>492.000000</ele>
			</trkpt>
			<trkpt lat="47.705133" lon="18.929641">
				<ele>489.000000</ele>
			</trkpt>
			<trkpt lat="47.705152" lon="18.929767">
				<ele>488.000000</ele>
			</trkpt>
			<trkpt lat="47.705133" lon="18.929902">
				<ele>486.000000</ele>
			</trkpt>
			<trkpt lat="47.705133" lon="18.930315">
				<ele>482.000000</ele>
			</trkpt>
			<trkpt lat="47.705127" lon="18.930558">
				<ele>479.000000</ele>
			</trkpt>
			<trkpt lat="47.705127" lon="18.931069">
				<ele>474.000000</ele>
			</trkpt>
			<trkpt lat="47.705255" lon="18.931635">
				<ele>469.000000</ele>
			</trkpt>
			<trkpt lat="47.705430" lon="18.932103">
				<ele>467.000000</ele>
			</trkpt>
			<trkpt lat="47.705593" lon="18.932435">
				<ele>465.000000</ele>
			</trkpt>
			<trkpt lat="47.705714" lon="18.932767">
				<ele>464.000000</ele>
			</trkpt>
			<trkpt lat="47.706324" lon="18.934609">
				<ele>447.000000</ele>
			</trkpt>
			<trkpt lat="47.706421" lon="18.935120">
				<ele>444.000000</ele>
			</trkpt>
			<trkpt lat="47.706451" lon="18.935552">
				<ele>442.000000</ele>
			</trkpt>
			<trkpt lat="47.706397" lon="18.936019">
				<ele>439.000000</ele>
			</trkpt>
			<trkpt lat="47.705895" lon="18.937241">
				<ele>423.000000</ele>
			</trkpt>
			<trkpt lat="47.705829" lon="18.938975">
				<ele>410.000000</ele>
			</trkpt>
			<trkpt lat="47.705829" lon="18.941651">
				<ele>395.000000</ele>
			</trkpt>
			<trkpt lat="47.705756" lon="18.942020">
				<ele>392.000000</ele>
			</trkpt>
			<trkpt lat="47.705762" lon="18.942504">
				<ele>388.000000</ele>
			</trkpt>
			<trkpt lat="47.705792" lon="18.942640">
				<ele>387.000000</ele>
			</trkpt>
			<trkpt lat="47.705823" lon="18.942801">
				<ele>386.000000</ele>
			</trkpt>
			<trkpt lat="47.705829" lon="18.942980">
				<ele>385.000000</ele>
			</trkpt>
			<trkpt lat="47.705829" lon="18.943125">
				<ele>384.000000</ele>
			</trkpt>
			<trkpt lat="47.705865" lon="18.943439">
				<ele>382.000000</ele>
			</trkpt>
			<trkpt lat="47.705919" lon="18.943663">
				<ele>381.000000</ele>
			</trkpt>
			<trkpt lat="47.706004" lon="18.943906">
				<ele>379.000000</ele>
			</trkpt>
			<trkpt lat="47.706131" lon="18.944167">
				<ele>376.000000</ele>
			</trkpt>
			<trkpt lat="47.706361" lon="18.944625">
				<ele>370.000000</ele>
			</trkpt>
			<trkpt lat="47.706415" lon="18.944751">
				<ele>369.000000</ele>
			</trkpt>
			<trkpt lat="47.706445" lon="18.944867">
				<ele>368.000000</ele>
			</trkpt>
			<trkpt lat="47.706494" lon="18.945011">
				<ele>367.000000</ele>
			</trkpt>
			<trkpt lat="47.706614" lon="18.945191">
				<ele>365.000000</ele>
			</trkpt>
			<trkpt lat="47.706869" lon="18.945622">
				<ele>360.000000</ele>
			</trkpt>
			<trkpt lat="47.706778" lon="18.945586">
				<ele>362.000000</ele>
			</trkpt>
			<trkpt lat="47.706735" lon="18.945577">
				<ele>362.000000</ele>
			</trkpt>
			<trkpt lat="47.706687" lon="18.945577">
				<ele>363.000000</ele>
			</trkpt>
			<trkpt lat="47.706633" lon="18.945586">
				<ele>364.000000</ele>
			</trkpt>
			<trkpt lat="47.706566" lon="18.945604">
				<ele>365.000000</ele>
			</trkpt>
			<trkpt lat="47.706494" lon="18.945640">
				<ele>366.000000</ele>
			</trkpt>
			<trkpt lat="47.706433" lon="18.945667">
				<ele>367.000000</ele>
			</trkpt>
			<trkpt lat="47.706355" lon="18.945730">
				<ele>368.000000</ele>
			</trkpt>
			<trkpt lat="47.705889" lon="18.946125">
				<ele>370.000000</ele>
			</trkpt>
			<trkpt lat="47.705792" lon="18.946196">
				<ele>370.000000</ele>
			</trkpt>
			<trkpt lat="47.705690" lon="18.946251">
				<ele>370.000000</ele>
			</trkpt>
			<trkpt lat="47.705647" lon="18.946269">
				<ele>370.000000</ele>
			</trkpt>
			<trkpt lat="47.705581" lon="18.946278">
				<ele>370.000000</ele>
			</trkpt>
			<trkpt lat="47.705502" lon="18.946286">
				<ele>370.000000</ele>
			</trkpt>
			<trkpt lat="47.705442" lon="18.946286">
				<ele>370.000000</ele>
			</trkpt>
			<trkpt lat="47.705411" lon="18.946296">
				<ele>370.000000</ele>
			</trkpt>
			<trkpt lat="47.705393" lon="18.946305">
				<ele>370.000000</ele>
			</trkpt>
			<trkpt lat="47.705381" lon="18.946313">
				<ele>370.000000</ele>
			</trkpt>
			<trkpt lat="47.705369" lon="18.946332">
				<ele>370.000000</ele>
			</trkpt>
			<trkpt lat="47.705351" lon="18.946368">
				<ele>370.000000</ele>
			</trkpt>
			<trkpt lat="47.705339" lon="18.946403">
				<ele>370.000000</ele>
			</trkpt>
			<trkpt lat="47.705321" lon="18.946475">
				<ele>370.000000</ele>
			</trkpt>
			<trkpt lat="47.705285" lon="18.946762">
				<ele>370.000000</ele>
			</trkpt>
			<trkpt lat="47.705267" lon="18.946907">
				<ele>370.000000</ele>
			</trkpt>
			<trkpt lat="47.705218" lon="18.947005">
				<ele>370.000000</ele>
			</trkpt>
			<trkpt lat="47.705194" lon="18.947041">
				<ele>370.000000</ele>
			</trkpt>
			<trkpt lat="47.705170" lon="18.947078">
				<ele>370.000000</ele>
			</trkpt>
			<trkpt lat="47.705145" lon="18.947114">
				<ele>370.000000</ele>
			</trkpt>
			<trkpt lat="47.705091" lon="18.947167">
				<ele>370.000000</ele>
			</trkpt>
			<trkpt lat="47.705037" lon="18.947230">
				<ele>370.000000</ele>
			</trkpt>
			<trkpt lat="47.704922" lon="18.947347">
				<ele>370.000000</ele>
			</trkpt>
			<trkpt lat="47.704759" lon="18.947491">
				<ele>370.000000</ele>
			</trkpt>
			<trkpt lat="47.704650" lon="18.947625">
				<ele>370.000000</ele>
			</trkpt>
			<trkpt lat="47.704583" lon="18.947707">
				<ele>370.000000</ele>
			</trkpt>
			<trkpt lat="47.704505" lon="18.947770">
				<ele>370.000000</ele>
			</trkpt>
			<trkpt lat="47.704420" lon="18.947823">
				<ele>370.000000</ele>
			</trkpt>
			<trkpt lat="47.704299" lon="18.947886">
				<ele>370.000000</ele>
			</trkpt>
			<trkpt lat="47.704239" lon="18.947913">
				<ele>370.000000</ele>
			</trkpt>
			<trkpt lat="47.704196" lon="18.947940">
				<ele>370.000000</ele>
			</trkpt>
			<trkpt lat="47.704130" lon="18.947984">
				<ele>370.000000</ele>
			</trkpt>
			<trkpt lat="47.703997" lon="18.948120">
				<ele>370.000000</ele>
			</trkpt>
			<trkpt lat="47.703882" lon="18.948263">
				<ele>370.000000</ele>
			</trkpt>
			<trkpt lat="47.703828" lon="18.948317">
				<ele>370.000000</ele>
			</trkpt>
			<trkpt lat="47.703731" lon="18.948407">
				<ele>370.000000</ele>
			</trkpt>
			<trkpt lat="47.703531" lon="18.948569">
				<ele>370.000000</ele>
			</trkpt>
			<trkpt lat="47.703344" lon="18.948766">
				<ele>370.000000</ele>
			</trkpt>
			<trkpt lat="47.703162" lon="18.948928">
				<ele>370.000000</ele>
			</trkpt>
			<trkpt lat="47.703072" lon="18.949018">
				<ele>370.000000</ele>
			</trkpt>
			<trkpt lat="47.703018" lon="18.949072">
				<ele>370.000000</ele>
			</trkpt>
			<trkpt lat="47.702879" lon="18.949269">
				<ele>370.000000</ele>
			</trkpt>
			<trkpt lat="47.702721" lon="18.949494">
				<ele>370.000000</ele>
			</trkpt>
			<trkpt lat="47.702498" lon="18.949764">
				<ele>370.000000</ele>
			</trkpt>
			<trkpt lat="47.702220" lon="18.950033">
				<ele>370.000000</ele>
			</trkpt>
			<trkpt lat="47.702057" lon="18.950158">
				<ele>370.000000</ele>
			</trkpt>
			<trkpt lat="47.701984" lon="18.950221">
				<ele>370.000000</ele>
			</trkpt>
			<trkpt lat="47.701923" lon="18.950311">
				<ele>370.000000</ele>
			</trkpt>
			<trkpt lat="47.701875" lon="18.950383">
				<ele>370.000000</ele>
			</trkpt>
			<trkpt lat="47.701839" lon="18.950446">
				<ele>370.000000</ele>
			</trkpt>
			<trkpt lat="47.701809" lon="18.950473">
				<ele>370.000000</ele>
			</trkpt>
			<trkpt lat="47.701772" lon="18.950517">
				<ele>370.000000</ele>
			</trkpt>
			<trkpt lat="47.701518" lon="18.950733">
				<ele>370.000000</ele>
			</trkpt>
			<trkpt lat="47.701452" lon="18.950787">
				<ele>370.000000</ele>
			</trkpt>
			<trkpt lat="47.701428" lon="18.950806">
				<ele>370.000000</ele>
			</trkpt>
			<trkpt lat="47.701392" lon="18.950814">
				<ele>370.000000</ele>
			</trkpt>
			<trkpt lat="47.701434" lon="18.950922">
				<ele>370.000000</ele>
			</trkpt>
			<trkpt lat="47.701494" lon="18.951047">
				<ele>370.000000</ele>
			</trkpt>
			<trkpt lat="47.701554" lon="18.951137">
				<ele>370.000000</ele>
			</trkpt>
			<trkpt lat="47.701621" lon="18.951200">
				<ele>370.000000</ele>
			</trkpt>
			<trkpt lat="47.701688" lon="18.951236">
				<ele>370.000000</ele>
			</trkpt>
			<trkpt lat="47.701742" lon="18.951282">
				<ele>370.000000</ele>
			</trkpt>
			<trkpt lat="47.701839" lon="18.951399">
				<ele>370.000000</ele>
			</trkpt>
			<trkpt lat="47.702033" lon="18.951676">
				<ele>370.000000</ele>
			</trkpt>
			<trkpt lat="47.702033" lon="18.951676">
				<ele>370.000000</ele>
			</trkpt>
			<trkpt lat="47.702081" lon="18.951749">
				<ele>370.000000</ele>
			</trkpt>
			<trkpt lat="47.702401" lon="18.952315">
				<ele>367.000000</ele>
			</trkpt>
			<trkpt lat="47.702558" lon="18.952575">
				<ele>366.000000</ele>
			</trkpt>
			<trkpt lat="47.702655" lon="18.952710">
				<ele>366.000000</ele>
			</trkpt>
			<trkpt lat="47.702733" lon="18.952791">
				<ele>365.000000</ele>
			</trkpt>
			<trkpt lat="47.702818" lon="18.952817">
				<ele>365.000000</ele>
			</trkpt>
			<trkpt lat="47.702939" lon="18.952827">
				<ele>364.000000</ele>
			</trkpt>
			<trkpt lat="47.703042" lon="18.952863">
				<ele>363.000000</ele>
			</trkpt>
			<trkpt lat="47.703120" lon="18.952917">
				<ele>363.000000</ele>
			</trkpt>
			<trkpt lat="47.703205" lon="18.953007">
				<ele>362.000000</ele>
			</trkpt>
			<trkpt lat="47.703260" lon="18.953104">
				<ele>362.000000</ele>
			</trkpt>
			<trkpt lat="47.703272" lon="18.953249">
				<ele>361.000000</ele>
			</trkpt>
			<trkpt lat="47.703248" lon="18.953410">
				<ele>361.000000</ele>
			</trkpt>
			<trkpt lat="47.703090" lon="18.953896">
				<ele>359.000000</ele>
			</trkpt>
			<trkpt lat="47.702867" lon="18.954561">
				<ele>356.000000</ele>
			</trkpt>
			<trkpt lat="47.702824" lon="18.954722">
				<ele>356.000000</ele>
			</trkpt>
			<trkpt lat="47.702818" lon="18.954812">
				<ele>355.000000</ele>
			</trkpt>
			<trkpt lat="47.702849" lon="18.954919">
				<ele>355.000000</ele>
			</trkpt>
			<trkpt lat="47.702903" lon="18.955037">
				<ele>355.000000</ele>
			</trkpt>
			<trkpt lat="47.702939" lon="18.955171">
				<ele>354.000000</ele>
			</trkpt>
			<trkpt lat="47.702951" lon="18.955307">
				<ele>354.000000</ele>
			</trkpt>
			<trkpt lat="47.702951" lon="18.955513">
				<ele>353.000000</ele>
			</trkpt>
			<trkpt lat="47.702975" lon="18.955783">
				<ele>352.000000</ele>
			</trkpt>
			<trkpt lat="47.702975" lon="18.955800">
				<ele>352.000000</ele>
			</trkpt>
			<trkpt lat="47.703012" lon="18.956033">
				<ele>351.000000</ele>
			</trkpt>
			<trkpt lat="47.703120" lon="18.956375">
				<ele>350.000000</ele>
			</trkpt>
			<trkpt lat="47.703435" lon="18.957211">
				<ele>348.000000</ele>
			</trkpt>
			<trkpt lat="47.703489" lon="18.957354">
				<ele>347.000000</ele>
			</trkpt>
			<trkpt lat="47.703653" lon="18.957624">
				<ele>347.000000</ele>
			</trkpt>
			<trkpt lat="47.703755" lon="18.957875">
				<ele>346.000000</ele>
			</trkpt>
			<trkpt lat="47.704070" lon="18.958899">
				<ele>344.000000</ele>
			</trkpt>
			<trkpt lat="47.704251" lon="18.959510">
				<ele>342.000000</ele>
			</trkpt>
			<trkpt lat="47.704287" lon="18.959915">
				<ele>342.000000</ele>
			</trkpt>
			<trkpt lat="47.704372" lon="18.960165">
				<ele>341.000000</ele>
			</trkpt>
			<trkpt lat="47.704414" lon="18.960525">
				<ele>340.000000</ele>
			</trkpt>
			<trkpt lat="47.704475" lon="18.960668">
				<ele>340.000000</ele>
			</trkpt>
			<trkpt lat="47.704589" lon="18.960840">
				<ele>338.000000</ele>
			</trkpt>
			<trkpt lat="47.704704" lon="18.960920">
				<ele>337.000000</ele>
			</trkpt>
			<trkpt lat="47.704964" lon="18.960965">
				<ele>334.000000</ele>
			</trkpt>
			<trkpt lat="47.705091" lon="18.961064">
				<ele>333.000000</ele>
			</trkpt>
			<trkpt lat="47.705133" lon="18.961110">
				<ele>333.000000</ele>
			</trkpt>
			<trkpt lat="47.705236" lon="18.961406">
				<ele>330.000000</ele>
			</trkpt>
			<trkpt lat="47.705321" lon="18.961720">
				<ele>330.000000</ele>
			</trkpt>
			<trkpt lat="47.705387" lon="18.961882">
				<ele>330.000000</ele>
			</trkpt>
			<trkpt lat="47.705720" lon="18.962025">
				<ele>330.000000</ele>
			</trkpt>
			<trkpt lat="47.705599" lon="18.962186">
				<ele>330.000000</ele>
			</trkpt>
			<trkpt lat="47.705538" lon="18.962402">
				<ele>330.000000</ele>
			</trkpt>
			<trkpt lat="47.705526" lon="18.963157">
				<ele>330.000000</ele>
			</trkpt>
			<trkpt lat="47.705611" lon="18.963481">
				<ele>332.000000</ele>
			</trkpt>
			<trkpt lat="47.705599" lon="18.963607">
				<ele>332.000000</ele>
			</trkpt>
			<trkpt lat="47.705545" lon="18.963741">
				<ele>333.000000</ele>
			</trkpt>
			<trkpt lat="47.705321" lon="18.964100">
				<ele>335.000000</ele>
			</trkpt>
			<trkpt lat="47.705261" lon="18.964154">
				<ele>336.000000</ele>
			</trkpt>
			<trkpt lat="47.705206" lon="18.964173">
				<ele>336.000000</ele>
			</trkpt>
			<trkpt lat="47.704982" lon="18.964307">
				<ele>338.000000</ele>
			</trkpt>
			<trkpt lat="47.704783" lon="18.964540">
				<ele>339.000000</ele>
			</trkpt>
			<trkpt lat="47.704589" lon="18.964972">
				<ele>339.000000</ele>
			</trkpt>
			<trkpt lat="47.704396" lon="18.965286">
				<ele>339.000000</ele>
			</trkpt>
			<trkpt lat="47.704245" lon="18.965582">
				<ele>338.000000</ele>
			</trkpt>
			<trkpt lat="47.704160" lon="18.965852">
				<ele>338.000000</ele>
			</trkpt>
			<trkpt lat="47.704118" lon="18.966113">
				<ele>337.000000</ele>
			</trkpt>
			<trkpt lat="47.704106" lon="18.966553">
				<ele>337.000000</ele>
			</trkpt>
			<trkpt lat="47.704118" lon="18.966634">
				<ele>337.000000</ele>
			</trkpt>
			<trkpt lat="47.704166" lon="18.966831">
				<ele>336.000000</ele>
			</trkpt>
			<trkpt lat="47.704396" lon="18.967245">
				<ele>336.000000</ele>
			</trkpt>
			<trkpt lat="47.704656" lon="18.967586">
				<ele>335.000000</ele>
			</trkpt>
			<trkpt lat="47.704789" lon="18.967819">
				<ele>334.000000</ele>
			</trkpt>
			<trkpt lat="47.704892" lon="18.968215">
				<ele>334.000000</ele>
			</trkpt>
			<trkpt lat="47.704964" lon="18.968412">
				<ele>333.000000</ele>
			</trkpt>
			<trkpt lat="47.704970" lon="18.968897">
				<ele>333.000000</ele>
			</trkpt>
			<trkpt lat="47.705061" lon="18.969194">
				<ele>332.000000</ele>
			</trkpt>
			<trkpt lat="47.705176" lon="18.969347">
				<ele>332.000000</ele>
			</trkpt>
			<trkpt lat="47.705309" lon="18.969373">
				<ele>331.000000</ele>
			</trkpt>
			<trkpt lat="47.705520" lon="18.969284">
				<ele>331.000000</ele>
			</trkpt>
			<trkpt lat="47.705810" lon="18.969113">
				<ele>330.000000</ele>
			</trkpt>
			<trkpt lat="47.706059" lon="18.969077">
				<ele>330.000000</ele>
			</trkpt>
			<trkpt lat="47.706288" lon="18.969094">
				<ele>329.000000</ele>
			</trkpt>
			<trkpt lat="47.706524" lon="18.969221">
				<ele>328.000000</ele>
			</trkpt>
			<trkpt lat="47.706717" lon="18.969356">
				<ele>328.000000</ele>
			</trkpt>
			<trkpt lat="47.706917" lon="18.969634">
				<ele>327.000000</ele>
			</trkpt>
			<trkpt lat="47.707025" lon="18.969985">
				<ele>326.000000</ele>
			</trkpt>
			<trkpt lat="47.707050" lon="18.970083">
				<ele>326.000000</ele>
			</trkpt>
			<trkpt lat="47.707219" lon="18.970802">
				<ele>324.000000</ele>
			</trkpt>
			<trkpt lat="47.707316" lon="18.971234">
				<ele>323.000000</ele>
			</trkpt>
			<trkpt lat="47.707322" lon="18.971268">
				<ele>323.000000</ele>
			</trkpt>
			<trkpt lat="47.707394" lon="18.971593">
				<ele>323.000000</ele>
			</trkpt>
			<trkpt lat="47.707418" lon="18.971834">
				<ele>322.000000</ele>
			</trkpt>
			<trkpt lat="47.707485" lon="18.971987">
				<ele>322.000000</ele>
			</trkpt>
			<trkpt lat="47.707557" lon="18.972131">
				<ele>321.000000</ele>
			</trkpt>
			<trkpt lat="47.707618" lon="18.972131">
				<ele>321.000000</ele>
			</trkpt>
			<trkpt lat="47.707727" lon="18.972131">
				<ele>321.000000</ele>
			</trkpt>
			<trkpt lat="47.707751" lon="18.972131">
				<ele>321.000000</ele>
			</trkpt>
			<trkpt lat="47.707763" lon="18.972230">
				<ele>321.000000</ele>
			</trkpt>
			<trkpt lat="47.707763" lon="18.972455">
				<ele>320.000000</ele>
			</trkpt>
			<trkpt lat="47.707829" lon="18.972805">
				<ele>320.000000</ele>
			</trkpt>
			<trkpt lat="47.707829" lon="18.973029">
				<ele>320.000000</ele>
			</trkpt>
			<trkpt lat="47.707787" lon="18.973236">
				<ele>320.000000</ele>
			</trkpt>
			<trkpt lat="47.707654" lon="18.973568">
				<ele>320.000000</ele>
			</trkpt>
			<trkpt lat="47.707648" lon="18.973721">
				<ele>320.000000</ele>
			</trkpt>
			<trkpt lat="47.707654" lon="18.973811">
				<ele>320.000000</ele>
			</trkpt>
			<trkpt lat="47.707648" lon="18.973838">
				<ele>320.000000</ele>
			</trkpt>
			<trkpt lat="47.707612" lon="18.974000">
				<ele>320.000000</ele>
			</trkpt>
			<trkpt lat="47.707497" lon="18.974395">
				<ele>319.000000</ele>
			</trkpt>
			<trkpt lat="47.707443" lon="18.974871">
				<ele>318.000000</ele>
			</trkpt>
			<trkpt lat="47.707443" lon="18.974871">
				<ele>318.000000</ele>
			</trkpt>
			<trkpt lat="47.707424" lon="18.975023">
				<ele>318.000000</ele>
			</trkpt>
			<trkpt lat="47.707406" lon="18.975545">
				<ele>317.000000</ele>
			</trkpt>
			<trkpt lat="47.707473" lon="18.975886">
				<ele>317.000000</ele>
			</trkpt>
			<trkpt lat="47.707437" lon="18.976228">
				<ele>316.000000</ele>
			</trkpt>
			<trkpt lat="47.707346" lon="18.976551">
				<ele>316.000000</ele>
			</trkpt>
			<trkpt lat="47.707068" lon="18.977090">
				<ele>315.000000</ele>
			</trkpt>
			<trkpt lat="47.707062" lon="18.977306">
				<ele>314.000000</ele>
			</trkpt>
			<trkpt lat="47.706796" lon="18.978006">
				<ele>313.000000</ele>
			</trkpt>
			<trkpt lat="47.706645" lon="18.978455">
				<ele>312.000000</ele>
			</trkpt>
			<trkpt lat="47.706476" lon="18.978805">
				<ele>312.000000</ele>
			</trkpt>
			<trkpt lat="47.706336" lon="18.979273">
				<ele>311.000000</ele>
			</trkpt>
			<trkpt lat="47.706500" lon="18.979578">
				<ele>310.000000</ele>
			</trkpt>
			<trkpt lat="47.706506" lon="18.979587">
				<ele>310.000000</ele>
			</trkpt>
			<trkpt lat="47.706506" lon="18.979597">
				<ele>310.000000</ele>
			</trkpt>
			<trkpt lat="47.706512" lon="18.979597">
				<ele>310.000000</ele>
			</trkpt>
			<trkpt lat="47.706602" lon="18.979677">
				<ele>310.000000</ele>
			</trkpt>
			<trkpt lat="47.706608" lon="18.979686">
				<ele>310.000000</ele>
			</trkpt>
			<trkpt lat="47.706614" lon="18.979695">
				<ele>310.000000</ele>
			</trkpt>
			<trkpt lat="47.706627" lon="18.979704">
				<ele>310.000000</ele>
			</trkpt>
			<trkpt lat="47.706633" lon="18.979723">
				<ele>310.000000</ele>
			</trkpt>
			<trkpt lat="47.706645" lon="18.979758">
				<ele>310.000000</ele>
			</trkpt>
			<trkpt lat="47.706669" lon="18.979813">
				<ele>311.000000</ele>
			</trkpt>
			<trkpt lat="47.706675" lon="18.979821">
				<ele>311.000000</ele>
			</trkpt>
			<trkpt lat="47.706675" lon="18.979830">
				<ele>312.000000</ele>
			</trkpt>
			<trkpt lat="47.706772" lon="18.979964">
				<ele>315.000000</ele>
			</trkpt>
			<trkpt lat="47.706778" lon="18.979973">
				<ele>316.000000</ele>
			</trkpt>
			<trkpt lat="47.706790" lon="18.979983">
				<ele>316.000000</ele>
			</trkpt>
			<trkpt lat="47.706802" lon="18.979991">
				<ele>316.000000</ele>
			</trkpt>
			<trkpt lat="47.706850" lon="18.980027">
				<ele>318.000000</ele>
			</trkpt>
			<trkpt lat="47.706857" lon="18.980027">
				<ele>318.000000</ele>
			</trkpt>
			<trkpt lat="47.706869" lon="18.980037">
				<ele>319.000000</ele>
			</trkpt>
			<trkpt lat="47.706893" lon="18.980037">
				<ele>319.000000</ele>
			</trkpt>
			<trkpt lat="47.706923" lon="18.980046">
				<ele>320.000000</ele>
			</trkpt>
			<trkpt lat="47.706953" lon="18.980046">
				<ele>320.000000</ele>
			</trkpt>
			<trkpt lat="47.706983" lon="18.980046">
				<ele>320.000000</ele>
			</trkpt>
			<trkpt lat="47.707007" lon="18.980046">
				<ele>320.000000</ele>
			</trkpt>
			<trkpt lat="47.707025" lon="18.980037">
				<ele>320.000000</ele>
			</trkpt>
			<trkpt lat="47.707110" lon="18.980019">
				<ele>320.000000</ele>
			</trkpt>
			<trkpt lat="47.707183" lon="18.979983">
				<ele>320.000000</ele>
			</trkpt>
			<trkpt lat="47.707189" lon="18.979983">
				<ele>320.000000</ele>
			</trkpt>
			<trkpt lat="47.707195" lon="18.979983">
				<ele>320.000000</ele>
			</trkpt>
			<trkpt lat="47.707213" lon="18.979983">
				<ele>320.000000</ele>
			</trkpt>
			<trkpt lat="47.707237" lon="18.979983">
				<ele>320.000000</ele>
			</trkpt>
			<trkpt lat="47.707255" lon="18.979991">
				<ele>320.000000</ele>
			</trkpt>
			<trkpt lat="47.707274" lon="18.980000">
				<ele>320.000000</ele>
			</trkpt>
			<trkpt lat="47.707533" lon="18.980216">
				<ele>322.000000</ele>
			</trkpt>
			<trkpt lat="47.707612" lon="18.980270">
				<ele>322.000000</ele>
			</trkpt>
			<trkpt lat="47.707618" lon="18.980270">
				<ele>322.000000</ele>
			</trkpt>
			<trkpt lat="47.707624" lon="18.980270">
				<ele>322.000000</ele>
			</trkpt>
			<trkpt lat="47.707630" lon="18.980270">
				<ele>322.000000</ele>
			</trkpt>
			<trkpt lat="47.707636" lon="18.980270">
				<ele>322.000000</ele>
			</trkpt>
			<trkpt lat="47.707642" lon="18.980270">
				<ele>322.000000</ele>
			</trkpt>
			<trkpt lat="47.707648" lon="18.980270">
				<ele>322.000000</ele>
			</trkpt>
			<trkpt lat="47.707654" lon="18.980260">
				<ele>322.000000</ele>
			</trkpt>
			<trkpt lat="47.707667" lon="18.980260">
				<ele>322.000000</ele>
			</trkpt>
			<trkpt lat="47.707679" lon="18.980252">
				<ele>323.000000</ele>
			</trkpt>
			<trkpt lat="47.707745" lon="18.980199">
				<ele>323.000000</ele>
			</trkpt>
			<trkpt lat="47.707751" lon="18.980189">
				<ele>323.000000</ele>
			</trkpt>
			<trkpt lat="47.707757" lon="18.980189">
				<ele>323.000000</ele>
			</trkpt>
			<trkpt lat="47.707763" lon="18.980189">
				<ele>323.000000</ele>
			</trkpt>
			<trkpt lat="47.707769" lon="18.980189">
				<ele>323.000000</ele>
			</trkpt>
			<trkpt lat="47.707775" lon="18.980189">
				<ele>323.000000</ele>
			</trkpt>
			<trkpt lat="47.707781" lon="18.980189">
				<ele>323.000000</ele>
			</trkpt>
			<trkpt lat="47.707823" lon="18.980216">
				<ele>324.000000</ele>
			</trkpt>
			<trkpt lat="47.707842" lon="18.980226">
				<ele>324.000000</ele>
			</trkpt>
			<trkpt lat="47.707854" lon="18.980234">
				<ele>324.000000</ele>
			</trkpt>
			<trkpt lat="47.707866" lon="18.980243">
				<ele>324.000000</ele>
			</trkpt>
			<trkpt lat="47.707944" lon="18.980350">
				<ele>324.000000</ele>
			</trkpt>
			<trkpt lat="47.707962" lon="18.980379">
				<ele>325.000000</ele>
			</trkpt>
			<trkpt lat="47.707981" lon="18.980396">
				<ele>325.000000</ele>
			</trkpt>
			<trkpt lat="47.708023" lon="18.980440">
				<ele>325.000000</ele>
			</trkpt>
			<trkpt lat="47.708041" lon="18.980450">
				<ele>325.000000</ele>
			</trkpt>
			<trkpt lat="47.708047" lon="18.980450">
				<ele>325.000000</ele>
			</trkpt>
			<trkpt lat="47.708053" lon="18.980450">
				<ele>325.000000</ele>
			</trkpt>
			<trkpt lat="47.708132" lon="18.980432">
				<ele>326.000000</ele>
			</trkpt>
			<trkpt lat="47.708162" lon="18.980432">
				<ele>326.000000</ele>
			</trkpt>
			<trkpt lat="47.708186" lon="18.980432">
				<ele>326.000000</ele>
			</trkpt>
			<trkpt lat="47.708241" lon="18.980440">
				<ele>326.000000</ele>
			</trkpt>
			<trkpt lat="47.708307" lon="18.980468">
				<ele>327.000000</ele>
			</trkpt>
			<trkpt lat="47.708331" lon="18.980476">
				<ele>327.000000</ele>
			</trkpt>
			<trkpt lat="47.708355" lon="18.980486">
				<ele>327.000000</ele>
			</trkpt>
			<trkpt lat="47.708373" lon="18.980503">
				<ele>327.000000</ele>
			</trkpt>
			<trkpt lat="47.708386" lon="18.980513">
				<ele>327.000000</ele>
			</trkpt>
			<trkpt lat="47.708410" lon="18.980522">
				<ele>327.000000</ele>
			</trkpt>
			<trkpt lat="47.708440" lon="18.980522">
				<ele>328.000000</ele>
			</trkpt>
			<trkpt lat="47.708519" lon="18.980530">
				<ele>328.000000</ele>
			</trkpt>
			<trkpt lat="47.708585" lon="18.980539">
				<ele>328.000000</ele>
			</trkpt>
			<trkpt lat="47.708700" lon="18.980566">
				<ele>329.000000</ele>
			</trkpt>
			<trkpt lat="47.708754" lon="18.980585">
				<ele>329.000000</ele>
			</trkpt>
			<trkpt lat="47.708815" lon="18.980612">
				<ele>330.000000</ele>
			</trkpt>
			<trkpt lat="47.708870" lon="18.980656">
				<ele>330.000000</ele>
			</trkpt>
			<trkpt lat="47.708894" lon="18.980675">
				<ele>331.000000</ele>
			</trkpt>
			<trkpt lat="47.708912" lon="18.980692">
				<ele>331.000000</ele>
			</trkpt>
			<trkpt lat="47.708930" lon="18.980719">
				<ele>331.000000</ele>
			</trkpt>
			<trkpt lat="47.708948" lon="18.980755">
				<ele>331.000000</ele>
			</trkpt>
			<trkpt lat="47.708978" lon="18.980792">
				<ele>331.000000</ele>
			</trkpt>
			<trkpt lat="47.708984" lon="18.980800">
				<ele>331.000000</ele>
			</trkpt>
			<trkpt lat="47.708996" lon="18.980800">
				<ele>332.000000</ele>
			</trkpt>
			<trkpt lat="47.709002" lon="18.980809">
				<ele>332.000000</ele>
			</trkpt>
			<trkpt lat="47.709008" lon="18.980809">
				<ele>332.000000</ele>
			</trkpt>
			<trkpt lat="47.709038" lon="18.980800">
				<ele>332.000000</ele>
			</trkpt>
			<trkpt lat="47.709087" lon="18.980782">
				<ele>332.000000</ele>
			</trkpt>
			<trkpt lat="47.709177" lon="18.980773">
				<ele>333.000000</ele>
			</trkpt>
			<trkpt lat="47.709214" lon="18.980773">
				<ele>333.000000</ele>
			</trkpt>
			<trkpt lat="47.709250" lon="18.980765">
				<ele>334.000000</ele>
			</trkpt>
			<trkpt lat="47.709299" lon="18.980746">
				<ele>334.000000</ele>
			</trkpt>
			<trkpt lat="47.709335" lon="18.980746">
				<ele>334.000000</ele>
			</trkpt>
			<trkpt lat="47.709437" lon="18.980729">
				<ele>335.000000</ele>
			</trkpt>
			<trkpt lat="47.709468" lon="18.980729">
				<ele>335.000000</ele>
			</trkpt>
			<trkpt lat="47.709600" lon="18.980737">
				<ele>336.000000</ele>
			</trkpt>
			<trkpt lat="47.709830" lon="18.980719">
				<ele>338.000000</ele>
			</trkpt>
			<trkpt lat="47.709885" lon="18.980710">
				<ele>338.000000</ele>
			</trkpt>
			<trkpt lat="47.709915" lon="18.980710">
				<ele>339.000000</ele>
			</trkpt>
			<trkpt lat="47.709993" lon="18.980729">
				<ele>339.000000</ele>
			</trkpt>
			<trkpt lat="47.710005" lon="18.980729">
				<ele>339.000000</ele>
			</trkpt>
			<trkpt lat="47.710024" lon="18.980746">
				<ele>340.000000</ele>
			</trkpt>
			<trkpt lat="47.710060" lon="18.980773">
				<ele>340.000000</ele>
			</trkpt>
			<trkpt lat="47.710085" lon="18.980800">
				<ele>340.000000</ele>
			</trkpt>
			<trkpt lat="47.710115" lon="18.980845">
				<ele>340.000000</ele>
			</trkpt>
			<trkpt lat="47.710127" lon="18.980855">
				<ele>340.000000</ele>
			</trkpt>
			<trkpt lat="47.710139" lon="18.980872">
				<ele>340.000000</ele>
			</trkpt>
			<trkpt lat="47.710229" lon="18.980916">
				<ele>341.000000</ele>
			</trkpt>
			<trkpt lat="47.710241" lon="18.980916">
				<ele>341.000000</ele>
			</trkpt>
			<trkpt lat="47.710260" lon="18.980916">
				<ele>341.000000</ele>
			</trkpt>
			<trkpt lat="47.710290" lon="18.980916">
				<ele>341.000000</ele>
			</trkpt>
			<trkpt lat="47.710374" lon="18.980899">
				<ele>341.000000</ele>
			</trkpt>
			<trkpt lat="47.710386" lon="18.980889">
				<ele>341.000000</ele>
			</trkpt>
			<trkpt lat="47.710429" lon="18.980872">
				<ele>341.000000</ele>
			</trkpt>
			<trkpt lat="47.710477" lon="18.980855">
				<ele>341.000000</ele>
			</trkpt>
			<trkpt lat="47.710616" lon="18.980809">
				<ele>342.000000</ele>
			</trkpt>
			<trkpt lat="47.710785" lon="18.980773">
				<ele>342.000000</ele>
			</trkpt>
			<trkpt lat="47.710864" lon="18.980773">
				<ele>343.000000</ele>
			</trkpt>
			<trkpt lat="47.711414" lon="18.980792">
				<ele>344.000000</ele>
			</trkpt>
			<trkpt lat="47.711438" lon="18.980792">
				<ele>345.000000</ele>
			</trkpt>
			<trkpt lat="47.711463" lon="18.980800">
				<ele>345.000000</ele>
			</trkpt>
			<trkpt lat="47.711499" lon="18.980818">
				<ele>345.000000</ele>
			</trkpt>
			<trkpt lat="47.711523" lon="18.980826">
				<ele>345.000000</ele>
			</trkpt>
			<trkpt lat="47.711692" lon="18.980962">
				<ele>345.000000</ele>
			</trkpt>
			<trkpt lat="47.711734" lon="18.980998">
				<ele>346.000000</ele>
			</trkpt>
			<trkpt lat="47.711783" lon="18.981052">
				<ele>346.000000</ele>
			</trkpt>
			<trkpt lat="47.711813" lon="18.981088">
				<ele>346.000000</ele>
			</trkpt>
			<trkpt lat="47.711819" lon="18.981115">
				<ele>346.000000</ele>
			</trkpt>
			<trkpt lat="47.711849" lon="18.981178">
				<ele>346.000000</ele>
			</trkpt>
			<trkpt lat="47.711862" lon="18.981195">
				<ele>346.000000</ele>
			</trkpt>
			<trkpt lat="47.711892" lon="18.981222">
				<ele>346.000000</ele>
			</trkpt>
			<trkpt lat="47.711952" lon="18.981276">
				<ele>347.000000</ele>
			</trkpt>
			<trkpt lat="47.712133" lon="18.981402">
				<ele>347.000000</ele>
			</trkpt>
			<trkpt lat="47.712163" lon="18.981421">
				<ele>347.000000</ele>
			</trkpt>
			<trkpt lat="47.712478" lon="18.981537">
				<ele>348.000000</ele>
			</trkpt>
			<trkpt lat="47.712508" lon="18.981555">
				<ele>348.000000</ele>
			</trkpt>
			<trkpt lat="47.712550" lon="18.981572">
				<ele>349.000000</ele>
			</trkpt>
			<trkpt lat="47.713203" lon="18.982121">
				<ele>352.000000</ele>
			</trkpt>
			<trkpt lat="47.713209" lon="18.982130">
				<ele>352.000000</ele>
			</trkpt>
			<trkpt lat="47.713209" lon="18.982138">
				<ele>352.000000</ele>
			</trkpt>
			<trkpt lat="47.713221" lon="18.982165">
				<ele>352.000000</ele>
			</trkpt>
			<trkpt lat="47.713239" lon="18.982193">
				<ele>352.000000</ele>
			</trkpt>
			<trkpt lat="47.713258" lon="18.982220">
				<ele>352.000000</ele>
			</trkpt>
			<trkpt lat="47.713276" lon="18.982247">
				<ele>352.000000</ele>
			</trkpt>
			<trkpt lat="47.713342" lon="18.982327">
				<ele>353.000000</ele>
			</trkpt>
			<trkpt lat="47.714134" lon="18.983145">
				<ele>356.000000</ele>
			</trkpt>
			<trkpt lat="47.714237" lon="18.983252">
				<ele>356.000000</ele>
			</trkpt>
			<trkpt lat="47.714327" lon="18.983369">
				<ele>357.000000</ele>
			</trkpt>
			<trkpt lat="47.714363" lon="18.983423">
				<ele>357.000000</ele>
			</trkpt>
			<trkpt lat="47.714406" lon="18.983486">
				<ele>357.000000</ele>
			</trkpt>
			<trkpt lat="47.714467" lon="18.983594">
				<ele>357.000000</ele>
			</trkpt>
			<trkpt lat="47.714515" lon="18.983692">
				<ele>358.000000</ele>
			</trkpt>
			<trkpt lat="47.714545" lon="18.983773">
				<ele>358.000000</ele>
			</trkpt>
			<trkpt lat="47.714630" lon="18.984016">
				<ele>358.000000</ele>
			</trkpt>
			<trkpt lat="47.714708" lon="18.984277">
				<ele>359.000000</ele>
			</trkpt>
			<trkpt lat="47.714714" lon="18.984285">
				<ele>359.000000</ele>
			</trkpt>
			<trkpt lat="47.714720" lon="18.984285">
				<ele>359.000000</ele>
			</trkpt>
			<trkpt lat="47.714732" lon="18.984304">
				<ele>359.000000</ele>
			</trkpt>
			<trkpt lat="47.714750" lon="18.984321">
				<ele>359.000000</ele>
			</trkpt>
			<trkpt lat="47.714811" lon="18.984367">
				<ele>359.000000</ele>
			</trkpt>
			<trkpt lat="47.714847" lon="18.984402">
				<ele>360.000000</ele>
			</trkpt>
			<trkpt lat="47.714854" lon="18.984411">
				<ele>360.000000</ele>
			</trkpt>
			<trkpt lat="47.714860" lon="18.984421">
				<ele>360.000000</ele>
			</trkpt>
			<trkpt lat="47.714872" lon="18.984447">
				<ele>360.000000</ele>
			</trkpt>
			<trkpt lat="47.714896" lon="18.984510">
				<ele>360.000000</ele>
			</trkpt>
			<trkpt lat="47.714974" lon="18.984708">
				<ele>361.000000</ele>
			</trkpt>
			<trkpt lat="47.715083" lon="18.984977">
				<ele>363.000000</ele>
			</trkpt>
			<trkpt lat="47.715131" lon="18.985058">
				<ele>364.000000</ele>
			</trkpt>
			<trkpt lat="47.715149" lon="18.985094">
				<ele>365.000000</ele>
			</trkpt>
			<trkpt lat="47.715161" lon="18.985113">
				<ele>365.000000</ele>
			</trkpt>
			<trkpt lat="47.715173" lon="18.985130">
				<ele>365.000000</ele>
			</trkpt>
			<trkpt lat="47.715271" lon="18.985202">
				<ele>366.000000</ele>
			</trkpt>
			<trkpt lat="47.715609" lon="18.985471">
				<ele>370.000000</ele>
			</trkpt>
			<trkpt lat="47.715712" lon="18.985543">
				<ele>371.000000</ele>
			</trkpt>
			<trkpt lat="47.715863" lon="18.985650">
				<ele>373.000000</ele>
			</trkpt>
			<trkpt lat="47.715977" lon="18.985732">
				<ele>374.000000</ele>
			</trkpt>
			<trkpt lat="47.716056" lon="18.985803">
				<ele>374.000000</ele>
			</trkpt>
			<trkpt lat="47.716092" lon="18.985839">
				<ele>375.000000</ele>
			</trkpt>
			<trkpt lat="47.716146" lon="18.985876">
				<ele>375.000000</ele>
			</trkpt>
			<trkpt lat="47.716213" lon="18.985903">
				<ele>376.000000</ele>
			</trkpt>
			<trkpt lat="47.716310" lon="18.985939">
				<ele>376.000000</ele>
			</trkpt>
			<trkpt lat="47.716491" lon="18.985966">
				<ele>378.000000</ele>
			</trkpt>
			<trkpt lat="47.716661" lon="18.985983">
				<ele>379.000000</ele>
			</trkpt>
			<trkpt lat="47.716962" lon="18.986010">
				<ele>381.000000</ele>
			</trkpt>
			<trkpt lat="47.717283" lon="18.986037">
				<ele>383.000000</ele>
			</trkpt>
			<trkpt lat="47.717640" lon="18.986118">
				<ele>384.000000</ele>
			</trkpt>
			<trkpt lat="47.717706" lon="18.986145">
				<ele>385.000000</ele>
			</trkpt>
			<trkpt lat="47.717929" lon="18.986253">
				<ele>386.000000</ele>
			</trkpt>
			<trkpt lat="47.717996" lon="18.986279">
				<ele>386.000000</ele>
			</trkpt>
			<trkpt lat="47.718099" lon="18.986316">
				<ele>387.000000</ele>
			</trkpt>
			<trkpt lat="47.718202" lon="18.986334">
				<ele>387.000000</ele>
			</trkpt>
			<trkpt lat="47.718304" lon="18.986342">
				<ele>388.000000</ele>
			</trkpt>
			<trkpt lat="47.718407" lon="18.986334">
				<ele>388.000000</ele>
			</trkpt>
			<trkpt lat="47.718492" lon="18.986325">
				<ele>389.000000</ele>
			</trkpt>
			<trkpt lat="47.719120" lon="18.986172">
				<ele>393.000000</ele>
			</trkpt>
			<trkpt lat="47.719271" lon="18.986126">
				<ele>395.000000</ele>
			</trkpt>
			<trkpt lat="47.719435" lon="18.986073">
				<ele>396.000000</ele>
			</trkpt>
			<trkpt lat="47.719592" lon="18.986029">
				<ele>398.000000</ele>
			</trkpt>
			<trkpt lat="47.720178" lon="18.985750">
				<ele>401.000000</ele>
			</trkpt>
			<trkpt lat="47.720196" lon="18.985750">
				<ele>401.000000</ele>
			</trkpt>
			<trkpt lat="47.720208" lon="18.985750">
				<ele>401.000000</ele>
			</trkpt>
			<trkpt lat="47.720220" lon="18.985750">
				<ele>401.000000</ele>
			</trkpt>
			<trkpt lat="47.720238" lon="18.985759">
				<ele>401.000000</ele>
			</trkpt>
			<trkpt lat="47.720378" lon="18.985839">
				<ele>401.000000</ele>
			</trkpt>
			<trkpt lat="47.720408" lon="18.985858">
				<ele>401.000000</ele>
			</trkpt>
			<trkpt lat="47.720414" lon="18.985866">
				<ele>402.000000</ele>
			</trkpt>
			<trkpt lat="47.720426" lon="18.985885">
				<ele>402.000000</ele>
			</trkpt>
			<trkpt lat="47.720426" lon="18.985893">
				<ele>402.000000</ele>
			</trkpt>
			<trkpt lat="47.720432" lon="18.985903">
				<ele>402.000000</ele>
			</trkpt>
			<trkpt lat="47.720444" lon="18.985966">
				<ele>402.000000</ele>
			</trkpt>
			<trkpt lat="47.720450" lon="18.985992">
				<ele>402.000000</ele>
			</trkpt>
			<trkpt lat="47.720462" lon="18.986019">
				<ele>402.000000</ele>
			</trkpt>
			<trkpt lat="47.720480" lon="18.986046">
				<ele>402.000000</ele>
			</trkpt>
			<trkpt lat="47.720492" lon="18.986065">
				<ele>402.000000</ele>
			</trkpt>
			<trkpt lat="47.720498" lon="18.986073">
				<ele>402.000000</ele>
			</trkpt>
			<trkpt lat="47.720504" lon="18.986073">
				<ele>402.000000</ele>
			</trkpt>
			<trkpt lat="47.720534" lon="18.986092">
				<ele>402.000000</ele>
			</trkpt>
			<trkpt lat="47.720637" lon="18.986126">
				<ele>402.000000</ele>
			</trkpt>
			<trkpt lat="47.720764" lon="18.986163">
				<ele>403.000000</ele>
			</trkpt>
			<trkpt lat="47.720794" lon="18.986118">
				<ele>403.000000</ele>
			</trkpt>
			<trkpt lat="47.720939" lon="18.985920">
				<ele>404.000000</ele>
			</trkpt>
			<trkpt lat="47.720945" lon="18.985939">
				<ele>404.000000</ele>
			</trkpt>
			<trkpt lat="47.720952" lon="18.985947">
				<ele>404.000000</ele>
			</trkpt>
			<trkpt lat="47.720958" lon="18.985956">
				<ele>404.000000</ele>
			</trkpt>
			<trkpt lat="47.720970" lon="18.985983">
				<ele>404.000000</ele>
			</trkpt>
			<trkpt lat="47.720982" lon="18.986002">
				<ele>403.000000</ele>
			</trkpt>
			<trkpt lat="47.721253" lon="18.986306">
				<ele>398.000000</ele>
			</trkpt>
			<trkpt lat="47.721259" lon="18.986316">
				<ele>398.000000</ele>
			</trkpt>
			<trkpt lat="47.721265" lon="18.986325">
				<ele>398.000000</ele>
			</trkpt>
			<trkpt lat="47.721265" lon="18.986342">
				<ele>398.000000</ele>
			</trkpt>
			<trkpt lat="47.721271" lon="18.986361">
				<ele>397.000000</ele>
			</trkpt>
			<trkpt lat="47.721271" lon="18.986379">
				<ele>397.000000</ele>
			</trkpt>
			<trkpt lat="47.721271" lon="18.986459">
				<ele>395.000000</ele>
			</trkpt>
			<trkpt lat="47.721271" lon="18.986486">
				<ele>395.000000</ele>
			</trkpt>
			<trkpt lat="47.721277" lon="18.986495">
				<ele>395.000000</ele>
			</trkpt>
			<trkpt lat="47.721277" lon="18.986513">
				<ele>394.000000</ele>
			</trkpt>
			<trkpt lat="47.721283" lon="18.986522">
				<ele>394.000000</ele>
			</trkpt>
			<trkpt lat="47.721283" lon="18.986531">
				<ele>394.000000</ele>
			</trkpt>
			<trkpt lat="47.721314" lon="18.986576">
				<ele>393.000000</ele>
			</trkpt>
			<trkpt lat="47.721326" lon="18.986603">
				<ele>392.000000</ele>
			</trkpt>
			<trkpt lat="47.721332" lon="18.986639">
				<ele>391.000000</ele>
			</trkpt>
			<trkpt lat="47.721350" lon="18.986684">
				<ele>390.000000</ele>
			</trkpt>
			<trkpt lat="47.721357" lon="18.986702">
				<ele>390.000000</ele>
			</trkpt>
			<trkpt lat="47.721363" lon="18.986721">
				<ele>389.000000</ele>
			</trkpt>
			<trkpt lat="47.721375" lon="18.986747">
				<ele>389.000000</ele>
			</trkpt>
			<trkpt lat="47.721399" lon="18.986774">
				<ele>389.000000</ele>
			</trkpt>
			<trkpt lat="47.721405" lon="18.986782">
				<ele>389.000000</ele>
			</trkpt>
			<trkpt lat="47.721417" lon="18.986801">
				<ele>388.000000</ele>
			</trkpt>
			<trkpt lat="47.721435" lon="18.986810">
				<ele>388.000000</ele>
			</trkpt>
			<trkpt lat="47.721453" lon="18.986828">
				<ele>388.000000</ele>
			</trkpt>
			<trkpt lat="47.721465" lon="18.986828">
				<ele>387.000000</ele>
			</trkpt>
			<trkpt lat="47.721477" lon="18.986837">
				<ele>387.000000</ele>
			</trkpt>
			<trkpt lat="47.721477" lon="18.986845">
				<ele>387.000000</ele>
			</trkpt>
			<trkpt lat="47.721483" lon="18.986855">
				<ele>387.000000</ele>
			</trkpt>
			<trkpt lat="47.721483" lon="18.986864">
				<ele>387.000000</ele>
			</trkpt>
			<trkpt lat="47.721532" lon="18.986927">
				<ele>387.000000</ele>
			</trkpt>
			<trkpt lat="47.721556" lon="18.986891">
				<ele>386.000000</ele>
			</trkpt>
			<trkpt lat="47.721580" lon="18.986845">
				<ele>386.000000</ele>
			</trkpt>
			<trkpt lat="47.721628" lon="18.986747">
				<ele>386.000000</ele>
			</trkpt>
			<trkpt lat="47.721694" lon="18.986631">
				<ele>385.000000</ele>
			</trkpt>
			<trkpt lat="47.721834" lon="18.986423">
				<ele>384.000000</ele>
			</trkpt>
			<trkpt lat="47.721967" lon="18.986262">
				<ele>382.000000</ele>
			</trkpt>
			<trkpt lat="47.722021" lon="18.986199">
				<ele>382.000000</ele>
			</trkpt>
			<trkpt lat="47.722051" lon="18.986172">
				<ele>382.000000</ele>
			</trkpt>
			<trkpt lat="47.722069" lon="18.986155">
				<ele>381.000000</ele>
			</trkpt>
			<trkpt lat="47.722093" lon="18.986145">
				<ele>381.000000</ele>
			</trkpt>
			<trkpt lat="47.722118" lon="18.986136">
				<ele>381.000000</ele>
			</trkpt>
			<trkpt lat="47.722136" lon="18.986136">
				<ele>381.000000</ele>
			</trkpt>
			<trkpt lat="47.722160" lon="18.986136">
				<ele>381.000000</ele>
			</trkpt>
			<trkpt lat="47.722178" lon="18.986126">
				<ele>381.000000</ele>
			</trkpt>
			<trkpt lat="47.722214" lon="18.986136">
				<ele>380.000000</ele>
			</trkpt>
			<trkpt lat="47.722238" lon="18.986145">
				<ele>380.000000</ele>
			</trkpt>
			<trkpt lat="47.722281" lon="18.986181">
				<ele>380.000000</ele>
			</trkpt>
			<trkpt lat="47.722293" lon="18.986216">
				<ele>380.000000</ele>
			</trkpt>
			<trkpt lat="47.722311" lon="18.986244">
				<ele>380.000000</ele>
			</trkpt>
			<trkpt lat="47.722329" lon="18.986279">
				<ele>379.000000</ele>
			</trkpt>
			<trkpt lat="47.722348" lon="18.986325">
				<ele>379.000000</ele>
			</trkpt>
			<trkpt lat="47.722360" lon="18.986379">
				<ele>379.000000</ele>
			</trkpt>
			<trkpt lat="47.722360" lon="18.986396">
				<ele>379.000000</ele>
			</trkpt>
			<trkpt lat="47.722360" lon="18.986451">
				<ele>378.000000</ele>
			</trkpt>
			<trkpt lat="47.722366" lon="18.986486">
				<ele>378.000000</ele>
			</trkpt>
			<trkpt lat="47.722354" lon="18.986531">
				<ele>378.000000</ele>
			</trkpt>
			<trkpt lat="47.722354" lon="18.986558">
				<ele>378.000000</ele>
			</trkpt>
			<trkpt lat="47.722336" lon="18.986612">
				<ele>377.000000</ele>
			</trkpt>
			<trkpt lat="47.722323" lon="18.986648">
				<ele>377.000000</ele>
			</trkpt>
			<trkpt lat="47.722281" lon="18.986721">
				<ele>377.000000</ele>
			</trkpt>
			<trkpt lat="47.722262" lon="18.986747">
				<ele>377.000000</ele>
			</trkpt>
			<trkpt lat="47.722087" lon="18.986989">
				<ele>375.000000</ele>
			</trkpt>
			<trkpt lat="47.722057" lon="18.987034">
				<ele>374.000000</ele>
			</trkpt>
			<trkpt lat="47.722027" lon="18.987079">
				<ele>374.000000</ele>
			</trkpt>
			<trkpt lat="47.722003" lon="18.987134">
				<ele>374.000000</ele>
			</trkpt>
			<trkpt lat="47.721991" lon="18.987187">
				<ele>373.000000</ele>
			</trkpt>
			<trkpt lat="47.721979" lon="18.987241">
				<ele>373.000000</ele>
			</trkpt>
			<trkpt lat="47.721973" lon="18.987295">
				<ele>373.000000</ele>
			</trkpt>
			<trkpt lat="47.721973" lon="18.987321">
				<ele>373.000000</ele>
			</trkpt>
			<trkpt lat="47.721979" lon="18.987367">
				<ele>373.000000</ele>
			</trkpt>
			<trkpt lat="47.721985" lon="18.987403">
				<ele>372.000000</ele>
			</trkpt>
			<trkpt lat="47.722009" lon="18.987474">
				<ele>372.000000</ele>
			</trkpt>
			<trkpt lat="47.722015" lon="18.987484">
				<ele>372.000000</ele>
			</trkpt>
			<trkpt lat="47.722021" lon="18.987501">
				<ele>372.000000</ele>
			</trkpt>
			<trkpt lat="47.722039" lon="18.987537">
				<ele>372.000000</ele>
			</trkpt>
			<trkpt lat="47.722329" lon="18.987924">
				<ele>370.000000</ele>
			</trkpt>
			<trkpt lat="47.722619" lon="18.988292">
				<ele>369.000000</ele>
			</trkpt>
			<trkpt lat="47.722649" lon="18.988319">
				<ele>369.000000</ele>
			</trkpt>
			<trkpt lat="47.722704" lon="18.988382">
				<ele>369.000000</ele>
			</trkpt>
			<trkpt lat="47.722746" lon="18.988418">
				<ele>369.000000</ele>
			</trkpt>
			<trkpt lat="47.722807" lon="18.988453">
				<ele>369.000000</ele>
			</trkpt>
			<trkpt lat="47.722867" lon="18.988472">
				<ele>369.000000</ele>
			</trkpt>
			<trkpt lat="47.722982" lon="18.988526">
				<ele>369.000000</ele>
			</trkpt>
			<trkpt lat="47.723060" lon="18.988579">
				<ele>368.000000</ele>
			</trkpt>
			<trkpt lat="47.723066" lon="18.988579">
				<ele>368.000000</ele>
			</trkpt>
		</trkseg>
	</trk>
</gpx>

