<?xml version="1.0" encoding="utf-8"?>
<gpx xmlns="http://www.topografix.com/GPX/1/1" version="1.1" creator="https://mapy.com/">
	<trk>
		<name>Route from Solymár to Park and ride</name>
		<trkseg>
			<trkpt lat="47.596085" lon="18.949988">
				<ele>150.000000</ele>
			</trkpt>
			<trkpt lat="47.595843" lon="18.951020">
				<ele>150.000000</ele>
			</trkpt>
			<trkpt lat="47.595783" lon="18.950994">
				<ele>150.000000</ele>
			</trkpt>
			<trkpt lat="47.595740" lon="18.950959">
				<ele>150.000000</ele>
			</trkpt>
			<trkpt lat="47.595710" lon="18.950886">
				<ele>150.000000</ele>
			</trkpt>
			<trkpt lat="47.595710" lon="18.950823">
				<ele>150.000000</ele>
			</trkpt>
			<trkpt lat="47.595686" lon="18.950707">
				<ele>150.000000</ele>
			</trkpt>
			<trkpt lat="47.595649" lon="18.950607">
				<ele>150.000000</ele>
			</trkpt>
			<trkpt lat="47.595589" lon="18.950500">
				<ele>160.000000</ele>
			</trkpt>
			<trkpt lat="47.595558" lon="18.950509">
				<ele>160.000000</ele>
			</trkpt>
			<trkpt lat="47.595528" lon="18.950500">
				<ele>160.000000</ele>
			</trkpt>
			<trkpt lat="47.595498" lon="18.950483">
				<ele>160.000000</ele>
			</trkpt>
			<trkpt lat="47.595468" lon="18.950454">
				<ele>160.000000</ele>
			</trkpt>
			<trkpt lat="47.595450" lon="18.950420">
				<ele>160.000000</ele>
			</trkpt>
			<trkpt lat="47.595432" lon="18.950365">
				<ele>160.000000</ele>
			</trkpt>
			<trkpt lat="47.595425" lon="18.950338">
				<ele>160.000000</ele>
			</trkpt>
			<trkpt lat="47.595413" lon="18.950320">
				<ele>160.000000</ele>
			</trkpt>
			<trkpt lat="47.595389" lon="18.950275">
				<ele>160.000000</ele>
			</trkpt>
			<trkpt lat="47.595346" lon="18.950230">
				<ele>160.000000</ele>
			</trkpt>
			<trkpt lat="47.595328" lon="18.950221">
				<ele>160.000000</ele>
			</trkpt>
			<trkpt lat="47.593905" lon="18.949854">
				<ele>160.000000</ele>
			</trkpt>
			<trkpt lat="47.593789" lon="18.949817">
				<ele>160.000000</ele>
			</trkpt>
			<trkpt lat="47.593693" lon="18.949791">
				<ele>160.000000</ele>
			</trkpt>
			<trkpt lat="47.593626" lon="18.949781">
				<ele>160.000000</ele>
			</trkpt>
			<trkpt lat="47.593553" lon="18.949799">
				<ele>160.000000</ele>
			</trkpt>
			<trkpt lat="47.593547" lon="18.949475">
				<ele>160.000000</ele>
			</trkpt>
			<trkpt lat="47.593505" lon="18.948991">
				<ele>160.000000</ele>
			</trkpt>
			<trkpt lat="47.593426" lon="18.948515">
				<ele>160.000000</ele>
			</trkpt>
			<trkpt lat="47.593317" lon="18.948039">
				<ele>160.000000</ele>
			</trkpt>
			<trkpt lat="47.593256" lon="18.947894">
				<ele>160.000000</ele>
			</trkpt>
			<trkpt lat="47.593123" lon="18.947707">
				<ele>160.000000</ele>
			</trkpt>
			<trkpt lat="47.593299" lon="18.947508">
				<ele>160.000000</ele>
			</trkpt>
			<trkpt lat="47.593396" lon="18.947401">
				<ele>160.000000</ele>
			</trkpt>
			<trkpt lat="47.593511" lon="18.947267">
				<ele>160.000000</ele>
			</trkpt>
			<trkpt lat="47.593620" lon="18.947087">
				<ele>160.000000</ele>
			</trkpt>
			<trkpt lat="47.593596" lon="18.947024">
				<ele>160.000000</ele>
			</trkpt>
			<trkpt lat="47.593396" lon="18.946592">
				<ele>160.000000</ele>
			</trkpt>
			<trkpt lat="47.593160" lon="18.945936">
				<ele>160.000000</ele>
			</trkpt>
			<trkpt lat="47.592996" lon="18.945523">
				<ele>160.000000</ele>
			</trkpt>
			<trkpt lat="47.592917" lon="18.945299">
				<ele>160.000000</ele>
			</trkpt>
			<trkpt lat="47.592863" lon="18.945030">
				<ele>161.000000</ele>
			</trkpt>
			<trkpt lat="47.592857" lon="18.944841">
				<ele>161.000000</ele>
			</trkpt>
			<trkpt lat="47.592857" lon="18.944615">
				<ele>161.000000</ele>
			</trkpt>
			<trkpt lat="47.592996" lon="18.943412">
				<ele>163.000000</ele>
			</trkpt>
			<trkpt lat="47.593123" lon="18.942766">
				<ele>164.000000</ele>
			</trkpt>
			<trkpt lat="47.593123" lon="18.942559">
				<ele>165.000000</ele>
			</trkpt>
			<trkpt lat="47.593111" lon="18.942280">
				<ele>165.000000</ele>
			</trkpt>
			<trkpt lat="47.593050" lon="18.941732">
				<ele>166.000000</ele>
			</trkpt>
			<trkpt lat="47.593111" lon="18.941112">
				<ele>167.000000</ele>
			</trkpt>
			<trkpt lat="47.593287" lon="18.939191">
				<ele>170.000000</ele>
			</trkpt>
			<trkpt lat="47.593323" lon="18.939064">
				<ele>170.000000</ele>
			</trkpt>
			<trkpt lat="47.592960" lon="18.938615">
				<ele>170.000000</ele>
			</trkpt>
			<trkpt lat="47.592675" lon="18.938265">
				<ele>170.000000</ele>
			</trkpt>
			<trkpt lat="47.592535" lon="18.938130">
				<ele>170.000000</ele>
			</trkpt>
			<trkpt lat="47.592366" lon="18.937969">
				<ele>170.000000</ele>
			</trkpt>
			<trkpt lat="47.592208" lon="18.937843">
				<ele>170.000000</ele>
			</trkpt>
			<trkpt lat="47.592154" lon="18.937789">
				<ele>170.000000</ele>
			</trkpt>
			<trkpt lat="47.591984" lon="18.937627">
				<ele>171.000000</ele>
			</trkpt>
			<trkpt lat="47.591942" lon="18.937591">
				<ele>171.000000</ele>
			</trkpt>
			<trkpt lat="47.591306" lon="18.937017">
				<ele>176.000000</ele>
			</trkpt>
			<trkpt lat="47.591287" lon="18.937007">
				<ele>176.000000</ele>
			</trkpt>
			<trkpt lat="47.591269" lon="18.936990">
				<ele>176.000000</ele>
			</trkpt>
			<trkpt lat="47.591094" lon="18.936827">
				<ele>177.000000</ele>
			</trkpt>
			<trkpt lat="47.590906" lon="18.936684">
				<ele>179.000000</ele>
			</trkpt>
			<trkpt lat="47.590688" lon="18.936522">
				<ele>180.000000</ele>
			</trkpt>
			<trkpt lat="47.590700" lon="18.936451">
				<ele>181.000000</ele>
			</trkpt>
			<trkpt lat="47.590706" lon="18.936405">
				<ele>181.000000</ele>
			</trkpt>
			<trkpt lat="47.590779" lon="18.935893">
				<ele>186.000000</ele>
			</trkpt>
			<trkpt lat="47.590803" lon="18.935678">
				<ele>188.000000</ele>
			</trkpt>
			<trkpt lat="47.590821" lon="18.935409">
				<ele>190.000000</ele>
			</trkpt>
			<trkpt lat="47.590839" lon="18.934933">
				<ele>192.000000</ele>
			</trkpt>
			<trkpt lat="47.590906" lon="18.934043">
				<ele>196.000000</ele>
			</trkpt>
			<trkpt lat="47.591009" lon="18.932713">
				<ele>200.000000</ele>
			</trkpt>
			<trkpt lat="47.591094" lon="18.931671">
				<ele>203.000000</ele>
			</trkpt>
			<trkpt lat="47.591221" lon="18.930459">
				<ele>205.000000</ele>
			</trkpt>
			<trkpt lat="47.591251" lon="18.930189">
				<ele>206.000000</ele>
			</trkpt>
			<trkpt lat="47.591263" lon="18.929875">
				<ele>206.000000</ele>
			</trkpt>
			<trkpt lat="47.591257" lon="18.929677">
				<ele>207.000000</ele>
			</trkpt>
			<trkpt lat="47.591221" lon="18.929290">
				<ele>208.000000</ele>
			</trkpt>
			<trkpt lat="47.591221" lon="18.929227">
				<ele>208.000000</ele>
			</trkpt>
			<trkpt lat="47.591227" lon="18.929174">
				<ele>208.000000</ele>
			</trkpt>
			<trkpt lat="47.591160" lon="18.928572">
				<ele>209.000000</ele>
			</trkpt>
			<trkpt lat="47.591148" lon="18.928447">
				<ele>209.000000</ele>
			</trkpt>
			<trkpt lat="47.591088" lon="18.928141">
				<ele>210.000000</ele>
			</trkpt>
			<trkpt lat="47.590996" lon="18.927701">
				<ele>211.000000</ele>
			</trkpt>
			<trkpt lat="47.590966" lon="18.927548">
				<ele>211.000000</ele>
			</trkpt>
			<trkpt lat="47.590858" lon="18.927503">
				<ele>212.000000</ele>
			</trkpt>
			<trkpt lat="47.590858" lon="18.927440">
				<ele>212.000000</ele>
			</trkpt>
			<trkpt lat="47.590815" lon="18.927432">
				<ele>212.000000</ele>
			</trkpt>
			<trkpt lat="47.590815" lon="18.927315">
				<ele>212.000000</ele>
			</trkpt>
			<trkpt lat="47.590803" lon="18.927180">
				<ele>212.000000</ele>
			</trkpt>
			<trkpt lat="47.590791" lon="18.927072">
				<ele>212.000000</ele>
			</trkpt>
			<trkpt lat="47.589403" lon="18.926990">
				<ele>216.000000</ele>
			</trkpt>
			<trkpt lat="47.589403" lon="18.926946">
				<ele>216.000000</ele>
			</trkpt>
			<trkpt lat="47.589228" lon="18.923434">
				<ele>231.000000</ele>
			</trkpt>
			<trkpt lat="47.589167" lon="18.921996">
				<ele>240.000000</ele>
			</trkpt>
			<trkpt lat="47.589143" lon="18.921304">
				<ele>246.000000</ele>
			</trkpt>
			<trkpt lat="47.589094" lon="18.920721">
				<ele>252.000000</ele>
			</trkpt>
			<trkpt lat="47.588973" lon="18.920065">
				<ele>260.000000</ele>
			</trkpt>
			<trkpt lat="47.588652" lon="18.918790">
				<ele>271.000000</ele>
			</trkpt>
			<trkpt lat="47.588676" lon="18.918484">
				<ele>273.000000</ele>
			</trkpt>
			<trkpt lat="47.588767" lon="18.918350">
				<ele>273.000000</ele>
			</trkpt>
			<trkpt lat="47.588737" lon="18.916490">
				<ele>280.000000</ele>
			</trkpt>
			<trkpt lat="47.588828" lon="18.916059">
				<ele>283.000000</ele>
			</trkpt>
			<trkpt lat="47.588949" lon="18.915672">
				<ele>285.000000</ele>
			</trkpt>
			<trkpt lat="47.588955" lon="18.915304">
				<ele>287.000000</ele>
			</trkpt>
			<trkpt lat="47.588870" lon="18.915195">
				<ele>288.000000</ele>
			</trkpt>
			<trkpt lat="47.588646" lon="18.914945">
				<ele>291.000000</ele>
			</trkpt>
			<trkpt lat="47.588507" lon="18.914792">
				<ele>294.000000</ele>
			</trkpt>
			<trkpt lat="47.588373" lon="18.914558">
				<ele>298.000000</ele>
			</trkpt>
			<trkpt lat="47.588222" lon="18.914279">
				<ele>302.000000</ele>
			</trkpt>
			<trkpt lat="47.588040" lon="18.914010">
				<ele>306.000000</ele>
			</trkpt>
			<trkpt lat="47.587888" lon="18.913822">
				<ele>310.000000</ele>
			</trkpt>
			<trkpt lat="47.587658" lon="18.913740">
				<ele>316.000000</ele>
			</trkpt>
			<trkpt lat="47.587435" lon="18.913677">
				<ele>321.000000</ele>
			</trkpt>
			<trkpt lat="47.587392" lon="18.913660">
				<ele>322.000000</ele>
			</trkpt>
			<trkpt lat="47.587192" lon="18.913471">
				<ele>327.000000</ele>
			</trkpt>
			<trkpt lat="47.586998" lon="18.913237">
				<ele>332.000000</ele>
			</trkpt>
			<trkpt lat="47.586865" lon="18.912941">
				<ele>336.000000</ele>
			</trkpt>
			<trkpt lat="47.586810" lon="18.912807">
				<ele>338.000000</ele>
			</trkpt>
			<trkpt lat="47.586744" lon="18.912654">
				<ele>340.000000</ele>
			</trkpt>
			<trkpt lat="47.586659" lon="18.912339">
				<ele>343.000000</ele>
			</trkpt>
			<trkpt lat="47.586647" lon="18.911989">
				<ele>345.000000</ele>
			</trkpt>
			<trkpt lat="47.586689" lon="18.911593">
				<ele>348.000000</ele>
			</trkpt>
			<trkpt lat="47.586750" lon="18.911289">
				<ele>350.000000</ele>
			</trkpt>
			<trkpt lat="47.586804" lon="18.911046">
				<ele>351.000000</ele>
			</trkpt>
			<trkpt lat="47.586926" lon="18.910696">
				<ele>352.000000</ele>
			</trkpt>
			<trkpt lat="47.587028" lon="18.910381">
				<ele>354.000000</ele>
			</trkpt>
			<trkpt lat="47.587101" lon="18.910013">
				<ele>355.000000</ele>
			</trkpt>
			<trkpt lat="47.587162" lon="18.909608">
				<ele>357.000000</ele>
			</trkpt>
			<trkpt lat="47.587265" lon="18.909195">
				<ele>358.000000</ele>
			</trkpt>
			<trkpt lat="47.587367" lon="18.908962">
				<ele>359.000000</ele>
			</trkpt>
			<trkpt lat="47.587489" lon="18.908809">
				<ele>360.000000</ele>
			</trkpt>
			<trkpt lat="47.587689" lon="18.908819">
				<ele>362.000000</ele>
			</trkpt>
			<trkpt lat="47.587846" lon="18.908819">
				<ele>363.000000</ele>
			</trkpt>
			<trkpt lat="47.587931" lon="18.908926">
				<ele>363.000000</ele>
			</trkpt>
			<trkpt lat="47.588131" lon="18.909016">
				<ele>365.000000</ele>
			</trkpt>
			<trkpt lat="47.588265" lon="18.908979">
				<ele>366.000000</ele>
			</trkpt>
			<trkpt lat="47.588422" lon="18.908729">
				<ele>367.000000</ele>
			</trkpt>
			<trkpt lat="47.588555" lon="18.908477">
				<ele>369.000000</ele>
			</trkpt>
			<trkpt lat="47.588682" lon="18.908198">
				<ele>370.000000</ele>
			</trkpt>
			<trkpt lat="47.588755" lon="18.907964">
				<ele>371.000000</ele>
			</trkpt>
			<trkpt lat="47.588780" lon="18.907803">
				<ele>372.000000</ele>
			</trkpt>
			<trkpt lat="47.588792" lon="18.907354">
				<ele>373.000000</ele>
			</trkpt>
			<trkpt lat="47.588786" lon="18.907219">
				<ele>374.000000</ele>
			</trkpt>
			<trkpt lat="47.588773" lon="18.907094">
				<ele>374.000000</ele>
			</trkpt>
			<trkpt lat="47.588755" lon="18.906958">
				<ele>374.000000</ele>
			</trkpt>
			<trkpt lat="47.588761" lon="18.906869">
				<ele>375.000000</ele>
			</trkpt>
			<trkpt lat="47.588792" lon="18.906761">
				<ele>375.000000</ele>
			</trkpt>
			<trkpt lat="47.588834" lon="18.906482">
				<ele>376.000000</ele>
			</trkpt>
			<trkpt lat="47.588840" lon="18.905997">
				<ele>378.000000</ele>
			</trkpt>
			<trkpt lat="47.588937" lon="18.905593">
				<ele>379.000000</ele>
			</trkpt>
			<trkpt lat="47.589010" lon="18.905161">
				<ele>381.000000</ele>
			</trkpt>
			<trkpt lat="47.589076" lon="18.904767">
				<ele>384.000000</ele>
			</trkpt>
			<trkpt lat="47.589022" lon="18.904245">
				<ele>388.000000</ele>
			</trkpt>
			<trkpt lat="47.589276" lon="18.903599">
				<ele>393.000000</ele>
			</trkpt>
			<trkpt lat="47.589433" lon="18.903419">
				<ele>394.000000</ele>
			</trkpt>
			<trkpt lat="47.589531" lon="18.903213">
				<ele>396.000000</ele>
			</trkpt>
			<trkpt lat="47.589549" lon="18.902907">
				<ele>398.000000</ele>
			</trkpt>
			<trkpt lat="47.589718" lon="18.902719">
				<ele>400.000000</ele>
			</trkpt>
			<trkpt lat="47.589834" lon="18.902548">
				<ele>401.000000</ele>
			</trkpt>
			<trkpt lat="47.589870" lon="18.902413">
				<ele>401.000000</ele>
			</trkpt>
			<trkpt lat="47.589858" lon="18.902270">
				<ele>402.000000</ele>
			</trkpt>
			<trkpt lat="47.589858" lon="18.902161">
				<ele>403.000000</ele>
			</trkpt>
			<trkpt lat="47.589846" lon="18.901928">
				<ele>404.000000</ele>
			</trkpt>
			<trkpt lat="47.589852" lon="18.901704">
				<ele>405.000000</ele>
			</trkpt>
			<trkpt lat="47.589864" lon="18.901389">
				<ele>406.000000</ele>
			</trkpt>
			<trkpt lat="47.589900" lon="18.900931">
				<ele>408.000000</ele>
			</trkpt>
			<trkpt lat="47.589900" lon="18.900626">
				<ele>409.000000</ele>
			</trkpt>
			<trkpt lat="47.589906" lon="18.900446">
				<ele>410.000000</ele>
			</trkpt>
			<trkpt lat="47.590082" lon="18.900392">
				<ele>410.000000</ele>
			</trkpt>
			<trkpt lat="47.590100" lon="18.900374">
				<ele>410.000000</ele>
			</trkpt>
			<trkpt lat="47.590106" lon="18.900374">
				<ele>410.000000</ele>
			</trkpt>
			<trkpt lat="47.590264" lon="18.900517">
				<ele>412.000000</ele>
			</trkpt>
			<trkpt lat="47.590294" lon="18.900599">
				<ele>412.000000</ele>
			</trkpt>
			<trkpt lat="47.590343" lon="18.900733">
				<ele>413.000000</ele>
			</trkpt>
			<trkpt lat="47.590343" lon="18.900733">
				<ele>413.000000</ele>
			</trkpt>
			<trkpt lat="47.590294" lon="18.900599">
				<ele>412.000000</ele>
			</trkpt>
			<trkpt lat="47.590264" lon="18.900517">
				<ele>412.000000</ele>
			</trkpt>
			<trkpt lat="47.590106" lon="18.900374">
				<ele>410.000000</ele>
			</trkpt>
			<trkpt lat="47.590112" lon="18.900366">
				<ele>410.000000</ele>
			</trkpt>
			<trkpt lat="47.590118" lon="18.900356">
				<ele>410.000000</ele>
			</trkpt>
			<trkpt lat="47.590124" lon="18.900337">
				<ele>410.000000</ele>
			</trkpt>
			<trkpt lat="47.590161" lon="18.900248">
				<ele>410.000000</ele>
			</trkpt>
			<trkpt lat="47.590185" lon="18.900186">
				<ele>411.000000</ele>
			</trkpt>
			<trkpt lat="47.590185" lon="18.900176">
				<ele>411.000000</ele>
			</trkpt>
			<trkpt lat="47.590191" lon="18.900158">
				<ele>411.000000</ele>
			</trkpt>
			<trkpt lat="47.590191" lon="18.900140">
				<ele>411.000000</ele>
			</trkpt>
			<trkpt lat="47.590191" lon="18.900113">
				<ele>411.000000</ele>
			</trkpt>
			<trkpt lat="47.590179" lon="18.900060">
				<ele>411.000000</ele>
			</trkpt>
			<trkpt lat="47.590155" lon="18.899943">
				<ele>411.000000</ele>
			</trkpt>
			<trkpt lat="47.590130" lon="18.899853">
				<ele>411.000000</ele>
			</trkpt>
			<trkpt lat="47.590112" lon="18.899754">
				<ele>412.000000</ele>
			</trkpt>
			<trkpt lat="47.590100" lon="18.899682">
				<ele>412.000000</ele>
			</trkpt>
			<trkpt lat="47.590094" lon="18.899655">
				<ele>412.000000</ele>
			</trkpt>
			<trkpt lat="47.590094" lon="18.899628">
				<ele>412.000000</ele>
			</trkpt>
			<trkpt lat="47.590106" lon="18.899521">
				<ele>412.000000</ele>
			</trkpt>
			<trkpt lat="47.590112" lon="18.899440">
				<ele>412.000000</ele>
			</trkpt>
			<trkpt lat="47.590118" lon="18.899287">
				<ele>413.000000</ele>
			</trkpt>
			<trkpt lat="47.590112" lon="18.899045">
				<ele>413.000000</ele>
			</trkpt>
			<trkpt lat="47.590112" lon="18.898982">
				<ele>413.000000</ele>
			</trkpt>
			<trkpt lat="47.590106" lon="18.898928">
				<ele>413.000000</ele>
			</trkpt>
			<trkpt lat="47.590094" lon="18.898892">
				<ele>413.000000</ele>
			</trkpt>
			<trkpt lat="47.590082" lon="18.898829">
				<ele>414.000000</ele>
			</trkpt>
			<trkpt lat="47.590052" lon="18.898739">
				<ele>414.000000</ele>
			</trkpt>
			<trkpt lat="47.589882" lon="18.898308">
				<ele>415.000000</ele>
			</trkpt>
			<trkpt lat="47.589864" lon="18.898263">
				<ele>415.000000</ele>
			</trkpt>
			<trkpt lat="47.589852" lon="18.898236">
				<ele>415.000000</ele>
			</trkpt>
			<trkpt lat="47.589840" lon="18.898218">
				<ele>415.000000</ele>
			</trkpt>
			<trkpt lat="47.589791" lon="18.898155">
				<ele>415.000000</ele>
			</trkpt>
			<trkpt lat="47.589797" lon="18.898129">
				<ele>415.000000</ele>
			</trkpt>
			<trkpt lat="47.589779" lon="18.897823">
				<ele>416.000000</ele>
			</trkpt>
			<trkpt lat="47.589773" lon="18.897563">
				<ele>417.000000</ele>
			</trkpt>
			<trkpt lat="47.589773" lon="18.897391">
				<ele>417.000000</ele>
			</trkpt>
			<trkpt lat="47.589773" lon="18.897356">
				<ele>417.000000</ele>
			</trkpt>
			<trkpt lat="47.589767" lon="18.897320">
				<ele>417.000000</ele>
			</trkpt>
			<trkpt lat="47.589737" lon="18.897211">
				<ele>417.000000</ele>
			</trkpt>
			<trkpt lat="47.589712" lon="18.897113">
				<ele>418.000000</ele>
			</trkpt>
			<trkpt lat="47.589676" lon="18.896987">
				<ele>418.000000</ele>
			</trkpt>
			<trkpt lat="47.589537" lon="18.896574">
				<ele>419.000000</ele>
			</trkpt>
			<trkpt lat="47.589525" lon="18.896521">
				<ele>419.000000</ele>
			</trkpt>
			<trkpt lat="47.589494" lon="18.896404">
				<ele>419.000000</ele>
			</trkpt>
			<trkpt lat="47.589464" lon="18.896287">
				<ele>420.000000</ele>
			</trkpt>
			<trkpt lat="47.589397" lon="18.896018">
				<ele>420.000000</ele>
			</trkpt>
			<trkpt lat="47.589385" lon="18.895963">
				<ele>420.000000</ele>
			</trkpt>
			<trkpt lat="47.589313" lon="18.895603">
				<ele>420.000000</ele>
			</trkpt>
			<trkpt lat="47.589295" lon="18.895496">
				<ele>420.000000</ele>
			</trkpt>
			<trkpt lat="47.589282" lon="18.895442">
				<ele>420.000000</ele>
			</trkpt>
			<trkpt lat="47.589270" lon="18.895397">
				<ele>420.000000</ele>
			</trkpt>
			<trkpt lat="47.589246" lon="18.895334">
				<ele>420.000000</ele>
			</trkpt>
			<trkpt lat="47.589228" lon="18.895289">
				<ele>420.000000</ele>
			</trkpt>
			<trkpt lat="47.589203" lon="18.895253">
				<ele>420.000000</ele>
			</trkpt>
			<trkpt lat="47.589191" lon="18.895236">
				<ele>420.000000</ele>
			</trkpt>
			<trkpt lat="47.589167" lon="18.895209">
				<ele>420.000000</ele>
			</trkpt>
			<trkpt lat="47.588985" lon="18.895029">
				<ele>420.000000</ele>
			</trkpt>
			<trkpt lat="47.588949" lon="18.895002">
				<ele>420.000000</ele>
			</trkpt>
			<trkpt lat="47.588931" lon="18.894984">
				<ele>420.000000</ele>
			</trkpt>
			<trkpt lat="47.588525" lon="18.894714">
				<ele>417.000000</ele>
			</trkpt>
			<trkpt lat="47.588495" lon="18.894697">
				<ele>417.000000</ele>
			</trkpt>
			<trkpt lat="47.588440" lon="18.894670">
				<ele>416.000000</ele>
			</trkpt>
			<trkpt lat="47.588391" lon="18.894643">
				<ele>416.000000</ele>
			</trkpt>
			<trkpt lat="47.588337" lon="18.894597">
				<ele>415.000000</ele>
			</trkpt>
			<trkpt lat="47.588313" lon="18.894580">
				<ele>415.000000</ele>
			</trkpt>
			<trkpt lat="47.588301" lon="18.894561">
				<ele>415.000000</ele>
			</trkpt>
			<trkpt lat="47.588173" lon="18.894427">
				<ele>414.000000</ele>
			</trkpt>
			<trkpt lat="47.588095" lon="18.894328">
				<ele>413.000000</ele>
			</trkpt>
			<trkpt lat="47.588058" lon="18.894274">
				<ele>412.000000</ele>
			</trkpt>
			<trkpt lat="47.588034" lon="18.894230">
				<ele>412.000000</ele>
			</trkpt>
			<trkpt lat="47.587943" lon="18.894068">
				<ele>411.000000</ele>
			</trkpt>
			<trkpt lat="47.587882" lon="18.893942">
				<ele>410.000000</ele>
			</trkpt>
			<trkpt lat="47.587840" lon="18.893834">
				<ele>409.000000</ele>
			</trkpt>
			<trkpt lat="47.587828" lon="18.893798">
				<ele>409.000000</ele>
			</trkpt>
			<trkpt lat="47.587743" lon="18.893385">
				<ele>408.000000</ele>
			</trkpt>
			<trkpt lat="47.587719" lon="18.893295">
				<ele>407.000000</ele>
			</trkpt>
			<trkpt lat="47.587689" lon="18.893205">
				<ele>407.000000</ele>
			</trkpt>
			<trkpt lat="47.587640" lon="18.893089">
				<ele>406.000000</ele>
			</trkpt>
			<trkpt lat="47.587507" lon="18.892756">
				<ele>405.000000</ele>
			</trkpt>
			<trkpt lat="47.587495" lon="18.892729">
				<ele>405.000000</ele>
			</trkpt>
			<trkpt lat="47.587483" lon="18.892702">
				<ele>405.000000</ele>
			</trkpt>
			<trkpt lat="47.587447" lon="18.892649">
				<ele>405.000000</ele>
			</trkpt>
			<trkpt lat="47.587428" lon="18.892622">
				<ele>404.000000</ele>
			</trkpt>
			<trkpt lat="47.587386" lon="18.892567">
				<ele>404.000000</ele>
			</trkpt>
			<trkpt lat="47.587331" lon="18.892523">
				<ele>404.000000</ele>
			</trkpt>
			<trkpt lat="47.587277" lon="18.892477">
				<ele>403.000000</ele>
			</trkpt>
			<trkpt lat="47.587241" lon="18.892450">
				<ele>403.000000</ele>
			</trkpt>
			<trkpt lat="47.587271" lon="18.892387">
				<ele>403.000000</ele>
			</trkpt>
			<trkpt lat="47.587422" lon="18.892020">
				<ele>405.000000</ele>
			</trkpt>
			<trkpt lat="47.587435" lon="18.892001">
				<ele>405.000000</ele>
			</trkpt>
			<trkpt lat="47.587447" lon="18.891984">
				<ele>405.000000</ele>
			</trkpt>
			<trkpt lat="47.587453" lon="18.891966">
				<ele>405.000000</ele>
			</trkpt>
			<trkpt lat="47.587495" lon="18.891911">
				<ele>405.000000</ele>
			</trkpt>
			<trkpt lat="47.587555" lon="18.891840">
				<ele>406.000000</ele>
			</trkpt>
			<trkpt lat="47.587719" lon="18.891660">
				<ele>407.000000</ele>
			</trkpt>
			<trkpt lat="47.587743" lon="18.891624">
				<ele>407.000000</ele>
			</trkpt>
			<trkpt lat="47.587762" lon="18.891607">
				<ele>407.000000</ele>
			</trkpt>
			<trkpt lat="47.587786" lon="18.891588">
				<ele>407.000000</ele>
			</trkpt>
			<trkpt lat="47.587798" lon="18.891580">
				<ele>408.000000</ele>
			</trkpt>
			<trkpt lat="47.587834" lon="18.891552">
				<ele>408.000000</ele>
			</trkpt>
			<trkpt lat="47.587864" lon="18.891534">
				<ele>408.000000</ele>
			</trkpt>
			<trkpt lat="47.588234" lon="18.891221">
				<ele>410.000000</ele>
			</trkpt>
			<trkpt lat="47.588240" lon="18.891211">
				<ele>410.000000</ele>
			</trkpt>
			<trkpt lat="47.588246" lon="18.891211">
				<ele>410.000000</ele>
			</trkpt>
			<trkpt lat="47.588252" lon="18.891202">
				<ele>411.000000</ele>
			</trkpt>
			<trkpt lat="47.588271" lon="18.891158">
				<ele>411.000000</ele>
			</trkpt>
			<trkpt lat="47.588289" lon="18.891112">
				<ele>411.000000</ele>
			</trkpt>
			<trkpt lat="47.588295" lon="18.891094">
				<ele>411.000000</ele>
			</trkpt>
			<trkpt lat="47.588295" lon="18.891076">
				<ele>411.000000</ele>
			</trkpt>
			<trkpt lat="47.588301" lon="18.891058">
				<ele>411.000000</ele>
			</trkpt>
			<trkpt lat="47.588313" lon="18.890942">
				<ele>412.000000</ele>
			</trkpt>
			<trkpt lat="47.588319" lon="18.890932">
				<ele>412.000000</ele>
			</trkpt>
			<trkpt lat="47.588319" lon="18.890924">
				<ele>412.000000</ele>
			</trkpt>
			<trkpt lat="47.588319" lon="18.890915">
				<ele>412.000000</ele>
			</trkpt>
			<trkpt lat="47.588325" lon="18.890905">
				<ele>412.000000</ele>
			</trkpt>
			<trkpt lat="47.588373" lon="18.890779">
				<ele>413.000000</ele>
			</trkpt>
			<trkpt lat="47.588379" lon="18.890771">
				<ele>413.000000</ele>
			</trkpt>
			<trkpt lat="47.588385" lon="18.890744">
				<ele>414.000000</ele>
			</trkpt>
			<trkpt lat="47.588385" lon="18.890726">
				<ele>414.000000</ele>
			</trkpt>
			<trkpt lat="47.588391" lon="18.890699">
				<ele>414.000000</ele>
			</trkpt>
			<trkpt lat="47.588397" lon="18.890645">
				<ele>414.000000</ele>
			</trkpt>
			<trkpt lat="47.588397" lon="18.890609">
				<ele>414.000000</ele>
			</trkpt>
			<trkpt lat="47.588403" lon="18.890573">
				<ele>415.000000</ele>
			</trkpt>
			<trkpt lat="47.588422" lon="18.890448">
				<ele>415.000000</ele>
			</trkpt>
			<trkpt lat="47.588495" lon="18.890034">
				<ele>418.000000</ele>
			</trkpt>
			<trkpt lat="47.588507" lon="18.889980">
				<ele>418.000000</ele>
			</trkpt>
			<trkpt lat="47.588507" lon="18.889926">
				<ele>419.000000</ele>
			</trkpt>
			<trkpt lat="47.588525" lon="18.889666">
				<ele>420.000000</ele>
			</trkpt>
			<trkpt lat="47.588531" lon="18.889586">
				<ele>420.000000</ele>
			</trkpt>
			<trkpt lat="47.588531" lon="18.889558">
				<ele>420.000000</ele>
			</trkpt>
			<trkpt lat="47.588531" lon="18.889531">
				<ele>420.000000</ele>
			</trkpt>
			<trkpt lat="47.588531" lon="18.889496">
				<ele>420.000000</ele>
			</trkpt>
			<trkpt lat="47.588519" lon="18.889360">
				<ele>420.000000</ele>
			</trkpt>
			<trkpt lat="47.588507" lon="18.889297">
				<ele>420.000000</ele>
			</trkpt>
			<trkpt lat="47.588483" lon="18.889136">
				<ele>420.000000</ele>
			</trkpt>
			<trkpt lat="47.588477" lon="18.889110">
				<ele>420.000000</ele>
			</trkpt>
			<trkpt lat="47.588477" lon="18.889081">
				<ele>420.000000</ele>
			</trkpt>
			<trkpt lat="47.588464" lon="18.888804">
				<ele>420.000000</ele>
			</trkpt>
			<trkpt lat="47.588458" lon="18.888777">
				<ele>420.000000</ele>
			</trkpt>
			<trkpt lat="47.588458" lon="18.888750">
				<ele>420.000000</ele>
			</trkpt>
			<trkpt lat="47.588452" lon="18.888723">
				<ele>420.000000</ele>
			</trkpt>
			<trkpt lat="47.588446" lon="18.888714">
				<ele>420.000000</ele>
			</trkpt>
			<trkpt lat="47.588397" lon="18.888552">
				<ele>420.000000</ele>
			</trkpt>
			<trkpt lat="47.588355" lon="18.888399">
				<ele>420.000000</ele>
			</trkpt>
			<trkpt lat="47.588240" lon="18.888049">
				<ele>420.000000</ele>
			</trkpt>
			<trkpt lat="47.588240" lon="18.888022">
				<ele>420.000000</ele>
			</trkpt>
			<trkpt lat="47.588234" lon="18.887986">
				<ele>420.000000</ele>
			</trkpt>
			<trkpt lat="47.588234" lon="18.887950">
				<ele>420.000000</ele>
			</trkpt>
			<trkpt lat="47.588246" lon="18.887798">
				<ele>420.000000</ele>
			</trkpt>
			<trkpt lat="47.588252" lon="18.887716">
				<ele>420.000000</ele>
			</trkpt>
			<trkpt lat="47.588258" lon="18.887592">
				<ele>420.000000</ele>
			</trkpt>
			<trkpt lat="47.588277" lon="18.887393">
				<ele>420.000000</ele>
			</trkpt>
			<trkpt lat="47.588319" lon="18.886926">
				<ele>420.000000</ele>
			</trkpt>
			<trkpt lat="47.588319" lon="18.886881">
				<ele>420.000000</ele>
			</trkpt>
			<trkpt lat="47.588319" lon="18.886836">
				<ele>420.000000</ele>
			</trkpt>
			<trkpt lat="47.588319" lon="18.886800">
				<ele>420.000000</ele>
			</trkpt>
			<trkpt lat="47.588313" lon="18.886756">
				<ele>420.000000</ele>
			</trkpt>
			<trkpt lat="47.588307" lon="18.886710">
				<ele>420.000000</ele>
			</trkpt>
			<trkpt lat="47.588295" lon="18.886611">
				<ele>420.000000</ele>
			</trkpt>
			<trkpt lat="47.588277" lon="18.886531">
				<ele>421.000000</ele>
			</trkpt>
			<trkpt lat="47.588277" lon="18.886494">
				<ele>421.000000</ele>
			</trkpt>
			<trkpt lat="47.588271" lon="18.886431">
				<ele>421.000000</ele>
			</trkpt>
			<trkpt lat="47.588271" lon="18.886387">
				<ele>422.000000</ele>
			</trkpt>
			<trkpt lat="47.588277" lon="18.886334">
				<ele>422.000000</ele>
			</trkpt>
			<trkpt lat="47.588283" lon="18.886271">
				<ele>422.000000</ele>
			</trkpt>
			<trkpt lat="47.588295" lon="18.886217">
				<ele>423.000000</ele>
			</trkpt>
			<trkpt lat="47.588307" lon="18.886154">
				<ele>423.000000</ele>
			</trkpt>
			<trkpt lat="47.588331" lon="18.886055">
				<ele>424.000000</ele>
			</trkpt>
			<trkpt lat="47.588343" lon="18.886018">
				<ele>424.000000</ele>
			</trkpt>
			<trkpt lat="47.588349" lon="18.885992">
				<ele>424.000000</ele>
			</trkpt>
			<trkpt lat="47.588349" lon="18.885955">
				<ele>425.000000</ele>
			</trkpt>
			<trkpt lat="47.588349" lon="18.885911">
				<ele>425.000000</ele>
			</trkpt>
			<trkpt lat="47.588343" lon="18.885812">
				<ele>426.000000</ele>
			</trkpt>
			<trkpt lat="47.588337" lon="18.885632">
				<ele>427.000000</ele>
			</trkpt>
			<trkpt lat="47.588331" lon="18.885579">
				<ele>427.000000</ele>
			</trkpt>
			<trkpt lat="47.588325" lon="18.885525">
				<ele>427.000000</ele>
			</trkpt>
			<trkpt lat="47.588283" lon="18.885255">
				<ele>429.000000</ele>
			</trkpt>
			<trkpt lat="47.588283" lon="18.885202">
				<ele>430.000000</ele>
			</trkpt>
			<trkpt lat="47.588283" lon="18.885148">
				<ele>430.000000</ele>
			</trkpt>
			<trkpt lat="47.588283" lon="18.884995">
				<ele>431.000000</ele>
			</trkpt>
			<trkpt lat="47.588289" lon="18.884941">
				<ele>431.000000</ele>
			</trkpt>
			<trkpt lat="47.588283" lon="18.884878">
				<ele>432.000000</ele>
			</trkpt>
			<trkpt lat="47.588271" lon="18.884806">
				<ele>432.000000</ele>
			</trkpt>
			<trkpt lat="47.588265" lon="18.884743">
				<ele>432.000000</ele>
			</trkpt>
			<trkpt lat="47.588240" lon="18.884644">
				<ele>433.000000</ele>
			</trkpt>
			<trkpt lat="47.588204" lon="18.884473">
				<ele>434.000000</ele>
			</trkpt>
			<trkpt lat="47.588192" lon="18.884420">
				<ele>434.000000</ele>
			</trkpt>
			<trkpt lat="47.588192" lon="18.884376">
				<ele>435.000000</ele>
			</trkpt>
			<trkpt lat="47.588186" lon="18.884339">
				<ele>435.000000</ele>
			</trkpt>
			<trkpt lat="47.588186" lon="18.884294">
				<ele>435.000000</ele>
			</trkpt>
			<trkpt lat="47.588186" lon="18.884249">
				<ele>435.000000</ele>
			</trkpt>
			<trkpt lat="47.588192" lon="18.884204">
				<ele>436.000000</ele>
			</trkpt>
			<trkpt lat="47.588198" lon="18.884141">
				<ele>436.000000</ele>
			</trkpt>
			<trkpt lat="47.588210" lon="18.884070">
				<ele>436.000000</ele>
			</trkpt>
			<trkpt lat="47.588234" lon="18.883953">
				<ele>437.000000</ele>
			</trkpt>
			<trkpt lat="47.588246" lon="18.883890">
				<ele>438.000000</ele>
			</trkpt>
			<trkpt lat="47.588246" lon="18.883863">
				<ele>438.000000</ele>
			</trkpt>
			<trkpt lat="47.588246" lon="18.883836">
				<ele>438.000000</ele>
			</trkpt>
			<trkpt lat="47.588246" lon="18.883800">
				<ele>438.000000</ele>
			</trkpt>
			<trkpt lat="47.588240" lon="18.883747">
				<ele>438.000000</ele>
			</trkpt>
			<trkpt lat="47.588234" lon="18.883692">
				<ele>439.000000</ele>
			</trkpt>
			<trkpt lat="47.588204" lon="18.883531">
				<ele>440.000000</ele>
			</trkpt>
			<trkpt lat="47.588192" lon="18.883477">
				<ele>440.000000</ele>
			</trkpt>
			<trkpt lat="47.588192" lon="18.883423">
				<ele>441.000000</ele>
			</trkpt>
			<trkpt lat="47.588192" lon="18.883378">
				<ele>441.000000</ele>
			</trkpt>
			<trkpt lat="47.588192" lon="18.883305">
				<ele>442.000000</ele>
			</trkpt>
			<trkpt lat="47.588198" lon="18.883244">
				<ele>443.000000</ele>
			</trkpt>
			<trkpt lat="47.588210" lon="18.883181">
				<ele>444.000000</ele>
			</trkpt>
			<trkpt lat="47.588216" lon="18.883135">
				<ele>444.000000</ele>
			</trkpt>
			<trkpt lat="47.588246" lon="18.883018">
				<ele>446.000000</ele>
			</trkpt>
			<trkpt lat="47.588319" lon="18.882785">
				<ele>449.000000</ele>
			</trkpt>
			<trkpt lat="47.588331" lon="18.882758">
				<ele>449.000000</ele>
			</trkpt>
			<trkpt lat="47.588337" lon="18.882749">
				<ele>449.000000</ele>
			</trkpt>
			<trkpt lat="47.588337" lon="18.882739">
				<ele>449.000000</ele>
			</trkpt>
			<trkpt lat="47.588343" lon="18.882739">
				<ele>449.000000</ele>
			</trkpt>
			<trkpt lat="47.588373" lon="18.882705">
				<ele>450.000000</ele>
			</trkpt>
			<trkpt lat="47.588385" lon="18.882686">
				<ele>450.000000</ele>
			</trkpt>
			<trkpt lat="47.588397" lon="18.882659">
				<ele>451.000000</ele>
			</trkpt>
			<trkpt lat="47.588409" lon="18.882632">
				<ele>451.000000</ele>
			</trkpt>
			<trkpt lat="47.588416" lon="18.882615">
				<ele>451.000000</ele>
			</trkpt>
			<trkpt lat="47.588422" lon="18.882588">
				<ele>452.000000</ele>
			</trkpt>
			<trkpt lat="47.588428" lon="18.882560">
				<ele>452.000000</ele>
			</trkpt>
			<trkpt lat="47.588428" lon="18.882542">
				<ele>452.000000</ele>
			</trkpt>
			<trkpt lat="47.588428" lon="18.882489">
				<ele>453.000000</ele>
			</trkpt>
			<trkpt lat="47.588434" lon="18.882435">
				<ele>454.000000</ele>
			</trkpt>
			<trkpt lat="47.588440" lon="18.882353">
				<ele>454.000000</ele>
			</trkpt>
			<trkpt lat="47.588452" lon="18.882309">
				<ele>455.000000</ele>
			</trkpt>
			<trkpt lat="47.588464" lon="18.882273">
				<ele>455.000000</ele>
			</trkpt>
			<trkpt lat="47.588477" lon="18.882228">
				<ele>456.000000</ele>
			</trkpt>
			<trkpt lat="47.588495" lon="18.882183">
				<ele>457.000000</ele>
			</trkpt>
			<trkpt lat="47.588525" lon="18.882112">
				<ele>458.000000</ele>
			</trkpt>
			<trkpt lat="47.588555" lon="18.882049">
				<ele>458.000000</ele>
			</trkpt>
			<trkpt lat="47.588610" lon="18.881940">
				<ele>460.000000</ele>
			</trkpt>
			<trkpt lat="47.588646" lon="18.881886">
				<ele>461.000000</ele>
			</trkpt>
			<trkpt lat="47.588658" lon="18.881869">
				<ele>462.000000</ele>
			</trkpt>
			<trkpt lat="47.588670" lon="18.881850">
				<ele>462.000000</ele>
			</trkpt>
			<trkpt lat="47.588694" lon="18.881833">
				<ele>463.000000</ele>
			</trkpt>
			<trkpt lat="47.588713" lon="18.881823">
				<ele>463.000000</ele>
			</trkpt>
			<trkpt lat="47.588792" lon="18.881779">
				<ele>465.000000</ele>
			</trkpt>
			<trkpt lat="47.588943" lon="18.881860">
				<ele>468.000000</ele>
			</trkpt>
			<trkpt lat="47.588961" lon="18.881869">
				<ele>469.000000</ele>
			</trkpt>
			<trkpt lat="47.588973" lon="18.881877">
				<ele>469.000000</ele>
			</trkpt>
			<trkpt lat="47.588979" lon="18.881877">
				<ele>469.000000</ele>
			</trkpt>
			<trkpt lat="47.588985" lon="18.881877">
				<ele>469.000000</ele>
			</trkpt>
			<trkpt lat="47.589022" lon="18.881860">
				<ele>470.000000</ele>
			</trkpt>
			<trkpt lat="47.589070" lon="18.881823">
				<ele>471.000000</ele>
			</trkpt>
			<trkpt lat="47.589118" lon="18.881797">
				<ele>472.000000</ele>
			</trkpt>
			<trkpt lat="47.589185" lon="18.881743">
				<ele>473.000000</ele>
			</trkpt>
			<trkpt lat="47.589234" lon="18.881707">
				<ele>474.000000</ele>
			</trkpt>
			<trkpt lat="47.589282" lon="18.881662">
				<ele>474.000000</ele>
			</trkpt>
			<trkpt lat="47.589313" lon="18.881626">
				<ele>475.000000</ele>
			</trkpt>
			<trkpt lat="47.589337" lon="18.881599">
				<ele>475.000000</ele>
			</trkpt>
			<trkpt lat="47.589361" lon="18.881563">
				<ele>476.000000</ele>
			</trkpt>
			<trkpt lat="47.589373" lon="18.881536">
				<ele>476.000000</ele>
			</trkpt>
			<trkpt lat="47.589391" lon="18.881483">
				<ele>477.000000</ele>
			</trkpt>
			<trkpt lat="47.589409" lon="18.881437">
				<ele>477.000000</ele>
			</trkpt>
			<trkpt lat="47.589427" lon="18.881374">
				<ele>478.000000</ele>
			</trkpt>
			<trkpt lat="47.589433" lon="18.881321">
				<ele>479.000000</ele>
			</trkpt>
			<trkpt lat="47.589439" lon="18.881249">
				<ele>479.000000</ele>
			</trkpt>
			<trkpt lat="47.589445" lon="18.881194">
				<ele>480.000000</ele>
			</trkpt>
			<trkpt lat="47.589452" lon="18.881168">
				<ele>480.000000</ele>
			</trkpt>
			<trkpt lat="47.589464" lon="18.881105">
				<ele>481.000000</ele>
			</trkpt>
			<trkpt lat="47.589476" lon="18.881034">
				<ele>482.000000</ele>
			</trkpt>
			<trkpt lat="47.589488" lon="18.880988">
				<ele>482.000000</ele>
			</trkpt>
			<trkpt lat="47.589507" lon="18.880925">
				<ele>483.000000</ele>
			</trkpt>
			<trkpt lat="47.589525" lon="18.880890">
				<ele>483.000000</ele>
			</trkpt>
			<trkpt lat="47.589543" lon="18.880844">
				<ele>484.000000</ele>
			</trkpt>
			<trkpt lat="47.589561" lon="18.880791">
				<ele>485.000000</ele>
			</trkpt>
			<trkpt lat="47.589579" lon="18.880745">
				<ele>485.000000</ele>
			</trkpt>
			<trkpt lat="47.589597" lon="18.880701">
				<ele>486.000000</ele>
			</trkpt>
			<trkpt lat="47.589621" lon="18.880628">
				<ele>487.000000</ele>
			</trkpt>
			<trkpt lat="47.589670" lon="18.880494">
				<ele>488.000000</ele>
			</trkpt>
			<trkpt lat="47.589706" lon="18.880395">
				<ele>490.000000</ele>
			</trkpt>
			<trkpt lat="47.589737" lon="18.880324">
				<ele>490.000000</ele>
			</trkpt>
			<trkpt lat="47.589767" lon="18.880261">
				<ele>491.000000</ele>
			</trkpt>
			<trkpt lat="47.589840" lon="18.880118">
				<ele>492.000000</ele>
			</trkpt>
			<trkpt lat="47.589876" lon="18.880063">
				<ele>493.000000</ele>
			</trkpt>
			<trkpt lat="47.589894" lon="18.880018">
				<ele>493.000000</ele>
			</trkpt>
			<trkpt lat="47.590021" lon="18.879713">
				<ele>496.000000</ele>
			</trkpt>
			<trkpt lat="47.590046" lon="18.879659">
				<ele>497.000000</ele>
			</trkpt>
			<trkpt lat="47.590100" lon="18.879552">
				<ele>498.000000</ele>
			</trkpt>
			<trkpt lat="47.590112" lon="18.879533">
				<ele>498.000000</ele>
			</trkpt>
			<trkpt lat="47.590130" lon="18.879515">
				<ele>498.000000</ele>
			</trkpt>
			<trkpt lat="47.590197" lon="18.879452">
				<ele>499.000000</ele>
			</trkpt>
			<trkpt lat="47.590258" lon="18.879389">
				<ele>500.000000</ele>
			</trkpt>
			<trkpt lat="47.590306" lon="18.879317">
				<ele>500.000000</ele>
			</trkpt>
			<trkpt lat="47.590367" lon="18.879246">
				<ele>501.000000</ele>
			</trkpt>
			<trkpt lat="47.590403" lon="18.879210">
				<ele>501.000000</ele>
			</trkpt>
			<trkpt lat="47.590433" lon="18.879173">
				<ele>502.000000</ele>
			</trkpt>
			<trkpt lat="47.590475" lon="18.879129">
				<ele>502.000000</ele>
			</trkpt>
			<trkpt lat="47.590506" lon="18.879102">
				<ele>502.000000</ele>
			</trkpt>
			<trkpt lat="47.590536" lon="18.879047">
				<ele>502.000000</ele>
			</trkpt>
			<trkpt lat="47.590567" lon="18.878986">
				<ele>503.000000</ele>
			</trkpt>
			<trkpt lat="47.590603" lon="18.878904">
				<ele>503.000000</ele>
			</trkpt>
			<trkpt lat="47.590657" lon="18.878787">
				<ele>504.000000</ele>
			</trkpt>
			<trkpt lat="47.590754" lon="18.878617">
				<ele>505.000000</ele>
			</trkpt>
			<trkpt lat="47.590906" lon="18.878365">
				<ele>507.000000</ele>
			</trkpt>
			<trkpt lat="47.590954" lon="18.878284">
				<ele>507.000000</ele>
			</trkpt>
			<trkpt lat="47.591076" lon="18.878068">
				<ele>508.000000</ele>
			</trkpt>
			<trkpt lat="47.591257" lon="18.877709">
				<ele>510.000000</ele>
			</trkpt>
			<trkpt lat="47.591275" lon="18.877682">
				<ele>510.000000</ele>
			</trkpt>
			<trkpt lat="47.591294" lon="18.877665">
				<ele>510.000000</ele>
			</trkpt>
			<trkpt lat="47.591312" lon="18.877646">
				<ele>510.000000</ele>
			</trkpt>
			<trkpt lat="47.591348" lon="18.877619">
				<ele>510.000000</ele>
			</trkpt>
			<trkpt lat="47.591427" lon="18.877565">
				<ele>510.000000</ele>
			</trkpt>
			<trkpt lat="47.591475" lon="18.877539">
				<ele>510.000000</ele>
			</trkpt>
			<trkpt lat="47.591530" lon="18.877512">
				<ele>510.000000</ele>
			</trkpt>
			<trkpt lat="47.591566" lon="18.877476">
				<ele>510.000000</ele>
			</trkpt>
			<trkpt lat="47.591657" lon="18.877386">
				<ele>510.000000</ele>
			</trkpt>
			<trkpt lat="47.591705" lon="18.877341">
				<ele>510.000000</ele>
			</trkpt>
			<trkpt lat="47.591724" lon="18.877315">
				<ele>510.000000</ele>
			</trkpt>
			<trkpt lat="47.591754" lon="18.877278">
				<ele>510.000000</ele>
			</trkpt>
			<trkpt lat="47.591778" lon="18.877233">
				<ele>510.000000</ele>
			</trkpt>
			<trkpt lat="47.591802" lon="18.877189">
				<ele>510.000000</ele>
			</trkpt>
			<trkpt lat="47.591821" lon="18.877152">
				<ele>510.000000</ele>
			</trkpt>
			<trkpt lat="47.591839" lon="18.877108">
				<ele>510.000000</ele>
			</trkpt>
			<trkpt lat="47.591875" lon="18.877018">
				<ele>510.000000</ele>
			</trkpt>
			<trkpt lat="47.591900" lon="18.876936">
				<ele>510.000000</ele>
			</trkpt>
			<trkpt lat="47.591930" lon="18.876829">
				<ele>510.000000</ele>
			</trkpt>
			<trkpt lat="47.591954" lon="18.876766">
				<ele>510.000000</ele>
			</trkpt>
			<trkpt lat="47.591966" lon="18.876730">
				<ele>510.000000</ele>
			</trkpt>
			<trkpt lat="47.591990" lon="18.876676">
				<ele>510.000000</ele>
			</trkpt>
			<trkpt lat="47.592014" lon="18.876632">
				<ele>510.000000</ele>
			</trkpt>
			<trkpt lat="47.592087" lon="18.876479">
				<ele>510.000000</ele>
			</trkpt>
			<trkpt lat="47.592124" lon="18.876407">
				<ele>510.000000</ele>
			</trkpt>
			<trkpt lat="47.592166" lon="18.876326">
				<ele>510.000000</ele>
			</trkpt>
			<trkpt lat="47.592202" lon="18.876246">
				<ele>510.000000</ele>
			</trkpt>
			<trkpt lat="47.592239" lon="18.876156">
				<ele>510.000000</ele>
			</trkpt>
			<trkpt lat="47.592275" lon="18.876047">
				<ele>510.000000</ele>
			</trkpt>
			<trkpt lat="47.592305" lon="18.875949">
				<ele>510.000000</ele>
			</trkpt>
			<trkpt lat="47.592348" lon="18.875796">
				<ele>510.000000</ele>
			</trkpt>
			<trkpt lat="47.592415" lon="18.875437">
				<ele>510.000000</ele>
			</trkpt>
			<trkpt lat="47.592433" lon="18.875338">
				<ele>510.000000</ele>
			</trkpt>
			<trkpt lat="47.592445" lon="18.875248">
				<ele>510.000000</ele>
			</trkpt>
			<trkpt lat="47.592451" lon="18.875185">
				<ele>510.000000</ele>
			</trkpt>
			<trkpt lat="47.592451" lon="18.875141">
				<ele>510.000000</ele>
			</trkpt>
			<trkpt lat="47.592451" lon="18.874969">
				<ele>510.000000</ele>
			</trkpt>
			<trkpt lat="47.592457" lon="18.874889">
				<ele>510.000000</ele>
			</trkpt>
			<trkpt lat="47.592457" lon="18.874844">
				<ele>510.000000</ele>
			</trkpt>
			<trkpt lat="47.592463" lon="18.874799">
				<ele>510.000000</ele>
			</trkpt>
			<trkpt lat="47.592475" lon="18.874763">
				<ele>510.000000</ele>
			</trkpt>
			<trkpt lat="47.592493" lon="18.874699">
				<ele>510.000000</ele>
			</trkpt>
			<trkpt lat="47.592505" lon="18.874665">
				<ele>510.000000</ele>
			</trkpt>
			<trkpt lat="47.592511" lon="18.874646">
				<ele>510.000000</ele>
			</trkpt>
			<trkpt lat="47.592523" lon="18.874610">
				<ele>510.000000</ele>
			</trkpt>
			<trkpt lat="47.592572" lon="18.874512">
				<ele>510.000000</ele>
			</trkpt>
			<trkpt lat="47.592602" lon="18.874430">
				<ele>510.000000</ele>
			</trkpt>
			<trkpt lat="47.592615" lon="18.874386">
				<ele>510.000000</ele>
			</trkpt>
			<trkpt lat="47.592633" lon="18.874349">
				<ele>510.000000</ele>
			</trkpt>
			<trkpt lat="47.592645" lon="18.874305">
				<ele>510.000000</ele>
			</trkpt>
			<trkpt lat="47.592663" lon="18.874206">
				<ele>510.000000</ele>
			</trkpt>
			<trkpt lat="47.592699" lon="18.874036">
				<ele>510.000000</ele>
			</trkpt>
			<trkpt lat="47.592729" lon="18.873864">
				<ele>510.000000</ele>
			</trkpt>
			<trkpt lat="47.592759" lon="18.873667">
				<ele>510.000000</ele>
			</trkpt>
			<trkpt lat="47.592766" lon="18.873586">
				<ele>510.000000</ele>
			</trkpt>
			<trkpt lat="47.592778" lon="18.873514">
				<ele>510.000000</ele>
			</trkpt>
			<trkpt lat="47.592778" lon="18.873470">
				<ele>510.000000</ele>
			</trkpt>
			<trkpt lat="47.592778" lon="18.873433">
				<ele>510.000000</ele>
			</trkpt>
			<trkpt lat="47.592778" lon="18.873407">
				<ele>510.000000</ele>
			</trkpt>
			<trkpt lat="47.592766" lon="18.873361">
				<ele>510.000000</ele>
			</trkpt>
			<trkpt lat="47.592753" lon="18.873334">
				<ele>510.000000</ele>
			</trkpt>
			<trkpt lat="47.592741" lon="18.873307">
				<ele>510.000000</ele>
			</trkpt>
			<trkpt lat="47.592729" lon="18.873290">
				<ele>510.000000</ele>
			</trkpt>
			<trkpt lat="47.592711" lon="18.873271">
				<ele>510.000000</ele>
			</trkpt>
			<trkpt lat="47.592699" lon="18.873254">
				<ele>510.000000</ele>
			</trkpt>
			<trkpt lat="47.592687" lon="18.873244">
				<ele>510.000000</ele>
			</trkpt>
			<trkpt lat="47.592669" lon="18.873236">
				<ele>510.000000</ele>
			</trkpt>
			<trkpt lat="47.592615" lon="18.873227">
				<ele>510.000000</ele>
			</trkpt>
			<trkpt lat="47.592523" lon="18.873218">
				<ele>510.000000</ele>
			</trkpt>
			<trkpt lat="47.592505" lon="18.873218">
				<ele>510.000000</ele>
			</trkpt>
			<trkpt lat="47.592493" lon="18.873218">
				<ele>510.000000</ele>
			</trkpt>
			<trkpt lat="47.592481" lon="18.873218">
				<ele>510.000000</ele>
			</trkpt>
			<trkpt lat="47.592463" lon="18.873218">
				<ele>510.000000</ele>
			</trkpt>
			<trkpt lat="47.592445" lon="18.873227">
				<ele>510.000000</ele>
			</trkpt>
			<trkpt lat="47.592384" lon="18.873263">
				<ele>510.000000</ele>
			</trkpt>
			<trkpt lat="47.592366" lon="18.873281">
				<ele>510.000000</ele>
			</trkpt>
			<trkpt lat="47.592354" lon="18.873290">
				<ele>510.000000</ele>
			</trkpt>
			<trkpt lat="47.592342" lon="18.873299">
				<ele>510.000000</ele>
			</trkpt>
			<trkpt lat="47.592323" lon="18.873326">
				<ele>510.000000</ele>
			</trkpt>
			<trkpt lat="47.592178" lon="18.873523">
				<ele>511.000000</ele>
			</trkpt>
			<trkpt lat="47.592112" lon="18.873613">
				<ele>512.000000</ele>
			</trkpt>
			<trkpt lat="47.592039" lon="18.873694">
				<ele>513.000000</ele>
			</trkpt>
			<trkpt lat="47.592020" lon="18.873712">
				<ele>513.000000</ele>
			</trkpt>
			<trkpt lat="47.592008" lon="18.873720">
				<ele>513.000000</ele>
			</trkpt>
			<trkpt lat="47.591996" lon="18.873720">
				<ele>513.000000</ele>
			</trkpt>
			<trkpt lat="47.591978" lon="18.873720">
				<ele>514.000000</ele>
			</trkpt>
			<trkpt lat="47.591960" lon="18.873720">
				<ele>514.000000</ele>
			</trkpt>
			<trkpt lat="47.591948" lon="18.873720">
				<ele>514.000000</ele>
			</trkpt>
			<trkpt lat="47.591918" lon="18.873712">
				<ele>514.000000</ele>
			</trkpt>
			<trkpt lat="47.591869" lon="18.873703">
				<ele>515.000000</ele>
			</trkpt>
			<trkpt lat="47.591857" lon="18.873703">
				<ele>515.000000</ele>
			</trkpt>
			<trkpt lat="47.591851" lon="18.873694">
				<ele>515.000000</ele>
			</trkpt>
			<trkpt lat="47.591839" lon="18.873686">
				<ele>515.000000</ele>
			</trkpt>
			<trkpt lat="47.591827" lon="18.873676">
				<ele>515.000000</ele>
			</trkpt>
			<trkpt lat="47.591802" lon="18.873657">
				<ele>516.000000</ele>
			</trkpt>
			<trkpt lat="47.591796" lon="18.873649">
				<ele>516.000000</ele>
			</trkpt>
			<trkpt lat="47.591790" lon="18.873640">
				<ele>516.000000</ele>
			</trkpt>
			<trkpt lat="47.591766" lon="18.873613">
				<ele>516.000000</ele>
			</trkpt>
			<trkpt lat="47.591754" lon="18.873640">
				<ele>517.000000</ele>
			</trkpt>
			<trkpt lat="47.591742" lon="18.873657">
				<ele>517.000000</ele>
			</trkpt>
			<trkpt lat="47.591736" lon="18.873676">
				<ele>517.000000</ele>
			</trkpt>
			<trkpt lat="47.591724" lon="18.873686">
				<ele>517.000000</ele>
			</trkpt>
			<trkpt lat="47.591705" lon="18.873694">
				<ele>517.000000</ele>
			</trkpt>
			<trkpt lat="47.591669" lon="18.873712">
				<ele>518.000000</ele>
			</trkpt>
			<trkpt lat="47.591645" lon="18.873730">
				<ele>518.000000</ele>
			</trkpt>
			<trkpt lat="47.591609" lon="18.873747">
				<ele>519.000000</ele>
			</trkpt>
			<trkpt lat="47.591585" lon="18.873757">
				<ele>519.000000</ele>
			</trkpt>
			<trkpt lat="47.591560" lon="18.873766">
				<ele>519.000000</ele>
			</trkpt>
			<trkpt lat="47.591542" lon="18.873766">
				<ele>519.000000</ele>
			</trkpt>
			<trkpt lat="47.591397" lon="18.873757">
				<ele>521.000000</ele>
			</trkpt>
			<trkpt lat="47.591354" lon="18.873757">
				<ele>522.000000</ele>
			</trkpt>
			<trkpt lat="47.591251" lon="18.873766">
				<ele>524.000000</ele>
			</trkpt>
			<trkpt lat="47.591184" lon="18.873766">
				<ele>525.000000</ele>
			</trkpt>
			<trkpt lat="47.591160" lon="18.873766">
				<ele>526.000000</ele>
			</trkpt>
			<trkpt lat="47.591136" lon="18.873757">
				<ele>526.000000</ele>
			</trkpt>
			<trkpt lat="47.591100" lon="18.873766">
				<ele>527.000000</ele>
			</trkpt>
			<trkpt lat="47.591039" lon="18.873783">
				<ele>528.000000</ele>
			</trkpt>
			<trkpt lat="47.590990" lon="18.873802">
				<ele>529.000000</ele>
			</trkpt>
			<trkpt lat="47.590924" lon="18.873747">
				<ele>530.000000</ele>
			</trkpt>
			<trkpt lat="47.590876" lon="18.873712">
				<ele>530.000000</ele>
			</trkpt>
			<trkpt lat="47.590852" lon="18.873703">
				<ele>531.000000</ele>
			</trkpt>
			<trkpt lat="47.590809" lon="18.873686">
				<ele>531.000000</ele>
			</trkpt>
			<trkpt lat="47.590766" lon="18.873667">
				<ele>531.000000</ele>
			</trkpt>
			<trkpt lat="47.590742" lon="18.873657">
				<ele>531.000000</ele>
			</trkpt>
			<trkpt lat="47.590706" lon="18.873631">
				<ele>532.000000</ele>
			</trkpt>
			<trkpt lat="47.590682" lon="18.873613">
				<ele>532.000000</ele>
			</trkpt>
			<trkpt lat="47.590657" lon="18.873586">
				<ele>532.000000</ele>
			</trkpt>
			<trkpt lat="47.590633" lon="18.873560">
				<ele>532.000000</ele>
			</trkpt>
			<trkpt lat="47.590585" lon="18.873497">
				<ele>533.000000</ele>
			</trkpt>
			<trkpt lat="47.590555" lon="18.873443">
				<ele>533.000000</ele>
			</trkpt>
			<trkpt lat="47.590518" lon="18.873353">
				<ele>534.000000</ele>
			</trkpt>
			<trkpt lat="47.590500" lon="18.873307">
				<ele>534.000000</ele>
			</trkpt>
			<trkpt lat="47.590488" lon="18.873254">
				<ele>534.000000</ele>
			</trkpt>
			<trkpt lat="47.590475" lon="18.873200">
				<ele>535.000000</ele>
			</trkpt>
			<trkpt lat="47.590469" lon="18.873110">
				<ele>535.000000</ele>
			</trkpt>
			<trkpt lat="47.590469" lon="18.873065">
				<ele>535.000000</ele>
			</trkpt>
			<trkpt lat="47.590469" lon="18.873011">
				<ele>535.000000</ele>
			</trkpt>
			<trkpt lat="47.590469" lon="18.872957">
				<ele>536.000000</ele>
			</trkpt>
			<trkpt lat="47.590488" lon="18.872868">
				<ele>536.000000</ele>
			</trkpt>
			<trkpt lat="47.590488" lon="18.872822">
				<ele>536.000000</ele>
			</trkpt>
			<trkpt lat="47.590488" lon="18.872787">
				<ele>537.000000</ele>
			</trkpt>
			<trkpt lat="47.590488" lon="18.872724">
				<ele>537.000000</ele>
			</trkpt>
			<trkpt lat="47.590481" lon="18.872670">
				<ele>537.000000</ele>
			</trkpt>
			<trkpt lat="47.590469" lon="18.872615">
				<ele>537.000000</ele>
			</trkpt>
			<trkpt lat="47.590457" lon="18.872554">
				<ele>538.000000</ele>
			</trkpt>
			<trkpt lat="47.590439" lon="18.872445">
				<ele>538.000000</ele>
			</trkpt>
			<trkpt lat="47.590445" lon="18.872418">
				<ele>539.000000</ele>
			</trkpt>
			<trkpt lat="47.590451" lon="18.872365">
				<ele>539.000000</ele>
			</trkpt>
			<trkpt lat="47.590475" lon="18.872239">
				<ele>539.000000</ele>
			</trkpt>
			<trkpt lat="47.590524" lon="18.872068">
				<ele>540.000000</ele>
			</trkpt>
			<trkpt lat="47.590621" lon="18.871673">
				<ele>540.000000</ele>
			</trkpt>
			<trkpt lat="47.590481" lon="18.871573">
				<ele>540.000000</ele>
			</trkpt>
			<trkpt lat="47.590379" lon="18.871493">
				<ele>540.000000</ele>
			</trkpt>
			<trkpt lat="47.590264" lon="18.871403">
				<ele>540.000000</ele>
			</trkpt>
			<trkpt lat="47.589960" lon="18.871133">
				<ele>537.000000</ele>
			</trkpt>
			<trkpt lat="47.589888" lon="18.871036">
				<ele>535.000000</ele>
			</trkpt>
			<trkpt lat="47.589809" lon="18.870954">
				<ele>534.000000</ele>
			</trkpt>
			<trkpt lat="47.589658" lon="18.870820">
				<ele>532.000000</ele>
			</trkpt>
			<trkpt lat="47.589513" lon="18.870720">
				<ele>530.000000</ele>
			</trkpt>
			<trkpt lat="47.588992" lon="18.870470">
				<ele>520.000000</ele>
			</trkpt>
			<trkpt lat="47.588834" lon="18.870352">
				<ele>520.000000</ele>
			</trkpt>
			<trkpt lat="47.588828" lon="18.870344">
				<ele>520.000000</ele>
			</trkpt>
			<trkpt lat="47.588822" lon="18.870334">
				<ele>520.000000</ele>
			</trkpt>
			<trkpt lat="47.588816" lon="18.870317">
				<ele>520.000000</ele>
			</trkpt>
			<trkpt lat="47.588810" lon="18.870307">
				<ele>520.000000</ele>
			</trkpt>
			<trkpt lat="47.588810" lon="18.870290">
				<ele>520.000000</ele>
			</trkpt>
			<trkpt lat="47.588810" lon="18.870254">
				<ele>520.000000</ele>
			</trkpt>
			<trkpt lat="47.588816" lon="18.870172">
				<ele>520.000000</ele>
			</trkpt>
			<trkpt lat="47.588852" lon="18.870091">
				<ele>520.000000</ele>
			</trkpt>
			<trkpt lat="47.588876" lon="18.870028">
				<ele>520.000000</ele>
			</trkpt>
			<trkpt lat="47.588912" lon="18.869975">
				<ele>520.000000</ele>
			</trkpt>
			<trkpt lat="47.588967" lon="18.869885">
				<ele>520.000000</ele>
			</trkpt>
			<trkpt lat="47.589028" lon="18.869804">
				<ele>520.000000</ele>
			</trkpt>
			<trkpt lat="47.589076" lon="18.869751">
				<ele>520.000000</ele>
			</trkpt>
			<trkpt lat="47.589149" lon="18.869678">
				<ele>520.000000</ele>
			</trkpt>
			<trkpt lat="47.589173" lon="18.869661">
				<ele>520.000000</ele>
			</trkpt>
			<trkpt lat="47.589258" lon="18.869606">
				<ele>520.000000</ele>
			</trkpt>
			<trkpt lat="47.589307" lon="18.869562">
				<ele>520.000000</ele>
			</trkpt>
			<trkpt lat="47.589355" lon="18.869517">
				<ele>520.000000</ele>
			</trkpt>
			<trkpt lat="47.589397" lon="18.869462">
				<ele>520.000000</ele>
			</trkpt>
			<trkpt lat="47.589421" lon="18.869428">
				<ele>520.000000</ele>
			</trkpt>
			<trkpt lat="47.589445" lon="18.869382">
				<ele>520.000000</ele>
			</trkpt>
			<trkpt lat="47.589464" lon="18.869338">
				<ele>520.000000</ele>
			</trkpt>
			<trkpt lat="47.589476" lon="18.869292">
				<ele>520.000000</ele>
			</trkpt>
			<trkpt lat="47.589488" lon="18.869248">
				<ele>520.000000</ele>
			</trkpt>
			<trkpt lat="47.589507" lon="18.869175">
				<ele>520.000000</ele>
			</trkpt>
			<trkpt lat="47.589513" lon="18.869122">
				<ele>520.000000</ele>
			</trkpt>
			<trkpt lat="47.589519" lon="18.869040">
				<ele>520.000000</ele>
			</trkpt>
			<trkpt lat="47.589519" lon="18.868897">
				<ele>520.000000</ele>
			</trkpt>
			<trkpt lat="47.589519" lon="18.868789">
				<ele>520.000000</ele>
			</trkpt>
			<trkpt lat="47.589525" lon="18.868619">
				<ele>518.000000</ele>
			</trkpt>
			<trkpt lat="47.589537" lon="18.868475">
				<ele>517.000000</ele>
			</trkpt>
			<trkpt lat="47.589543" lon="18.868367">
				<ele>516.000000</ele>
			</trkpt>
			<trkpt lat="47.589543" lon="18.868250">
				<ele>515.000000</ele>
			</trkpt>
			<trkpt lat="47.589537" lon="18.868170">
				<ele>514.000000</ele>
			</trkpt>
			<trkpt lat="47.589476" lon="18.867612">
				<ele>510.000000</ele>
			</trkpt>
			<trkpt lat="47.589464" lon="18.867468">
				<ele>510.000000</ele>
			</trkpt>
			<trkpt lat="47.589464" lon="18.867388">
				<ele>510.000000</ele>
			</trkpt>
			<trkpt lat="47.589470" lon="18.867307">
				<ele>510.000000</ele>
			</trkpt>
			<trkpt lat="47.589482" lon="18.867208">
				<ele>510.000000</ele>
			</trkpt>
			<trkpt lat="47.589500" lon="18.867082">
				<ele>510.000000</ele>
			</trkpt>
			<trkpt lat="47.589567" lon="18.866804">
				<ele>510.000000</ele>
			</trkpt>
			<trkpt lat="47.589591" lon="18.866705">
				<ele>510.000000</ele>
			</trkpt>
			<trkpt lat="47.589609" lon="18.866588">
				<ele>510.000000</ele>
			</trkpt>
			<trkpt lat="47.589633" lon="18.866426">
				<ele>510.000000</ele>
			</trkpt>
			<trkpt lat="47.589646" lon="18.866319">
				<ele>510.000000</ele>
			</trkpt>
			<trkpt lat="47.589652" lon="18.866193">
				<ele>510.000000</ele>
			</trkpt>
			<trkpt lat="47.589652" lon="18.865923">
				<ele>510.000000</ele>
			</trkpt>
			<trkpt lat="47.589652" lon="18.865816">
				<ele>510.000000</ele>
			</trkpt>
			<trkpt lat="47.589664" lon="18.865717">
				<ele>510.000000</ele>
			</trkpt>
			<trkpt lat="47.589676" lon="18.865609">
				<ele>510.000000</ele>
			</trkpt>
			<trkpt lat="47.589694" lon="18.865528">
				<ele>510.000000</ele>
			</trkpt>
			<trkpt lat="47.589706" lon="18.865457">
				<ele>510.000000</ele>
			</trkpt>
			<trkpt lat="47.589749" lon="18.865313">
				<ele>510.000000</ele>
			</trkpt>
			<trkpt lat="47.589767" lon="18.865241">
				<ele>510.000000</ele>
			</trkpt>
			<trkpt lat="47.589779" lon="18.865187">
				<ele>510.000000</ele>
			</trkpt>
			<trkpt lat="47.589785" lon="18.865133">
				<ele>510.000000</ele>
			</trkpt>
			<trkpt lat="47.589791" lon="18.865070">
				<ele>510.000000</ele>
			</trkpt>
			<trkpt lat="47.589797" lon="18.865017">
				<ele>510.000000</ele>
			</trkpt>
			<trkpt lat="47.589834" lon="18.864845">
				<ele>510.000000</ele>
			</trkpt>
			<trkpt lat="47.589840" lon="18.864791">
				<ele>510.000000</ele>
			</trkpt>
			<trkpt lat="47.589846" lon="18.864738">
				<ele>510.000000</ele>
			</trkpt>
			<trkpt lat="47.589840" lon="18.864342">
				<ele>510.000000</ele>
			</trkpt>
			<trkpt lat="47.589846" lon="18.864271">
				<ele>510.000000</ele>
			</trkpt>
			<trkpt lat="47.589846" lon="18.864216">
				<ele>510.000000</ele>
			</trkpt>
			<trkpt lat="47.589858" lon="18.864181">
				<ele>510.000000</ele>
			</trkpt>
			<trkpt lat="47.589864" lon="18.864128">
				<ele>510.000000</ele>
			</trkpt>
			<trkpt lat="47.589870" lon="18.864055">
				<ele>510.000000</ele>
			</trkpt>
			<trkpt lat="47.589876" lon="18.864028">
				<ele>510.000000</ele>
			</trkpt>
			<trkpt lat="47.589882" lon="18.864001">
				<ele>510.000000</ele>
			</trkpt>
			<trkpt lat="47.589888" lon="18.863983">
				<ele>510.000000</ele>
			</trkpt>
			<trkpt lat="47.589888" lon="18.863983">
				<ele>510.000000</ele>
			</trkpt>
			<trkpt lat="47.589888" lon="18.863983">
				<ele>510.000000</ele>
			</trkpt>
			<trkpt lat="47.589900" lon="18.863956">
				<ele>510.000000</ele>
			</trkpt>
			<trkpt lat="47.589918" lon="18.863920">
				<ele>510.000000</ele>
			</trkpt>
			<trkpt lat="47.589942" lon="18.863875">
				<ele>510.000000</ele>
			</trkpt>
			<trkpt lat="47.589979" lon="18.863830">
				<ele>510.000000</ele>
			</trkpt>
			<trkpt lat="47.590009" lon="18.863795">
				<ele>510.000000</ele>
			</trkpt>
			<trkpt lat="47.590106" lon="18.863686">
				<ele>510.000000</ele>
			</trkpt>
			<trkpt lat="47.590118" lon="18.863669">
				<ele>510.000000</ele>
			</trkpt>
			<trkpt lat="47.590124" lon="18.863651">
				<ele>510.000000</ele>
			</trkpt>
			<trkpt lat="47.590136" lon="18.863633">
				<ele>510.000000</ele>
			</trkpt>
			<trkpt lat="47.590161" lon="18.863543">
				<ele>510.000000</ele>
			</trkpt>
			<trkpt lat="47.590191" lon="18.863436">
				<ele>510.000000</ele>
			</trkpt>
			<trkpt lat="47.590227" lon="18.863292">
				<ele>510.000000</ele>
			</trkpt>
			<trkpt lat="47.590239" lon="18.863246">
				<ele>510.000000</ele>
			</trkpt>
			<trkpt lat="47.590270" lon="18.863166">
				<ele>510.000000</ele>
			</trkpt>
			<trkpt lat="47.590294" lon="18.863067">
				<ele>510.000000</ele>
			</trkpt>
			<trkpt lat="47.590361" lon="18.862797">
				<ele>510.000000</ele>
			</trkpt>
			<trkpt lat="47.590385" lon="18.862671">
				<ele>510.000000</ele>
			</trkpt>
			<trkpt lat="47.590391" lon="18.862600">
				<ele>510.000000</ele>
			</trkpt>
			<trkpt lat="47.590397" lon="18.862546">
				<ele>510.000000</ele>
			</trkpt>
			<trkpt lat="47.590391" lon="18.862411">
				<ele>510.000000</ele>
			</trkpt>
			<trkpt lat="47.590385" lon="18.862340">
				<ele>510.000000</ele>
			</trkpt>
			<trkpt lat="47.590385" lon="18.862267">
				<ele>510.000000</ele>
			</trkpt>
			<trkpt lat="47.590391" lon="18.862195">
				<ele>510.000000</ele>
			</trkpt>
			<trkpt lat="47.590397" lon="18.862132">
				<ele>510.000000</ele>
			</trkpt>
			<trkpt lat="47.590409" lon="18.862025">
				<ele>510.000000</ele>
			</trkpt>
			<trkpt lat="47.590421" lon="18.861954">
				<ele>510.000000</ele>
			</trkpt>
			<trkpt lat="47.590427" lon="18.861899">
				<ele>510.000000</ele>
			</trkpt>
			<trkpt lat="47.590427" lon="18.861836">
				<ele>510.000000</ele>
			</trkpt>
			<trkpt lat="47.590427" lon="18.861774">
				<ele>510.000000</ele>
			</trkpt>
			<trkpt lat="47.590415" lon="18.861675">
				<ele>510.000000</ele>
			</trkpt>
			<trkpt lat="47.590391" lon="18.861522">
				<ele>510.000000</ele>
			</trkpt>
			<trkpt lat="47.590379" lon="18.861449">
				<ele>510.000000</ele>
			</trkpt>
			<trkpt lat="47.590367" lon="18.861405">
				<ele>510.000000</ele>
			</trkpt>
			<trkpt lat="47.590343" lon="18.861333">
				<ele>510.000000</ele>
			</trkpt>
			<trkpt lat="47.590306" lon="18.861262">
				<ele>510.000000</ele>
			</trkpt>
			<trkpt lat="47.590239" lon="18.861145">
				<ele>510.000000</ele>
			</trkpt>
			<trkpt lat="47.590215" lon="18.861109">
				<ele>510.000000</ele>
			</trkpt>
			<trkpt lat="47.590203" lon="18.861073">
				<ele>510.000000</ele>
			</trkpt>
			<trkpt lat="47.590173" lon="18.861000">
				<ele>510.000000</ele>
			</trkpt>
			<trkpt lat="47.590136" lon="18.860912">
				<ele>510.000000</ele>
			</trkpt>
			<trkpt lat="47.590118" lon="18.860857">
				<ele>510.000000</ele>
			</trkpt>
			<trkpt lat="47.590100" lon="18.860767">
				<ele>510.000000</ele>
			</trkpt>
			<trkpt lat="47.590058" lon="18.860587">
				<ele>510.000000</ele>
			</trkpt>
			<trkpt lat="47.590028" lon="18.860417">
				<ele>510.000000</ele>
			</trkpt>
			<trkpt lat="47.590203" lon="18.860246">
				<ele>510.000000</ele>
			</trkpt>
			<trkpt lat="47.590312" lon="18.860048">
				<ele>510.000000</ele>
			</trkpt>
			<trkpt lat="47.590421" lon="18.859841">
				<ele>510.000000</ele>
			</trkpt>
			<trkpt lat="47.590627" lon="18.859600">
				<ele>510.000000</ele>
			</trkpt>
			<trkpt lat="47.590852" lon="18.859186">
				<ele>510.000000</ele>
			</trkpt>
			<trkpt lat="47.591645" lon="18.857937">
				<ele>504.000000</ele>
			</trkpt>
			<trkpt lat="47.591724" lon="18.857757">
				<ele>502.000000</ele>
			</trkpt>
			<trkpt lat="47.591839" lon="18.857371">
				<ele>499.000000</ele>
			</trkpt>
			<trkpt lat="47.591887" lon="18.857273">
				<ele>498.000000</ele>
			</trkpt>
			<trkpt lat="47.591972" lon="18.857130">
				<ele>497.000000</ele>
			</trkpt>
			<trkpt lat="47.592202" lon="18.856851">
				<ele>494.000000</ele>
			</trkpt>
			<trkpt lat="47.592311" lon="18.856725">
				<ele>493.000000</ele>
			</trkpt>
			<trkpt lat="47.592590" lon="18.856501">
				<ele>489.000000</ele>
			</trkpt>
			<trkpt lat="47.592984" lon="18.856231">
				<ele>485.000000</ele>
			</trkpt>
			<trkpt lat="47.593644" lon="18.855665">
				<ele>478.000000</ele>
			</trkpt>
			<trkpt lat="47.593765" lon="18.855512">
				<ele>476.000000</ele>
			</trkpt>
			<trkpt lat="47.594032" lon="18.855117">
				<ele>472.000000</ele>
			</trkpt>
			<trkpt lat="47.594328" lon="18.854838">
				<ele>468.000000</ele>
			</trkpt>
			<trkpt lat="47.594583" lon="18.854776">
				<ele>464.000000</ele>
			</trkpt>
			<trkpt lat="47.595050" lon="18.854704">
				<ele>456.000000</ele>
			</trkpt>
			<trkpt lat="47.595171" lon="18.854623">
				<ele>454.000000</ele>
			</trkpt>
			<trkpt lat="47.595238" lon="18.854541">
				<ele>453.000000</ele>
			</trkpt>
			<trkpt lat="47.595716" lon="18.853788">
				<ele>447.000000</ele>
			</trkpt>
			<trkpt lat="47.595959" lon="18.853230">
				<ele>445.000000</ele>
			</trkpt>
			<trkpt lat="47.596146" lon="18.853006">
				<ele>444.000000</ele>
			</trkpt>
			<trkpt lat="47.596267" lon="18.855413">
				<ele>434.000000</ele>
			</trkpt>
			<trkpt lat="47.596237" lon="18.856625">
				<ele>430.000000</ele>
			</trkpt>
			<trkpt lat="47.596322" lon="18.857264">
				<ele>430.000000</ele>
			</trkpt>
			<trkpt lat="47.596298" lon="18.857937">
				<ele>430.000000</ele>
			</trkpt>
			<trkpt lat="47.596316" lon="18.858549">
				<ele>430.000000</ele>
			</trkpt>
			<trkpt lat="47.596273" lon="18.859105">
				<ele>430.000000</ele>
			</trkpt>
			<trkpt lat="47.596279" lon="18.860193">
				<ele>428.000000</ele>
			</trkpt>
			<trkpt lat="47.596310" lon="18.860489">
				<ele>426.000000</ele>
			</trkpt>
			<trkpt lat="47.596388" lon="18.860875">
				<ele>424.000000</ele>
			</trkpt>
			<trkpt lat="47.596449" lon="18.861118">
				<ele>422.000000</ele>
			</trkpt>
			<trkpt lat="47.596594" lon="18.861153">
				<ele>421.000000</ele>
			</trkpt>
			<trkpt lat="47.596728" lon="18.861243">
				<ele>420.000000</ele>
			</trkpt>
			<trkpt lat="47.596885" lon="18.861270">
				<ele>419.000000</ele>
			</trkpt>
			<trkpt lat="47.596958" lon="18.861145">
				<ele>418.000000</ele>
			</trkpt>
			<trkpt lat="47.597079" lon="18.860732">
				<ele>415.000000</ele>
			</trkpt>
			<trkpt lat="47.597115" lon="18.860516">
				<ele>414.000000</ele>
			</trkpt>
			<trkpt lat="47.597139" lon="18.860291">
				<ele>412.000000</ele>
			</trkpt>
			<trkpt lat="47.597164" lon="18.860174">
				<ele>412.000000</ele>
			</trkpt>
			<trkpt lat="47.597279" lon="18.860013">
				<ele>410.000000</ele>
			</trkpt>
			<trkpt lat="47.597642" lon="18.859770">
				<ele>403.000000</ele>
			</trkpt>
			<trkpt lat="47.597927" lon="18.859365">
				<ele>398.000000</ele>
			</trkpt>
			<trkpt lat="47.598000" lon="18.859304">
				<ele>397.000000</ele>
			</trkpt>
			<trkpt lat="47.598091" lon="18.859231">
				<ele>396.000000</ele>
			</trkpt>
			<trkpt lat="47.598133" lon="18.859124">
				<ele>395.000000</ele>
			</trkpt>
			<trkpt lat="47.598115" lon="18.858916">
				<ele>393.000000</ele>
			</trkpt>
			<trkpt lat="47.598115" lon="18.858665">
				<ele>392.000000</ele>
			</trkpt>
			<trkpt lat="47.598151" lon="18.858522">
				<ele>391.000000</ele>
			</trkpt>
			<trkpt lat="47.598224" lon="18.858386">
				<ele>389.000000</ele>
			</trkpt>
			<trkpt lat="47.598309" lon="18.858207">
				<ele>388.000000</ele>
			</trkpt>
			<trkpt lat="47.598424" lon="18.858000">
				<ele>387.000000</ele>
			</trkpt>
			<trkpt lat="47.598660" lon="18.857201">
				<ele>382.000000</ele>
			</trkpt>
			<trkpt lat="47.598830" lon="18.856464">
				<ele>378.000000</ele>
			</trkpt>
			<trkpt lat="47.598969" lon="18.856132">
				<ele>376.000000</ele>
			</trkpt>
			<trkpt lat="47.599102" lon="18.855889">
				<ele>374.000000</ele>
			</trkpt>
			<trkpt lat="47.599381" lon="18.855512">
				<ele>371.000000</ele>
			</trkpt>
			<trkpt lat="47.599521" lon="18.855279">
				<ele>370.000000</ele>
			</trkpt>
			<trkpt lat="47.599587" lon="18.855126">
				<ele>369.000000</ele>
			</trkpt>
			<trkpt lat="47.599647" lon="18.854910">
				<ele>368.000000</ele>
			</trkpt>
			<trkpt lat="47.599659" lon="18.854704">
				<ele>367.000000</ele>
			</trkpt>
			<trkpt lat="47.599726" lon="18.854568">
				<ele>367.000000</ele>
			</trkpt>
			<trkpt lat="47.599805" lon="18.854524">
				<ele>366.000000</ele>
			</trkpt>
			<trkpt lat="47.599908" lon="18.854533">
				<ele>366.000000</ele>
			</trkpt>
			<trkpt lat="47.600096" lon="18.854578">
				<ele>364.000000</ele>
			</trkpt>
			<trkpt lat="47.600278" lon="18.854623">
				<ele>363.000000</ele>
			</trkpt>
			<trkpt lat="47.600483" lon="18.854614">
				<ele>362.000000</ele>
			</trkpt>
			<trkpt lat="47.600695" lon="18.854578">
				<ele>361.000000</ele>
			</trkpt>
			<trkpt lat="47.601107" lon="18.854451">
				<ele>357.000000</ele>
			</trkpt>
			<trkpt lat="47.601319" lon="18.854417">
				<ele>354.000000</ele>
			</trkpt>
			<trkpt lat="47.601568" lon="18.854524">
				<ele>350.000000</ele>
			</trkpt>
			<trkpt lat="47.601682" lon="18.854497">
				<ele>350.000000</ele>
			</trkpt>
			<trkpt lat="47.601774" lon="18.854417">
				<ele>349.000000</ele>
			</trkpt>
			<trkpt lat="47.601852" lon="18.854254">
				<ele>348.000000</ele>
			</trkpt>
			<trkpt lat="47.601949" lon="18.854021">
				<ele>347.000000</ele>
			</trkpt>
			<trkpt lat="47.602482" lon="18.853212">
				<ele>343.000000</ele>
			</trkpt>
			<trkpt lat="47.602803" lon="18.852673">
				<ele>340.000000</ele>
			</trkpt>
			<trkpt lat="47.602942" lon="18.852333">
				<ele>337.000000</ele>
			</trkpt>
			<trkpt lat="47.603112" lon="18.852027">
				<ele>334.000000</ele>
			</trkpt>
			<trkpt lat="47.603833" lon="18.850652">
				<ele>324.000000</ele>
			</trkpt>
			<trkpt lat="47.604475" lon="18.849619">
				<ele>318.000000</ele>
			</trkpt>
			<trkpt lat="47.604754" lon="18.848937">
				<ele>314.000000</ele>
			</trkpt>
			<trkpt lat="47.605650" lon="18.847400">
				<ele>305.000000</ele>
			</trkpt>
			<trkpt lat="47.605741" lon="18.847140">
				<ele>304.000000</ele>
			</trkpt>
			<trkpt lat="47.605856" lon="18.846448">
				<ele>301.000000</ele>
			</trkpt>
			<trkpt lat="47.605916" lon="18.846224">
				<ele>300.000000</ele>
			</trkpt>
			<trkpt lat="47.606577" lon="18.844885">
				<ele>294.000000</ele>
			</trkpt>
			<trkpt lat="47.606982" lon="18.844337">
				<ele>291.000000</ele>
			</trkpt>
			<trkpt lat="47.608430" lon="18.842199">
				<ele>280.000000</ele>
			</trkpt>
			<trkpt lat="47.609393" lon="18.840905">
				<ele>275.000000</ele>
			</trkpt>
			<trkpt lat="47.609787" lon="18.840358">
				<ele>273.000000</ele>
			</trkpt>
			<trkpt lat="47.609932" lon="18.840196">
				<ele>273.000000</ele>
			</trkpt>
			<trkpt lat="47.610326" lon="18.839567">
				<ele>270.000000</ele>
			</trkpt>
			<trkpt lat="47.610828" lon="18.838840">
				<ele>267.000000</ele>
			</trkpt>
			<trkpt lat="47.611058" lon="18.838372">
				<ele>265.000000</ele>
			</trkpt>
			<trkpt lat="47.611204" lon="18.837959">
				<ele>264.000000</ele>
			</trkpt>
			<trkpt lat="47.611700" lon="18.836486">
				<ele>258.000000</ele>
			</trkpt>
			<trkpt lat="47.611882" lon="18.835821">
				<ele>255.000000</ele>
			</trkpt>
			<trkpt lat="47.612021" lon="18.835201">
				<ele>253.000000</ele>
			</trkpt>
			<trkpt lat="47.612336" lon="18.834069">
				<ele>249.000000</ele>
			</trkpt>
			<trkpt lat="47.612409" lon="18.833890">
				<ele>248.000000</ele>
			</trkpt>
			<trkpt lat="47.612518" lon="18.833710">
				<ele>248.000000</ele>
			</trkpt>
			<trkpt lat="47.613257" lon="18.832641">
				<ele>243.000000</ele>
			</trkpt>
			<trkpt lat="47.613547" lon="18.832425">
				<ele>242.000000</ele>
			</trkpt>
			<trkpt lat="47.613759" lon="18.832318">
				<ele>241.000000</ele>
			</trkpt>
			<trkpt lat="47.613892" lon="18.832264">
				<ele>240.000000</ele>
			</trkpt>
			<trkpt lat="47.614080" lon="18.832174">
				<ele>240.000000</ele>
			</trkpt>
			<trkpt lat="47.614516" lon="18.831985">
				<ele>239.000000</ele>
			</trkpt>
			<trkpt lat="47.615631" lon="18.831437">
				<ele>237.000000</ele>
			</trkpt>
			<trkpt lat="47.615939" lon="18.831312">
				<ele>236.000000</ele>
			</trkpt>
			<trkpt lat="47.616315" lon="18.831222">
				<ele>235.000000</ele>
			</trkpt>
			<trkpt lat="47.616466" lon="18.831213">
				<ele>235.000000</ele>
			</trkpt>
			<trkpt lat="47.616593" lon="18.831203">
				<ele>235.000000</ele>
			</trkpt>
			<trkpt lat="47.616738" lon="18.831240">
				<ele>234.000000</ele>
			</trkpt>
			<trkpt lat="47.616890" lon="18.831284">
				<ele>234.000000</ele>
			</trkpt>
			<trkpt lat="47.617713" lon="18.831643">
				<ele>232.000000</ele>
			</trkpt>
			<trkpt lat="47.618222" lon="18.831850">
				<ele>231.000000</ele>
			</trkpt>
			<trkpt lat="47.618343" lon="18.831905">
				<ele>231.000000</ele>
			</trkpt>
			<trkpt lat="47.618440" lon="18.831976">
				<ele>231.000000</ele>
			</trkpt>
			<trkpt lat="47.618501" lon="18.832012">
				<ele>231.000000</ele>
			</trkpt>
			<trkpt lat="47.618568" lon="18.832066">
				<ele>230.000000</ele>
			</trkpt>
			<trkpt lat="47.618634" lon="18.832146">
				<ele>230.000000</ele>
			</trkpt>
			<trkpt lat="47.618718" lon="18.832291">
				<ele>230.000000</ele>
			</trkpt>
			<trkpt lat="47.618767" lon="18.832398">
				<ele>230.000000</ele>
			</trkpt>
			<trkpt lat="47.618822" lon="18.832569">
				<ele>230.000000</ele>
			</trkpt>
			<trkpt lat="47.618985" lon="18.833144">
				<ele>230.000000</ele>
			</trkpt>
			<trkpt lat="47.619094" lon="18.833557">
				<ele>230.000000</ele>
			</trkpt>
			<trkpt lat="47.619336" lon="18.834312">
				<ele>230.000000</ele>
			</trkpt>
			<trkpt lat="47.619373" lon="18.834419">
				<ele>230.000000</ele>
			</trkpt>
			<trkpt lat="47.619415" lon="18.834500">
				<ele>230.000000</ele>
			</trkpt>
			<trkpt lat="47.619463" lon="18.834555">
				<ele>230.000000</ele>
			</trkpt>
			<trkpt lat="47.619518" lon="18.834590">
				<ele>230.000000</ele>
			</trkpt>
			<trkpt lat="47.619573" lon="18.834618">
				<ele>231.000000</ele>
			</trkpt>
			<trkpt lat="47.619705" lon="18.834645">
				<ele>231.000000</ele>
			</trkpt>
			<trkpt lat="47.619851" lon="18.834662">
				<ele>231.000000</ele>
			</trkpt>
			<trkpt lat="47.619978" lon="18.834689">
				<ele>231.000000</ele>
			</trkpt>
			<trkpt lat="47.620081" lon="18.834735">
				<ele>232.000000</ele>
			</trkpt>
			<trkpt lat="47.620160" lon="18.834815">
				<ele>232.000000</ele>
			</trkpt>
			<trkpt lat="47.620245" lon="18.834914">
				<ele>232.000000</ele>
			</trkpt>
			<trkpt lat="47.620457" lon="18.835165">
				<ele>232.000000</ele>
			</trkpt>
			<trkpt lat="47.620590" lon="18.835335">
				<ele>233.000000</ele>
			</trkpt>
			<trkpt lat="47.620729" lon="18.835507">
				<ele>233.000000</ele>
			</trkpt>
			<trkpt lat="47.620820" lon="18.835651">
				<ele>233.000000</ele>
			</trkpt>
			<trkpt lat="47.620874" lon="18.835750">
				<ele>233.000000</ele>
			</trkpt>
			<trkpt lat="47.620880" lon="18.835758">
				<ele>234.000000</ele>
			</trkpt>
			<trkpt lat="47.620892" lon="18.835777">
				<ele>234.000000</ele>
			</trkpt>
			<trkpt lat="47.620910" lon="18.835811">
				<ele>234.000000</ele>
			</trkpt>
			<trkpt lat="47.620929" lon="18.835838">
				<ele>234.000000</ele>
			</trkpt>
			<trkpt lat="47.621068" lon="18.836081">
				<ele>234.000000</ele>
			</trkpt>
			<trkpt lat="47.621195" lon="18.836253">
				<ele>234.000000</ele>
			</trkpt>
			<trkpt lat="47.621516" lon="18.836100">
				<ele>235.000000</ele>
			</trkpt>
			<trkpt lat="47.621570" lon="18.836090">
				<ele>235.000000</ele>
			</trkpt>
			<trkpt lat="47.621625" lon="18.836100">
				<ele>235.000000</ele>
			</trkpt>
			<trkpt lat="47.621891" lon="18.836171">
				<ele>236.000000</ele>
			</trkpt>
			<trkpt lat="47.622031" lon="18.836163">
				<ele>236.000000</ele>
			</trkpt>
			<trkpt lat="47.622297" lon="18.836144">
				<ele>236.000000</ele>
			</trkpt>
			<trkpt lat="47.622443" lon="18.836100">
				<ele>237.000000</ele>
			</trkpt>
			<trkpt lat="47.622575" lon="18.836054">
				<ele>237.000000</ele>
			</trkpt>
			<trkpt lat="47.622727" lon="18.835983">
				<ele>237.000000</ele>
			</trkpt>
			<trkpt lat="47.622999" lon="18.835345">
				<ele>233.000000</ele>
			</trkpt>
			<trkpt lat="47.623090" lon="18.835156">
				<ele>231.000000</ele>
			</trkpt>
			<trkpt lat="47.623272" lon="18.834878">
				<ele>230.000000</ele>
			</trkpt>
			<trkpt lat="47.623411" lon="18.834689">
				<ele>229.000000</ele>
			</trkpt>
			<trkpt lat="47.623532" lon="18.834528">
				<ele>228.000000</ele>
			</trkpt>
			<trkpt lat="47.623793" lon="18.834249">
				<ele>227.000000</ele>
			</trkpt>
			<trkpt lat="47.623998" lon="18.833997">
				<ele>226.000000</ele>
			</trkpt>
			<trkpt lat="47.624168" lon="18.833809">
				<ele>225.000000</ele>
			</trkpt>
			<trkpt lat="47.624320" lon="18.833629">
				<ele>224.000000</ele>
			</trkpt>
			<trkpt lat="47.624598" lon="18.833351">
				<ele>223.000000</ele>
			</trkpt>
			<trkpt lat="47.624852" lon="18.833180">
				<ele>222.000000</ele>
			</trkpt>
			<trkpt lat="47.625064" lon="18.833027">
				<ele>221.000000</ele>
			</trkpt>
			<trkpt lat="47.625215" lon="18.832911">
				<ele>221.000000</ele>
			</trkpt>
			<trkpt lat="47.625319" lon="18.832838">
				<ele>220.000000</ele>
			</trkpt>
			<trkpt lat="47.625488" lon="18.832767">
				<ele>220.000000</ele>
			</trkpt>
			<trkpt lat="47.625555" lon="18.832748">
				<ele>220.000000</ele>
			</trkpt>
			<trkpt lat="47.625773" lon="18.832668">
				<ele>219.000000</ele>
			</trkpt>
			<trkpt lat="47.625845" lon="18.832622">
				<ele>219.000000</ele>
			</trkpt>
			<trkpt lat="47.625887" lon="18.832605">
				<ele>219.000000</ele>
			</trkpt>
			<trkpt lat="47.625985" lon="18.832524">
				<ele>218.000000</ele>
			</trkpt>
			<trkpt lat="47.626081" lon="18.832425">
				<ele>218.000000</ele>
			</trkpt>
			<trkpt lat="47.626233" lon="18.832272">
				<ele>217.000000</ele>
			</trkpt>
			<trkpt lat="47.626729" lon="18.831779">
				<ele>216.000000</ele>
			</trkpt>
			<trkpt lat="47.627304" lon="18.831213">
				<ele>214.000000</ele>
			</trkpt>
			<trkpt lat="47.627740" lon="18.830781">
				<ele>212.000000</ele>
			</trkpt>
			<trkpt lat="47.627994" lon="18.830485">
				<ele>211.000000</ele>
			</trkpt>
			<trkpt lat="47.628079" lon="18.830350">
				<ele>211.000000</ele>
			</trkpt>
			<trkpt lat="47.628182" lon="18.830152">
				<ele>211.000000</ele>
			</trkpt>
			<trkpt lat="47.628358" lon="18.829748">
				<ele>210.000000</ele>
			</trkpt>
			<trkpt lat="47.628509" lon="18.829380">
				<ele>210.000000</ele>
			</trkpt>
			<trkpt lat="47.628642" lon="18.829066">
				<ele>209.000000</ele>
			</trkpt>
			<trkpt lat="47.628781" lon="18.828814">
				<ele>209.000000</ele>
			</trkpt>
			<trkpt lat="47.629563" lon="18.827628">
				<ele>208.000000</ele>
			</trkpt>
			<trkpt lat="47.629611" lon="18.827700">
				<ele>208.000000</ele>
			</trkpt>
			<trkpt lat="47.629635" lon="18.827737">
				<ele>208.000000</ele>
			</trkpt>
			<trkpt lat="47.629883" lon="18.827358">
				<ele>208.000000</ele>
			</trkpt>
			<trkpt lat="47.630083" lon="18.827062">
				<ele>208.000000</ele>
			</trkpt>
			<trkpt lat="47.630259" lon="18.826829">
				<ele>208.000000</ele>
			</trkpt>
			<trkpt lat="47.630367" lon="18.826685">
				<ele>207.000000</ele>
			</trkpt>
			<trkpt lat="47.631167" lon="18.825697">
				<ele>207.000000</ele>
			</trkpt>
			<trkpt lat="47.631476" lon="18.825311">
				<ele>206.000000</ele>
			</trkpt>
			<trkpt lat="47.631518" lon="18.825383">
				<ele>206.000000</ele>
			</trkpt>
			<trkpt lat="47.631651" lon="18.825400">
				<ele>206.000000</ele>
			</trkpt>
			<trkpt lat="47.631851" lon="18.825544">
				<ele>206.000000</ele>
			</trkpt>
			<trkpt lat="47.631954" lon="18.825616">
				<ele>206.000000</ele>
			</trkpt>
			<trkpt lat="47.632056" lon="18.825687">
				<ele>206.000000</ele>
			</trkpt>
			<trkpt lat="47.632062" lon="18.825733">
				<ele>206.000000</ele>
			</trkpt>
			<trkpt lat="47.632056" lon="18.825796">
				<ele>206.000000</ele>
			</trkpt>
			<trkpt lat="47.632044" lon="18.825850">
				<ele>206.000000</ele>
			</trkpt>
			<trkpt lat="47.632099" lon="18.825894">
				<ele>206.000000</ele>
			</trkpt>
			<trkpt lat="47.632166" lon="18.825949">
				<ele>206.000000</ele>
			</trkpt>
			<trkpt lat="47.632196" lon="18.825886">
				<ele>206.000000</ele>
			</trkpt>
			<trkpt lat="47.632286" lon="18.825976">
				<ele>206.000000</ele>
			</trkpt>
			<trkpt lat="47.632329" lon="18.826047">
				<ele>206.000000</ele>
			</trkpt>
			<trkpt lat="47.632432" lon="18.826280">
				<ele>207.000000</ele>
			</trkpt>
			<trkpt lat="47.632498" lon="18.826452">
				<ele>208.000000</ele>
			</trkpt>
			<trkpt lat="47.632577" lon="18.826559">
				<ele>208.000000</ele>
			</trkpt>
			<trkpt lat="47.633146" lon="18.827152">
				<ele>211.000000</ele>
			</trkpt>
			<trkpt lat="47.633188" lon="18.827215">
				<ele>213.000000</ele>
			</trkpt>
			<trkpt lat="47.633128" lon="18.827278">
				<ele>213.000000</ele>
			</trkpt>
			<trkpt lat="47.632976" lon="18.827448">
				<ele>214.000000</ele>
			</trkpt>
			<trkpt lat="47.632970" lon="18.827494">
				<ele>214.000000</ele>
			</trkpt>
			<trkpt lat="47.633116" lon="18.827951">
				<ele>214.000000</ele>
			</trkpt>
			<trkpt lat="47.633261" lon="18.828419">
				<ele>215.000000</ele>
			</trkpt>
			<trkpt lat="47.633292" lon="18.828517">
				<ele>215.000000</ele>
			</trkpt>
			<trkpt lat="47.633473" lon="18.829020">
				<ele>216.000000</ele>
			</trkpt>
			<trkpt lat="47.633588" lon="18.829380">
				<ele>216.000000</ele>
			</trkpt>
			<trkpt lat="47.633933" lon="18.830448">
				<ele>217.000000</ele>
			</trkpt>
			<trkpt lat="47.633969" lon="18.830521">
				<ele>218.000000</ele>
			</trkpt>
			<trkpt lat="47.634036" lon="18.830548">
				<ele>218.000000</ele>
			</trkpt>
			<trkpt lat="47.634297" lon="18.830521">
				<ele>218.000000</ele>
			</trkpt>
			<trkpt lat="47.635065" lon="18.830448">
				<ele>220.000000</ele>
			</trkpt>
			<trkpt lat="47.635223" lon="18.830440">
				<ele>220.000000</ele>
			</trkpt>
			<trkpt lat="47.635283" lon="18.830477">
				<ele>220.000000</ele>
			</trkpt>
			<trkpt lat="47.635331" lon="18.830538">
				<ele>220.000000</ele>
			</trkpt>
			<trkpt lat="47.635447" lon="18.830404">
				<ele>220.000000</ele>
			</trkpt>
			<trkpt lat="47.635755" lon="18.830045">
				<ele>225.000000</ele>
			</trkpt>
			<trkpt lat="47.635785" lon="18.830018">
				<ele>225.000000</ele>
			</trkpt>
			<trkpt lat="47.635840" lon="18.829982">
				<ele>226.000000</ele>
			</trkpt>
			<trkpt lat="47.635973" lon="18.829955">
				<ele>226.000000</ele>
			</trkpt>
			<trkpt lat="47.636318" lon="18.829856">
				<ele>228.000000</ele>
			</trkpt>
			<trkpt lat="47.637196" lon="18.829632">
				<ele>230.000000</ele>
			</trkpt>
			<trkpt lat="47.637329" lon="18.829569">
				<ele>230.000000</ele>
			</trkpt>
			<trkpt lat="47.637395" lon="18.829622">
				<ele>231.000000</ele>
			</trkpt>
			<trkpt lat="47.637601" lon="18.829821">
				<ele>233.000000</ele>
			</trkpt>
			<trkpt lat="47.637729" lon="18.829892">
				<ele>234.000000</ele>
			</trkpt>
			<trkpt lat="47.637801" lon="18.829892">
				<ele>234.000000</ele>
			</trkpt>
			<trkpt lat="47.637789" lon="18.830054">
				<ele>234.000000</ele>
			</trkpt>
			<trkpt lat="47.637269" lon="18.830916">
				<ele>232.000000</ele>
			</trkpt>
		</trkseg>
	</trk>
</gpx>

